{
"type": "FeatureCollection",
"name": "geo_36_1",
"crs": { "type": "name", "properties": { "name": "urn:ogc:def:crs:OGC:1.3:CRS84" } },
"features": [
{ "type": "Feature", "properties": { "ID": 3611365100260, "正式名称": "むつみホスピタル", "機関区分": 1, "都道府県コード": 36, "市区町村コード": 201, "所在地": "徳島県徳島市南矢三町３丁目１１－２３", "緯度": 34.082753, "経度": 134.519241, "url": "https://www.iryou.teikyouseido.mhlw.go.jp/znk-web/juminkanja/S2430/initialize?prefCd=36&kikanCd=1365100260&kikanKbn=1", "url2": "https://www.mutsumi-h.jp", "内容": "むつみホスピタル【1:病院】【診療科目:内科_小児科_精神科_心療内科】【一般病床数:0療養病床数:0精神病床数:283感染症病床数:0合計病床数:283】徳島県徳島市南矢三町３丁目１１－２３" }, "geometry": { "type": "Point", "coordinates": [ 134.519241, 34.082753 ] } },
{ "type": "Feature", "properties": { "ID": 3611365100390, "正式名称": "第一病院", "機関区分": 1, "都道府県コード": 36, "市区町村コード": 201, "所在地": "徳島県徳島市新浜本町１丁目７番１０号", "緯度": 34.044801, "経度": 134.573293, "url": "https://www.iryou.teikyouseido.mhlw.go.jp/znk-web/juminkanja/S2430/initialize?prefCd=36&kikanCd=1365100390&kikanKbn=1", "url2": "https://www.daiichi-hospital.com/", "内容": "第一病院【1:病院】【診療科目:内科_精神科_神経科_心療内科】【一般病床数:0療養病床数:0精神病床数:308感染症病床数:0合計病床数:308】徳島県徳島市新浜本町１丁目７番１０号" }, "geometry": { "type": "Point", "coordinates": [ 134.573293, 34.044801 ] } },
{ "type": "Feature", "properties": { "ID": 3611365100420, "正式名称": "ＴＡＯＫＡこころの医療センター", "機関区分": 1, "都道府県コード": 36, "市区町村コード": 201, "所在地": "徳島県徳島市城東町２丁目７－９", "緯度": 34.073029, "経度": 134.575264, "url": "https://www.iryou.teikyouseido.mhlw.go.jp/znk-web/juminkanja/S2430/initialize?prefCd=36&kikanCd=1365100420&kikanKbn=1", "url2": "http://www.taoka-higashi.or.jp/", "内容": "ＴＡＯＫＡこころの医療センター【1:病院】【診療科目:内科_神経内科_小児神経内科_精神科_心療内科_歯科】【一般病床数:0療養病床数:0精神病床数:322感染症病床数:0合計病床数:322】徳島県徳島市城東町２丁目７－９" }, "geometry": { "type": "Point", "coordinates": [ 134.575264, 34.073029 ] } },
{ "type": "Feature", "properties": { "ID": 3611365100550, "正式名称": "そよかぜ病院", "機関区分": 1, "都道府県コード": 36, "市区町村コード": 201, "所在地": "徳島県徳島市名東町２丁目６５０番地の３５", "緯度": 34.062295, "経度": 134.492354, "url": "https://www.iryou.teikyouseido.mhlw.go.jp/znk-web/juminkanja/S2430/initialize?prefCd=36&kikanCd=1365100550&kikanKbn=1", "url2": "https://sei-ryu-kai.or.jp", "内容": "そよかぜ病院【1:病院】【診療科目:内科_精神科_心療内科】【一般病床数:0療養病床数:0精神病床数:252感染症病床数:0合計病床数:252】徳島県徳島市名東町２丁目６５０番地の３５" }, "geometry": { "type": "Point", "coordinates": [ 134.492354, 34.062295 ] } },
{ "type": "Feature", "properties": { "ID": 3611365100680, "正式名称": "徳島大学病院", "機関区分": 1, "都道府県コード": 36, "市区町村コード": 201, "所在地": "徳島県徳島市蔵本町２丁目５０－１", "緯度": 34.076304, "経度": 134.518195, "url": "https://www.iryou.teikyouseido.mhlw.go.jp/znk-web/juminkanja/S2430/initialize?prefCd=36&kikanCd=1365100680&kikanKbn=1", "url2": "http://www.tokushima-hosp.jp/", "内容": "徳島大学病院【1:病院】【診療科目:内科_脳神経内科_循環器内科_外科_脳神経外科_心臓血管外科_整形外科_形成外科_小児科_小児外科_産婦人科_眼科_耳鼻いんこう科_皮膚科_泌尿器科_精神科_歯科_矯正歯科_歯科口腔外科_小児歯科_リハビリテーション科_放射線科_病理診断科_救急科_麻酔科】【一般病床数:643療養病床数:0精神病床数:41感染症病床数:8合計病床数:692】徳島県徳島市蔵本町２丁目５０－１" }, "geometry": { "type": "Point", "coordinates": [ 134.518195, 34.076304 ] } },
{ "type": "Feature", "properties": { "ID": 3611365100840, "正式名称": "徳島県立中央病院", "機関区分": 1, "都道府県コード": 36, "市区町村コード": 201, "所在地": "徳島県徳島市蔵本町１丁目１０－３", "緯度": 34.075075, "経度": 134.52041, "url": "https://www.iryou.teikyouseido.mhlw.go.jp/znk-web/juminkanja/S2430/initialize?prefCd=36&kikanCd=1365100840&kikanKbn=1", "url2": "https://tph.pref.tokushima.lg.jp", "内容": "徳島県立中央病院【1:病院】【診療科目:内科_感染症内科_血液内科_糖尿病・代謝内科_脳神経内科_呼吸器内科_循環器内科_消化器内科_腎臓内科_外科_脳神経外科_呼吸器外科_心臓血管外科_消化器外科_乳腺・内分泌外科_整形外科_形成外科_小児科_産婦人科_眼科_耳鼻いんこう科_皮膚科_泌尿器科_精神科_歯科口腔外科_リハビリテーション科_放射線診断科_放射線治療科_病理診断科_臨床検査科_救急科_麻酔科】【一般病床数:390療養病床数:0精神病床数:40感染症病床数:5合計病床数:440】徳島県徳島市蔵本町１丁目１０－３" }, "geometry": { "type": "Point", "coordinates": [ 134.52041, 34.075075 ] } },
{ "type": "Feature", "properties": { "ID": 3611365100970, "正式名称": "徳島市民病院", "機関区分": 1, "都道府県コード": 36, "市区町村コード": 201, "所在地": "徳島県徳島市北常三島町２丁目３４番地", "緯度": 34.082555, "経度": 134.563127, "url": "https://www.iryou.teikyouseido.mhlw.go.jp/znk-web/juminkanja/S2430/initialize?prefCd=36&kikanCd=1365100970&kikanKbn=1", "url2": "https://www.city-tokushima-hosp.jp/", "内容": "徳島市民病院【1:病院】【診療科目:内科_血液・腫瘍内科_血液内科_糖尿病・代謝内科_呼吸器内科_循環器内科_消化器内科_腫瘍内科_内視鏡内科_外科_脳神経外科_呼吸器外科_心臓血管外科_消化器外科_肝臓・胆のう・膵臓外科_乳腺外科_大腸・肛門外科_腫瘍外科_内視鏡外科_整形外科_形成外科_小児科_産婦人科_眼科_耳鼻いんこう科_皮膚科_泌尿器科_精神科_心療内科_リウマチ科_リハビリテーション科_放射線科_病理診断科_臨床検査科_麻酔科_婦人腫瘍科】【一般病床数:307療養病床数:0精神病床数:0感染症病床数:0合計病床数:307】徳島県徳島市北常三島町２丁目３４番地" }, "geometry": { "type": "Point", "coordinates": [ 134.563127, 34.082555 ] } },
{ "type": "Feature", "properties": { "ID": 3611365101140, "正式名称": "大久保病院", "機関区分": 1, "都道府県コード": 36, "市区町村コード": 201, "所在地": "徳島県徳島市大道２－３０", "緯度": 34.064606, "経度": 134.546728, "url": "https://www.iryou.teikyouseido.mhlw.go.jp/znk-web/juminkanja/S2430/initialize?prefCd=36&kikanCd=1365101140&kikanKbn=1", "url2": null, "内容": "大久保病院【1:病院】【診療科目:内科_呼吸器内科_循環器内科_胃腸内科_肝臓内科_外科_皮膚科_リハビリテーション科】【一般病床数:0療養病床数:105精神病床数:0感染症病床数:0合計病床数:105】徳島県徳島市大道２－３０" }, "geometry": { "type": "Point", "coordinates": [ 134.546728, 34.064606 ] } },
{ "type": "Feature", "properties": { "ID": 3611365101850, "正式名称": "水の都記念病院", "機関区分": 1, "都道府県コード": 36, "市区町村コード": 201, "所在地": "徳島県徳島市北島田町１丁目４６番１１", "緯度": 34.083501, "経度": 134.518249, "url": "https://www.iryou.teikyouseido.mhlw.go.jp/znk-web/juminkanja/S2430/initialize?prefCd=36&kikanCd=1365101850&kikanKbn=1", "url2": "http://www.mizunomiyako.net/", "内容": "水の都記念病院【1:病院】【診療科目:内科_代謝・内分泌内科_脳神経内科_循環器内科_消化器内科_外科_脳神経外科_消化器外科_肝臓外科_肛門外科_整形外科_形成外科_小児科_皮膚科_リハビリテーション科_放射線科】【一般病床数:80療養病床数:0精神病床数:0感染症病床数:0合計病床数:80】徳島県徳島市北島田町１丁目４６番１１" }, "geometry": { "type": "Point", "coordinates": [ 134.518249, 34.083501 ] } },
{ "type": "Feature", "properties": { "ID": 3611365102020, "正式名称": "鈴江病院", "機関区分": 1, "都道府県コード": 36, "市区町村コード": 201, "所在地": "徳島県徳島市佐古八番町４番２２号", "緯度": 34.077296, "経度": 134.521708, "url": "https://www.iryou.teikyouseido.mhlw.go.jp/znk-web/juminkanja/S2430/initialize?prefCd=36&kikanCd=1365102020&kikanKbn=1", "url2": "http://www.suzue.jp", "内容": "鈴江病院【1:病院】【診療科目:内科_呼吸器内科_消化器内科_外科_脳神経外科_消化器外科_リハビリテーション科_麻酔科】【一般病床数:0療養病床数:42精神病床数:0感染症病床数:0合計病床数:42】徳島県徳島市佐古八番町４番２２号" }, "geometry": { "type": "Point", "coordinates": [ 134.521708, 34.077296 ] } },
{ "type": "Feature", "properties": { "ID": 3611365102280, "正式名称": "寺沢病院", "機関区分": 1, "都道府県コード": 36, "市区町村コード": 201, "所在地": "徳島県徳島市津田西町１丁目２番３０号", "緯度": 34.051593, "経度": 134.576683, "url": "https://www.iryou.teikyouseido.mhlw.go.jp/znk-web/juminkanja/S2430/initialize?prefCd=36&kikanCd=1365102280&kikanKbn=1", "url2": "http://terasawa.or.jp", "内容": "寺沢病院【1:病院】【診療科目:内科_糖尿病内科_循環器内科_消化器内科_胃腸内科_肝臓内科_外科_リハビリテーション科_放射線科】【一般病床数:42療養病床数:46精神病床数:0感染症病床数:0合計病床数:88】徳島県徳島市津田西町１丁目２番３０号" }, "geometry": { "type": "Point", "coordinates": [ 134.576683, 34.051593 ] } },
{ "type": "Feature", "properties": { "ID": 3611365102570, "正式名称": "福田整形外科病院", "機関区分": 1, "都道府県コード": 36, "市区町村コード": 201, "所在地": "徳島県徳島市南内町１丁目３４番地", "緯度": 34.069218, "経度": 134.552575, "url": "https://www.iryou.teikyouseido.mhlw.go.jp/znk-web/juminkanja/S2430/initialize?prefCd=36&kikanCd=1365102570&kikanKbn=1", "url2": null, "内容": "福田整形外科病院【1:病院】【診療科目:整形外科_リハビリテーション科_麻酔科】【一般病床数:0療養病床数:32精神病床数:0感染症病床数:0合計病床数:32】徳島県徳島市南内町１丁目３４番地" }, "geometry": { "type": "Point", "coordinates": [ 134.552575, 34.069218 ] } },
{ "type": "Feature", "properties": { "ID": 3611365102860, "正式名称": "善成病院", "機関区分": 1, "都道府県コード": 36, "市区町村コード": 201, "所在地": "徳島県徳島市佐古三番町７－３", "緯度": 34.078754, "経度": 134.53557, "url": "https://www.iryou.teikyouseido.mhlw.go.jp/znk-web/juminkanja/S2430/initialize?prefCd=36&kikanCd=1365102860&kikanKbn=1", "url2": null, "内容": "善成病院【1:病院】【診療科目:内科_外科_整形外科_リハビリテーション科】【一般病床数:0療養病床数:36精神病床数:0感染症病床数:0合計病床数:36】徳島県徳島市佐古三番町７－３" }, "geometry": { "type": "Point", "coordinates": [ 134.53557, 34.078754 ] } },
{ "type": "Feature", "properties": { "ID": 3611365103290, "正式名称": "城南病院", "機関区分": 1, "都道府県コード": 36, "市区町村コード": 201, "所在地": "徳島県徳島市丈六町行正２７－１", "緯度": 34.011404, "経度": 134.548423, "url": "https://www.iryou.teikyouseido.mhlw.go.jp/znk-web/juminkanja/S2430/initialize?prefCd=36&kikanCd=1365103290&kikanKbn=1", "url2": "https://www.jonanh.com/", "内容": "城南病院【1:病院】【診療科目:内科_神経内科_精神科_心療内科】【一般病床数:0療養病床数:0精神病床数:167感染症病床数:0合計病床数:167】徳島県徳島市丈六町行正２７－１" }, "geometry": { "type": "Point", "coordinates": [ 134.548423, 34.011404 ] } },
{ "type": "Feature", "properties": { "ID": 3611365103580, "正式名称": "徳島健生病院", "機関区分": 1, "都道府県コード": 36, "市区町村コード": 201, "所在地": "徳島県徳島市下助任町４丁目９", "緯度": 34.082877, "経度": 134.549947, "url": "https://www.iryou.teikyouseido.mhlw.go.jp/znk-web/juminkanja/S2430/initialize?prefCd=36&kikanCd=1365103580&kikanKbn=1", "url2": "http://kenkou-seikyou.com/", "内容": "徳島健生病院【1:病院】【診療科目:内科_血液内科_糖尿病内科_呼吸器内科_循環器内科_消化器内科_腎臓内科_神経内科_外科_脳神経外科_肛門外科_整形外科_小児科_眼科_精神科_心療内科_リウマチ科_リハビリテーション科_放射線科_麻酔科】【一般病床数:158療養病床数:28精神病床数:0感染症病床数:0合計病床数:186】徳島県徳島市下助任町４丁目９" }, "geometry": { "type": "Point", "coordinates": [ 134.549947, 34.082877 ] } },
{ "type": "Feature", "properties": { "ID": 3611365104170, "正式名称": "伊月病院", "機関区分": 1, "都道府県コード": 36, "市区町村コード": 201, "所在地": "徳島県徳島市徳島町２丁目５４番地", "緯度": 34.074044, "経度": 134.558036, "url": "https://www.iryou.teikyouseido.mhlw.go.jp/znk-web/juminkanja/S2430/initialize?prefCd=36&kikanCd=1365104170&kikanKbn=1", "url2": "http://www.itsuki-hp.jp/", "内容": "伊月病院【1:病院】【診療科目:内科_脳神経内科_循環器内科_胃腸内科_整形外科_リウマチ科_リハビリテーション科】【一般病床数:89療養病床数:0精神病床数:0感染症病床数:0合計病床数:89】徳島県徳島市徳島町２丁目５４番地" }, "geometry": { "type": "Point", "coordinates": [ 134.558036, 34.074044 ] } },
{ "type": "Feature", "properties": { "ID": 3611365104620, "正式名称": "橋本病院", "機関区分": 1, "都道府県コード": 36, "市区町村コード": 201, "所在地": "徳島県徳島市中常三島町３丁目２２－１", "緯度": 34.078612, "経度": 134.564581, "url": "https://www.iryou.teikyouseido.mhlw.go.jp/znk-web/juminkanja/S2430/initialize?prefCd=36&kikanCd=1365104620&kikanKbn=1", "url2": "http://www.hp-hashimoto.com", "内容": "橋本病院【1:病院】【診療科目:内科_呼吸器内科_消化器内科_整形外科_リハビリテーション科】【一般病床数:0療養病床数:57精神病床数:0感染症病床数:0合計病床数:57】徳島県徳島市中常三島町３丁目２２－１" }, "geometry": { "type": "Point", "coordinates": [ 134.564581, 34.078612 ] } },
{ "type": "Feature", "properties": { "ID": 3611365104750, "正式名称": "中洲八木病院", "機関区分": 1, "都道府県コード": 36, "市区町村コード": 201, "所在地": "徳島県徳島市中洲町１丁目３１番地", "緯度": 34.068197, "経度": 134.557653, "url": "https://www.iryou.teikyouseido.mhlw.go.jp/znk-web/juminkanja/S2430/initialize?prefCd=36&kikanCd=1365104750&kikanKbn=1", "url2": "http://www.yagihosp.com/", "内容": "中洲八木病院【1:病院】【診療科目:内科_糖尿病内科_循環器内科_外科_脳神経外科_心臓血管外科_整形外科_美容皮膚科_リウマチ科_リハビリテーション科】【一般病床数:0療養病床数:105精神病床数:0感染症病床数:0合計病床数:105】徳島県徳島市中洲町１丁目３１番地" }, "geometry": { "type": "Point", "coordinates": [ 134.557653, 34.068197 ] } },
{ "type": "Feature", "properties": { "ID": 3611365105050, "正式名称": "たおか内科病院", "機関区分": 1, "都道府県コード": 36, "市区町村コード": 201, "所在地": "徳島県徳島市城東町２丁目７－６１", "緯度": 34.073742, "経度": 134.575438, "url": "https://www.iryou.teikyouseido.mhlw.go.jp/znk-web/juminkanja/S2430/initialize?prefCd=36&kikanCd=1365105050&kikanKbn=1", "url2": null, "内容": "たおか内科病院【1:病院】【診療科目:内科_リハビリテーション科】【一般病床数:0療養病床数:30精神病床数:0感染症病床数:0合計病床数:30】徳島県徳島市城東町２丁目７－６１" }, "geometry": { "type": "Point", "coordinates": [ 134.575438, 34.073742 ] } },
{ "type": "Feature", "properties": { "ID": 3611365105210, "正式名称": "東洋病院", "機関区分": 1, "都道府県コード": 36, "市区町村コード": 201, "所在地": "徳島県徳島市北島田町１丁目１６０番地２", "緯度": 34.089417, "経度": 134.515915, "url": "https://www.iryou.teikyouseido.mhlw.go.jp/znk-web/juminkanja/S2430/initialize?prefCd=36&kikanCd=1365105210&kikanKbn=1", "url2": "http://toyohosp.jp", "内容": "東洋病院【1:病院】【診療科目:内科_呼吸器内科_漢方内科_リウマチ科_リハビリテーション科】【一般病床数:0療養病床数:50精神病床数:0感染症病床数:0合計病床数:50】徳島県徳島市北島田町１丁目１６０番地２" }, "geometry": { "type": "Point", "coordinates": [ 134.515915, 34.089417 ] } },
{ "type": "Feature", "properties": { "ID": 3611365105340, "正式名称": "稲山病院", "機関区分": 1, "都道府県コード": 36, "市区町村コード": 201, "所在地": "徳島県徳島市南田宮４－３－９", "緯度": 34.085894, "経度": 134.531466, "url": "https://www.iryou.teikyouseido.mhlw.go.jp/znk-web/juminkanja/S2430/initialize?prefCd=36&kikanCd=1365105340&kikanKbn=1", "url2": "http://www.inayama.or.jp", "内容": "稲山病院【1:病院】【診療科目:内科_呼吸器内科_循環器内科_消化器内科_なし_外科_乳腺外科_整形外科_皮膚科_リハビリテーション科】【一般病床数:40療養病床数:30精神病床数:0感染症病床数:0合計病床数:70】徳島県徳島市南田宮４－３－９" }, "geometry": { "type": "Point", "coordinates": [ 134.531466, 34.085894 ] } },
{ "type": "Feature", "properties": { "ID": 3611365105630, "正式名称": "眉山病院", "機関区分": 1, "都道府県コード": 36, "市区町村コード": 201, "所在地": "徳島県徳島市西二軒屋町２丁目３９－２", "緯度": 34.05905, "経度": 134.543885, "url": "https://www.iryou.teikyouseido.mhlw.go.jp/znk-web/juminkanja/S2430/initialize?prefCd=36&kikanCd=1365105630&kikanKbn=1", "url2": "https://bizan-hp.jp/", "内容": "眉山病院【1:病院】【診療科目:内科_呼吸器内科_循環器内科_消化器内科_皮膚科_リハビリテーション科】【一般病床数:0療養病床数:47精神病床数:0感染症病床数:0合計病床数:47】徳島県徳島市西二軒屋町２丁目３９－２" }, "geometry": { "type": "Point", "coordinates": [ 134.543885, 34.05905 ] } },
{ "type": "Feature", "properties": { "ID": 3611365105890, "正式名称": "中瀬病院", "機関区分": 1, "都道府県コード": 36, "市区町村コード": 201, "所在地": "徳島県徳島市応神町古川字戎子野９７－１", "緯度": 34.104973, "経度": 134.556312, "url": "https://www.iryou.teikyouseido.mhlw.go.jp/znk-web/juminkanja/S2430/initialize?prefCd=36&kikanCd=1365105890&kikanKbn=1", "url2": "http://nakase-hp.jp/", "内容": "中瀬病院【1:病院】【診療科目:内科_糖尿病内科_糖尿病・代謝内科_呼吸器内科_消化器内科_胃腸内科_外科_小児科】【一般病床数:0療養病床数:43精神病床数:0感染症病床数:0合計病床数:43】徳島県徳島市応神町古川字戎子野９７－１" }, "geometry": { "type": "Point", "coordinates": [ 134.556312, 34.104973 ] } },
{ "type": "Feature", "properties": { "ID": 3611365106190, "正式名称": "吉野川病院", "機関区分": 1, "都道府県コード": 36, "市区町村コード": 402, "所在地": "徳島県板野郡北島町高房字八丁野西３６－１３", "緯度": 34.131877, "経度": 134.537759, "url": "https://www.iryou.teikyouseido.mhlw.go.jp/znk-web/juminkanja/S2430/initialize?prefCd=36&kikanCd=1365106190&kikanKbn=1", "url2": "http://syuseikai-group.net/", "内容": "吉野川病院【1:病院】【診療科目:内科_循環器内科_脳神経外科_整形外科_リウマチ科_リハビリテーション科】【一般病床数:0療養病床数:115精神病床数:0感染症病床数:0合計病床数:115】徳島県板野郡北島町高房字八丁野西３６－１３" }, "geometry": { "type": "Point", "coordinates": [ 134.537759, 34.131877 ] } },
{ "type": "Feature", "properties": { "ID": 3611365106220, "正式名称": "浜病院", "機関区分": 1, "都道府県コード": 36, "市区町村コード": 403, "所在地": "徳島県板野郡藍住町矢上字北分９５番地", "緯度": 34.135228, "経度": 134.496337, "url": "https://www.iryou.teikyouseido.mhlw.go.jp/znk-web/juminkanja/S2430/initialize?prefCd=36&kikanCd=1365106220&kikanKbn=1", "url2": "https://hamahp.jp/", "内容": "浜病院【1:病院】【診療科目:内科_呼吸器内科_循環器内科_胃腸内科_肛門内科_皮膚科_泌尿器科_リハビリテーション科】【一般病床数:0療養病床数:40精神病床数:0感染症病床数:0合計病床数:40】徳島県板野郡藍住町矢上字北分９５番地" }, "geometry": { "type": "Point", "coordinates": [ 134.496337, 34.135228 ] } },
{ "type": "Feature", "properties": { "ID": 3611365106350, "正式名称": "リバーサイドのぞみ病院", "機関区分": 1, "都道府県コード": 36, "市区町村コード": 201, "所在地": "徳島県徳島市中徳島町２丁目９７－１", "緯度": 34.076108, "経度": 134.558889, "url": "https://www.iryou.teikyouseido.mhlw.go.jp/znk-web/juminkanja/S2430/initialize?prefCd=36&kikanCd=1365106350&kikanKbn=1", "url2": "http://www.nozomihp.com/", "内容": "リバーサイドのぞみ病院【1:病院】【診療科目:内科_糖尿病内科_呼吸器内科_循環器内科_消化器内科_神経内科_外科_心臓血管外科_小児科_心療内科_アレルギー科_リハビリテーション科】【一般病床数:0療養病床数:40精神病床数:0感染症病床数:0合計病床数:40】徳島県徳島市中徳島町２丁目９７－１" }, "geometry": { "type": "Point", "coordinates": [ 134.558889, 34.076108 ] } },
{ "type": "Feature", "properties": { "ID": 3611365106480, "正式名称": "博愛記念病院", "機関区分": 1, "都道府県コード": 36, "市区町村コード": 201, "所在地": "徳島県徳島市勝占町惣田９", "緯度": 34.021506, "経度": 134.551063, "url": "https://www.iryou.teikyouseido.mhlw.go.jp/znk-web/juminkanja/S2430/initialize?prefCd=36&kikanCd=1365106480&kikanKbn=1", "url2": "http://hakuaihp.jp/", "内容": "博愛記念病院【1:病院】【診療科目:内科_呼吸器内科_循環器内科_消化器内科_リハビリテーション科_放射線科】【一般病床数:57療養病床数:153精神病床数:0感染症病床数:0合計病床数:210】徳島県徳島市勝占町惣田９" }, "geometry": { "type": "Point", "coordinates": [ 134.551063, 34.021506 ] } },
{ "type": "Feature", "properties": { "ID": 3611365106770, "正式名称": "保岡クリニック論田病院", "機関区分": 1, "都道府県コード": 36, "市区町村コード": 201, "所在地": "徳島県徳島市論田町大江６番地の１", "緯度": 34.036911, "経度": 134.56829, "url": "https://www.iryou.teikyouseido.mhlw.go.jp/znk-web/juminkanja/S2430/initialize?prefCd=36&kikanCd=1365106770&kikanKbn=1", "url2": "http://www.asagao-gr.jp/", "内容": "保岡クリニック論田病院【1:病院】【診療科目:内科_ペインクリニック内科_リハビリテーション科_麻酔科】【一般病床数:0療養病床数:47精神病床数:0感染症病床数:0合計病床数:47】徳島県徳島市論田町大江６番地の１" }, "geometry": { "type": "Point", "coordinates": [ 134.56829, 34.036911 ] } },
{ "type": "Feature", "properties": { "ID": 3611365106930, "正式名称": "松村病院", "機関区分": 1, "都道府県コード": 36, "市区町村コード": 201, "所在地": "徳島県徳島市川内町鶴島１６２", "緯度": 34.09477, "経度": 134.572244, "url": "https://www.iryou.teikyouseido.mhlw.go.jp/znk-web/juminkanja/S2430/initialize?prefCd=36&kikanCd=1365106930&kikanKbn=1", "url2": "http://www.wakakusakai.com/matsumura_about.html", "内容": "松村病院【1:病院】【診療科目:内科_胃腸内科_外科_整形外科_リハビリテーション科】【一般病床数:0療養病床数:56精神病床数:0感染症病床数:0合計病床数:56】徳島県徳島市川内町鶴島１６２" }, "geometry": { "type": "Point", "coordinates": [ 134.572244, 34.09477 ] } },
{ "type": "Feature", "properties": { "ID": 3611365107100, "正式名称": "稲次病院", "機関区分": 1, "都道府県コード": 36, "市区町村コード": 403, "所在地": "徳島県板野郡藍住町笠木字西野５０－１", "緯度": 34.135991, "経度": 134.497341, "url": "https://www.iryou.teikyouseido.mhlw.go.jp/znk-web/juminkanja/S2430/initialize?prefCd=36&kikanCd=1365107100&kikanKbn=1", "url2": "http://www.ryoun.com/inatsugi/outline.html", "内容": "稲次病院【1:病院】【診療科目:内科_神経内科_脳神経外科_整形外科_形成外科_リウマチ科_リハビリテーション科_麻酔科】【一般病床数:26療養病床数:41精神病床数:0感染症病床数:0合計病床数:67】徳島県板野郡藍住町笠木字西野５０－１" }, "geometry": { "type": "Point", "coordinates": [ 134.497341, 34.135991 ] } },
{ "type": "Feature", "properties": { "ID": 3611365107520, "正式名称": "沖の洲病院", "機関区分": 1, "都道府県コード": 36, "市区町村コード": 201, "所在地": "徳島県徳島市城東町１丁目８番８号", "緯度": 34.073635, "経度": 134.573979, "url": "https://www.iryou.teikyouseido.mhlw.go.jp/znk-web/juminkanja/S2430/initialize?prefCd=36&kikanCd=1365107520&kikanKbn=1", "url2": "http://www.nmt.ne.jp/~nagioo/", "内容": "沖の洲病院【1:病院】【診療科目:内科_呼吸器内科_循環器内科_胃腸内科_外科_脳神経外科_肛門外科_整形外科_婦人科_泌尿器科_リウマチ科_リハビリテーション科_放射線科_麻酔科】【一般病床数:52療養病床数:0精神病床数:0感染症病床数:0合計病床数:52】徳島県徳島市城東町１丁目８番８号" }, "geometry": { "type": "Point", "coordinates": [ 134.573979, 34.073635 ] } },
{ "type": "Feature", "properties": { "ID": 3611365107650, "正式名称": "木下病院", "機関区分": 1, "都道府県コード": 36, "市区町村コード": 201, "所在地": "徳島県徳島市南末広町４－７０", "緯度": 34.060393, "経度": 134.575964, "url": "https://www.iryou.teikyouseido.mhlw.go.jp/znk-web/juminkanja/S2430/initialize?prefCd=36&kikanCd=1365107650&kikanKbn=1", "url2": "http://www.kinoshita-hp.com/", "内容": "木下病院【1:病院】【診療科目:内科_糖尿病内科_呼吸器内科_循環器内科_胃腸内科_外科_脳神経外科_肛門外科_整形外科_アレルギー科_リウマチ科_リハビリテーション科_放射線科】【一般病床数:42療養病床数:50精神病床数:0感染症病床数:0合計病床数:92】徳島県徳島市南末広町４－７０" }, "geometry": { "type": "Point", "coordinates": [ 134.575964, 34.060393 ] } },
{ "type": "Feature", "properties": { "ID": 3611365107940, "正式名称": "森岡病院", "機関区分": 1, "都道府県コード": 36, "市区町村コード": 201, "所在地": "徳島県徳島市八万町大野５－１", "緯度": 34.043494, "経度": 134.550022, "url": "https://www.iryou.teikyouseido.mhlw.go.jp/znk-web/juminkanja/S2430/initialize?prefCd=36&kikanCd=1365107940&kikanKbn=1", "url2": null, "内容": "森岡病院【1:病院】【診療科目:内科_循環器内科_胃腸内科_リハビリテーション科_放射線科】【一般病床数:0療養病床数:52精神病床数:0感染症病床数:0合計病床数:52】徳島県徳島市八万町大野５－１" }, "geometry": { "type": "Point", "coordinates": [ 134.550022, 34.043494 ] } },
{ "type": "Feature", "properties": { "ID": 3611365108240, "正式名称": "近藤内科病院", "機関区分": 1, "都道府県コード": 36, "市区町村コード": 201, "所在地": "徳島県徳島市西新浜町１丁目６番２５号", "緯度": 34.04441, "経度": 134.558015, "url": "https://www.iryou.teikyouseido.mhlw.go.jp/znk-web/juminkanja/S2430/initialize?prefCd=36&kikanCd=1365108240&kikanKbn=1", "url2": "http://www.kondo-hp.com/", "内容": "近藤内科病院【1:病院】【診療科目:内科_糖尿病内科_脳神経内科_呼吸器内科_循環器内科_消化器内科_腫瘍内科_内視鏡内科_緩和ケア内科_整形外科_リウマチ科_リハビリテーション科】【一般病床数:55療養病床数:0精神病床数:0感染症病床数:0合計病床数:55】徳島県徳島市西新浜町１丁目６番２５号" }, "geometry": { "type": "Point", "coordinates": [ 134.558015, 34.04441 ] } },
{ "type": "Feature", "properties": { "ID": 3611365108370, "正式名称": "きたじま田岡病院", "機関区分": 1, "都道府県コード": 36, "市区町村コード": 402, "所在地": "徳島県板野郡北島町鯛浜字川久保３０番地１", "緯度": 34.110774, "経度": 134.553595, "url": "https://www.iryou.teikyouseido.mhlw.go.jp/znk-web/juminkanja/S2430/initialize?prefCd=36&kikanCd=1365108370&kikanKbn=1", "url2": "http://www.kitajima-taoka.or.jp", "内容": "きたじま田岡病院【1:病院】【診療科目:内科_血液内科_脳神経内科_呼吸器内科_循環器内科_消化器内科_外科_脳神経外科_呼吸器外科_消化器外科_肛門外科_整形外科_形成外科_皮膚科_精神科_心療内科_歯科_リウマチ科_リハビリテーション科_放射線科_救急科_麻酔科】【一般病床数:146療養病床数:52精神病床数:0感染症病床数:0合計病床数:198】徳島県板野郡北島町鯛浜字川久保３０番地１" }, "geometry": { "type": "Point", "coordinates": [ 134.553595, 34.110774 ] } },
{ "type": "Feature", "properties": { "ID": 3611365108400, "正式名称": "手束病院", "機関区分": 1, "都道府県コード": 36, "市区町村コード": 341, "所在地": "徳島県名西郡石井町石井字石井４３４番地の１", "緯度": 34.068232, "経度": 134.443431, "url": "https://www.iryou.teikyouseido.mhlw.go.jp/znk-web/juminkanja/S2430/initialize?prefCd=36&kikanCd=1365108400&kikanKbn=1", "url2": "http://www.tezuka-hosp.or.jp", "内容": "手束病院【1:病院】【診療科目:内科_呼吸器内科_循環器内科_外科_脳神経外科_消化器外科_整形外科_産婦人科_皮膚科_歯科_歯科口腔外科_リウマチ科_リハビリテーション科_放射線診断科】【一般病床数:40療養病床数:53精神病床数:0感染症病床数:0合計病床数:93】徳島県名西郡石井町石井字石井４３４番地の１" }, "geometry": { "type": "Point", "coordinates": [ 134.443431, 34.068232 ] } },
{ "type": "Feature", "properties": { "ID": 3611365108530, "正式名称": "井上病院", "機関区分": 1, "都道府県コード": 36, "市区町村コード": 404, "所在地": "徳島県板野郡板野町犬伏字鶴畑３９番地１", "緯度": 34.139017, "経度": 134.454288, "url": "https://www.iryou.teikyouseido.mhlw.go.jp/znk-web/juminkanja/S2430/initialize?prefCd=36&kikanCd=1365108530&kikanKbn=1", "url2": "http://www.juzenkai-inoue.awk.jp/", "内容": "井上病院【1:病院】【診療科目:内科_胃腸内科_整形外科_皮膚科_リハビリテーション科_放射線科】【一般病床数:0療養病床数:60精神病床数:0感染症病床数:0合計病床数:60】徳島県板野郡板野町犬伏字鶴畑３９番地１" }, "geometry": { "type": "Point", "coordinates": [ 134.454288, 34.139017 ] } },
{ "type": "Feature", "properties": { "ID": 3611365108660, "正式名称": "亀井病院", "機関区分": 1, "都道府県コード": 36, "市区町村コード": 201, "所在地": "徳島県徳島市八万町寺山２３１番地", "緯度": 34.040605, "経度": 134.520764, "url": "https://www.iryou.teikyouseido.mhlw.go.jp/znk-web/juminkanja/S2430/initialize?prefCd=36&kikanCd=1365108660&kikanKbn=1", "url2": "http://www.kameihospital.com/", "内容": "亀井病院【1:病院】【診療科目:循環器内科_消化器内科_腎臓内科_緩和ケア内科_外科_整形外科_泌尿器科_リハビリテーション科_放射線科_麻酔科】【一般病床数:42療養病床数:0精神病床数:0感染症病床数:0合計病床数:42】徳島県徳島市八万町寺山２３１番地" }, "geometry": { "type": "Point", "coordinates": [ 134.520764, 34.040605 ] } },
{ "type": "Feature", "properties": { "ID": 3611365108790, "正式名称": "芳川病院", "機関区分": 1, "都道府県コード": 36, "市区町村コード": 401, "所在地": "徳島県板野郡松茂町中喜来字群恵２７８番地８", "緯度": 34.143511, "経度": 134.59327, "url": "https://www.iryou.teikyouseido.mhlw.go.jp/znk-web/juminkanja/S2430/initialize?prefCd=36&kikanCd=1365108790&kikanKbn=1", "url2": "https://yujoukai.jp", "内容": "芳川病院【1:病院】【診療科目:内科_胃腸内科_外科_肛門外科_整形外科_皮膚科_リウマチ科_リハビリテーション科_放射線科】【一般病床数:0療養病床数:40精神病床数:0感染症病床数:0合計病床数:40】徳島県板野郡松茂町中喜来字群恵２７８番地８" }, "geometry": { "type": "Point", "coordinates": [ 134.59327, 34.143511 ] } },
{ "type": "Feature", "properties": { "ID": 3611365108820, "正式名称": "徳島赤十字病院", "機関区分": 1, "都道府県コード": 36, "市区町村コード": 203, "所在地": "徳島県小松島市小松島町字井利ノ口１０３番", "緯度": 34.012124, "経度": 134.583437, "url": "https://www.iryou.teikyouseido.mhlw.go.jp/znk-web/juminkanja/S2430/initialize?prefCd=36&kikanCd=1365108820&kikanKbn=1", "url2": "http://www.tokushima-med.jrc.or.jp/", "内容": "徳島赤十字病院【1:病院】【診療科目:内科_血液内科_糖尿病・内分泌内科_脳神経内科_呼吸器内科_循環器内科_消化器内科_腎臓内科_外科_脳神経外科_呼吸器外科_心臓血管外科_消化器外科_乳腺外科_頭頸部外科_整形外科_形成外科_小児科_小児外科_産婦人科_眼科_耳鼻いんこう科_皮膚科_泌尿器科_精神科_リハビリテーション科_放射線科_病理診断科_救急科_麻酔科】【一般病床数:405療養病床数:0精神病床数:0感染症病床数:0合計病床数:405】徳島県小松島市小松島町字井利ノ口１０３番" }, "geometry": { "type": "Point", "coordinates": [ 134.583437, 34.012124 ] } },
{ "type": "Feature", "properties": { "ID": 3611365108950, "正式名称": "松永病院", "機関区分": 1, "都道府県コード": 36, "市区町村コード": 201, "所在地": "徳島県徳島市南庄町４丁目６３番地１", "緯度": 34.072129, "経度": 134.508898, "url": "https://www.iryou.teikyouseido.mhlw.go.jp/znk-web/juminkanja/S2430/initialize?prefCd=36&kikanCd=1365108950&kikanKbn=1", "url2": "https://www.matsunaga-hp.jp/", "内容": "松永病院【1:病院】【診療科目:内科_整形外科_小児科_皮膚科_リハビリテーション科】【一般病床数:0療養病床数:27精神病床数:0感染症病床数:0合計病床数:27】徳島県徳島市南庄町４丁目６３番地１" }, "geometry": { "type": "Point", "coordinates": [ 134.508898, 34.072129 ] } },
{ "type": "Feature", "properties": { "ID": 3611365109090, "正式名称": "田岡病院", "機関区分": 1, "都道府県コード": 36, "市区町村コード": 201, "所在地": "徳島県徳島市万代町４丁目２番地２", "緯度": 34.065578, "経度": 134.563462, "url": "https://www.iryou.teikyouseido.mhlw.go.jp/znk-web/juminkanja/S2430/initialize?prefCd=36&kikanCd=1365109090&kikanKbn=1", "url2": "http://www.taoka.or.jp/taoka/", "内容": "田岡病院【1:病院】【診療科目:内科_脳神経内科_呼吸器内科_循環器内科_消化器内科_胃腸内科_腎臓内科_人工透析内科_緩和ケア内科_外科_脳神経外科_呼吸器外科_血管外科_消化器外科_胃腸外科_乳腺外科_肛門外科_整形外科_形成外科_美容外科_皮膚科_精神科_心療内科_リウマチ科_リハビリテーション科_放射線科_救急科_麻酔科_0】【一般病床数:199療養病床数:0精神病床数:0感染症病床数:0合計病床数:199】徳島県徳島市万代町４丁目２番地２" }, "geometry": { "type": "Point", "coordinates": [ 134.563462, 34.065578 ] } },
{ "type": "Feature", "properties": { "ID": 3611365109120, "正式名称": "たまき青空病院", "機関区分": 1, "都道府県コード": 36, "市区町村コード": 201, "所在地": "徳島県徳島市国府町早淵字北カシヤ５６番地１", "緯度": 34.072107, "経度": 134.485788, "url": "https://www.iryou.teikyouseido.mhlw.go.jp/znk-web/juminkanja/S2430/initialize?prefCd=36&kikanCd=1365109120&kikanKbn=1", "url2": "https://tamaki-aozora.ne.jp/", "内容": "たまき青空病院【1:病院】【診療科目:内科_糖尿病・内分泌内科_脳神経内科_呼吸器内科_循環器内科_消化器内科_腎臓内科_外科_脳神経外科_心臓血管外科_消化器外科_乳腺・内分泌外科_整形外科_形成外科_泌尿器科_リハビリテーション科_放射線科_麻酔科】【一般病床数:60療養病床数:40精神病床数:0感染症病床数:0合計病床数:100】徳島県徳島市国府町早淵字北カシヤ５６番地１" }, "geometry": { "type": "Point", "coordinates": [ 134.485788, 34.072107 ] } },
{ "type": "Feature", "properties": { "ID": 3611365109250, "正式名称": "ほのぼのホスピタル", "機関区分": 1, "都道府県コード": 36, "市区町村コード": 401, "所在地": "徳島県板野郡松茂町中喜来字群恵２１６－１", "緯度": 34.141752, "経度": 134.586901, "url": "https://www.iryou.teikyouseido.mhlw.go.jp/znk-web/juminkanja/S2430/initialize?prefCd=36&kikanCd=1365109250&kikanKbn=1", "url2": null, "内容": "ほのぼのホスピタル【1:病院】【診療科目:内科_精神科】【一般病床数:0療養病床数:0精神病床数:216感染症病床数:0合計病床数:216】徳島県板野郡松茂町中喜来字群恵２１６－１" }, "geometry": { "type": "Point", "coordinates": [ 134.586901, 34.141752 ] } },
{ "type": "Feature", "properties": { "ID": 3611365109380, "正式名称": "小川病院", "機関区分": 1, "都道府県コード": 36, "市区町村コード": 202, "所在地": "徳島県鳴門市撫養町斎田字北浜９９番地", "緯度": 34.179373, "経度": 134.604357, "url": "https://www.iryou.teikyouseido.mhlw.go.jp/znk-web/juminkanja/S2430/initialize?prefCd=36&kikanCd=1365109380&kikanKbn=1", "url2": "https://www.ogawa-hp.jp", "内容": "小川病院【1:病院】【診療科目:内科_糖尿病内科_脳神経内科_呼吸器内科_消化器内科_腎臓内科_リハビリテーション科】【一般病床数:48療養病床数:57精神病床数:0感染症病床数:0合計病床数:105】徳島県鳴門市撫養町斎田字北浜９９番地" }, "geometry": { "type": "Point", "coordinates": [ 134.604357, 34.179373 ] } },
{ "type": "Feature", "properties": { "ID": 3611365109410, "正式名称": "天満病院", "機関区分": 1, "都道府県コード": 36, "市区町村コード": 201, "所在地": "徳島県徳島市蔵本町１丁目５－１", "緯度": 34.077639, "経度": 134.520077, "url": "https://www.iryou.teikyouseido.mhlw.go.jp/znk-web/juminkanja/S2430/initialize?prefCd=36&kikanCd=1365109410&kikanKbn=1", "url2": "https://tenma-hpg.com/tenmahospital/information/guide#access-map", "内容": "天満病院【1:病院】【診療科目:内科_糖尿病内科_消化器内科_整形外科_小児科_児童精神科_皮膚科_リハビリテーション科】【一般病床数:72療養病床数:0精神病床数:0感染症病床数:0合計病床数:72】徳島県徳島市蔵本町１丁目５－１" }, "geometry": { "type": "Point", "coordinates": [ 134.520077, 34.077639 ] } },
{ "type": "Feature", "properties": { "ID": 3611365109540, "正式名称": "徳島平成病院", "機関区分": 1, "都道府県コード": 36, "市区町村コード": 201, "所在地": "徳島県徳島市伊賀町３丁目１９の２", "緯度": 34.063636, "経度": 134.544312, "url": "https://www.iryou.teikyouseido.mhlw.go.jp/znk-web/juminkanja/S2430/initialize?prefCd=36&kikanCd=1365109540&kikanKbn=1", "url2": "http://www.tokushimahp.jp/", "内容": "徳島平成病院【1:病院】【診療科目:内科_外科_整形外科_婦人科_眼科_皮膚科_リハビリテーション科】【一般病床数:51療養病床数:0精神病床数:0感染症病床数:0合計病床数:51】徳島県徳島市伊賀町３丁目１９の２" }, "geometry": { "type": "Point", "coordinates": [ 134.544312, 34.063636 ] } },
{ "type": "Feature", "properties": { "ID": 3611365109670, "正式名称": "虹の橋病院", "機関区分": 1, "都道府県コード": 36, "市区町村コード": 201, "所在地": "徳島県徳島市中島田町３丁目６０番地１", "緯度": 34.083871, "経度": 134.510522, "url": "https://www.iryou.teikyouseido.mhlw.go.jp/znk-web/juminkanja/S2430/initialize?prefCd=36&kikanCd=1365109670&kikanKbn=1", "url2": "https://www.nijinohashi.net/", "内容": "虹の橋病院【1:病院】【診療科目:内科_糖尿病内科_呼吸器内科_循環器内科_消化器内科_胃腸内科_肝臓内科_外科_脳神経外科_ペインクリニック外科_整形外科_皮膚科_リハビリテーション科_放射線科】【一般病床数:30療養病床数:30精神病床数:0感染症病床数:0合計病床数:60】徳島県徳島市中島田町３丁目６０番地１" }, "geometry": { "type": "Point", "coordinates": [ 134.510522, 34.083871 ] } },
{ "type": "Feature", "properties": { "ID": 3611365109700, "正式名称": "住友内科病院", "機関区分": 1, "都道府県コード": 36, "市区町村コード": 201, "所在地": "徳島県徳島市安宅２丁目３番５号", "緯度": 34.069401, "経度": 134.575166, "url": "https://www.iryou.teikyouseido.mhlw.go.jp/znk-web/juminkanja/S2430/initialize?prefCd=36&kikanCd=1365109700&kikanKbn=1", "url2": "http://sumitomonaika.com", "内容": "住友内科病院【1:病院】【診療科目:内科_糖尿病内科_循環器内科_消化器内科_腎臓内科_リハビリテーション科】【一般病床数:0療養病床数:32精神病床数:0感染症病床数:0合計病床数:32】徳島県徳島市安宅２丁目３番５号" }, "geometry": { "type": "Point", "coordinates": [ 134.575166, 34.069401 ] } },
{ "type": "Feature", "properties": { "ID": 3611365109830, "正式名称": "江藤病院", "機関区分": 1, "都道府県コード": 36, "市区町村コード": 203, "所在地": "徳島県小松島市大林町字北浦２１番地１", "緯度": 33.976499, "経度": 134.619693, "url": "https://www.iryou.teikyouseido.mhlw.go.jp/znk-web/juminkanja/S2430/initialize?prefCd=36&kikanCd=1365109830&kikanKbn=1", "url2": "https://etouhp.com/", "内容": "江藤病院【1:病院】【診療科目:内科_糖尿病内科_呼吸器内科_循環器内科_消化器内科_整形外科_耳鼻いんこう科_皮膚科_泌尿器科_リハビリテーション科_放射線科】【一般病床数:33療養病床数:59精神病床数:0感染症病床数:0合計病床数:92】徳島県小松島市大林町字北浦２１番地１" }, "geometry": { "type": "Point", "coordinates": [ 134.619693, 33.976499 ] } },
{ "type": "Feature", "properties": { "ID": 3611365109960, "正式名称": "林病院", "機関区分": 1, "都道府県コード": 36, "市区町村コード": 201, "所在地": "徳島県徳島市大原町千代ヶ丸山３０番地２０", "緯度": 34.022381, "経度": 134.567094, "url": "https://www.iryou.teikyouseido.mhlw.go.jp/znk-web/juminkanja/S2430/initialize?prefCd=36&kikanCd=1365109960&kikanKbn=1", "url2": "https://hayashi-hosp.com", "内容": "林病院【1:病院】【診療科目:内科_呼吸器内科_循環器内科_消化器内科_整形外科_小児科_心療内科_リハビリテーション科_放射線科】【一般病床数:0療養病床数:80精神病床数:0感染症病床数:0合計病床数:80】徳島県徳島市大原町千代ヶ丸山３０番地２０" }, "geometry": { "type": "Point", "coordinates": [ 134.567094, 34.022381 ] } },
{ "type": "Feature", "properties": { "ID": 3611365110070, "正式名称": "川島病院", "機関区分": 1, "都道府県コード": 36, "市区町村コード": 201, "所在地": "徳島県徳島市北佐古一番町６−１", "緯度": 34.081423, "経度": 134.540025, "url": "https://www.iryou.teikyouseido.mhlw.go.jp/znk-web/juminkanja/S2430/initialize?prefCd=36&kikanCd=1365110070&kikanKbn=1", "url2": "https://khg.or.jp/", "内容": "川島病院【1:病院】【診療科目:内科_血液内科_糖尿病内科_呼吸器内科_循環器内科_消化器内科_腎臓内科_脳神経外科_血管外科_循環器外科_腎臓外科_整形外科_皮膚科_泌尿器科_歯科_歯科口腔外科_リハビリテーション科_放射線科_麻酔科】【一般病床数:123療養病床数:0精神病床数:0感染症病床数:0合計病床数:123】徳島県徳島市北佐古一番町６−１" }, "geometry": { "type": "Point", "coordinates": [ 134.540025, 34.081423 ] } },
{ "type": "Feature", "properties": { "ID": 3611365110100, "正式名称": "リハビリテーション大神子病院", "機関区分": 1, "都道府県コード": 36, "市区町村コード": 201, "所在地": "徳島県徳島市大原町余慶１番１", "緯度": 34.027023, "経度": 134.572021, "url": "https://www.iryou.teikyouseido.mhlw.go.jp/znk-web/juminkanja/S2430/initialize?prefCd=36&kikanCd=1365110100&kikanKbn=1", "url2": "http://www.doushisya.jp/oomiko/", "内容": "リハビリテーション大神子病院【1:病院】【診療科目:内科_外科_整形外科_リハビリテーション科】【一般病床数:0療養病床数:80精神病床数:0感染症病床数:0合計病床数:80】徳島県徳島市大原町余慶１番１" }, "geometry": { "type": "Point", "coordinates": [ 134.572021, 34.027023 ] } },
{ "type": "Feature", "properties": { "ID": 3611365110230, "正式名称": "協立病院", "機関区分": 1, "都道府県コード": 36, "市区町村コード": 201, "所在地": "徳島県徳島市八万町寺山１３番地２", "緯度": 34.043134, "経度": 134.521606, "url": "https://www.iryou.teikyouseido.mhlw.go.jp/znk-web/juminkanja/S2430/initialize?prefCd=36&kikanCd=1365110230&kikanKbn=1", "url2": "https://kyoritsuhp.or.jp", "内容": "協立病院【1:病院】【診療科目:内科_脳神経内科_循環器内科_消化器内科_腎臓内科_脳神経外科_整形外科_婦人科_皮膚科_泌尿器科_リハビリテーション科_放射線科】【一般病床数:60療養病床数:139精神病床数:0感染症病床数:0合計病床数:199】徳島県徳島市八万町寺山１３番地２" }, "geometry": { "type": "Point", "coordinates": [ 134.521606, 34.043134 ] } },
{ "type": "Feature", "properties": { "ID": 3611365110360, "正式名称": "虹の橋葵ホスピタル", "機関区分": 1, "都道府県コード": 36, "市区町村コード": 201, "所在地": "徳島県徳島市八多町三反地４３番地", "緯度": 33.995283, "経度": 134.5181, "url": "https://www.iryou.teikyouseido.mhlw.go.jp/znk-web/juminkanja/S2430/initialize?prefCd=36&kikanCd=1365110360&kikanKbn=1", "url2": "http://aoi-nijinohashi.net", "内容": "虹の橋葵ホスピタル【1:病院】【診療科目:内科_精神科_心療内科】【一般病床数:0療養病床数:0精神病床数:221感染症病床数:0合計病床数:221】徳島県徳島市八多町三反地４３番地" }, "geometry": { "type": "Point", "coordinates": [ 134.5181, 33.995283 ] } },
{ "type": "Feature", "properties": { "ID": 3611365200160, "正式名称": "凪の音ホスピタル", "機関区分": 1, "都道府県コード": 36, "市区町村コード": 202, "所在地": "徳島県鳴門市鳴門町土佐泊浦字高砂５番地", "緯度": 34.189461, "経度": 134.623882, "url": "https://www.iryou.teikyouseido.mhlw.go.jp/znk-web/juminkanja/S2430/initialize?prefCd=36&kikanCd=1365200160&kikanKbn=1", "url2": "https://naginone-hospital.org/", "内容": "凪の音ホスピタル【1:病院】【診療科目:内科_精神科_心療内科】【一般病床数:0療養病床数:0精神病床数:270感染症病床数:0合計病床数:270】徳島県鳴門市鳴門町土佐泊浦字高砂５番地" }, "geometry": { "type": "Point", "coordinates": [ 134.623882, 34.189461 ] } },
{ "type": "Feature", "properties": { "ID": 3611365200290, "正式名称": "鳴門シーガル病院", "機関区分": 1, "都道府県コード": 36, "市区町村コード": 202, "所在地": "徳島県鳴門市瀬戸町堂浦字阿波井５７番地", "緯度": 34.218441, "経度": 134.591685, "url": "https://www.iryou.teikyouseido.mhlw.go.jp/znk-web/juminkanja/S2430/initialize?prefCd=36&kikanCd=1365200290&kikanKbn=1", "url2": "https://k-seagull.jp/", "内容": "鳴門シーガル病院【1:病院】【診療科目:内科_神経内科_精神科_心療内科_歯科】【一般病床数:0療養病床数:0精神病床数:222感染症病床数:0合計病床数:222】徳島県鳴門市瀬戸町堂浦字阿波井５７番地" }, "geometry": { "type": "Point", "coordinates": [ 134.591685, 34.218441 ] } },
{ "type": "Feature", "properties": { "ID": 3611365200450, "正式名称": "徳島県鳴門病院", "機関区分": 1, "都道府県コード": 36, "市区町村コード": 202, "所在地": "徳島県鳴門市撫養町黒崎字小谷３２番", "緯度": 34.182767, "経度": 134.594064, "url": "https://www.iryou.teikyouseido.mhlw.go.jp/znk-web/juminkanja/S2430/initialize?prefCd=36&kikanCd=1365200450&kikanKbn=1", "url2": "https://naruto-hsp.jp/about/access/", "内容": "徳島県鳴門病院【1:病院】【診療科目:内科_循環器内科_外科_脳神経外科_整形外科_形成外科_小児科_産婦人科_眼科_耳鼻いんこう科_皮膚科_泌尿器科_放射線科_救急科_麻酔科】【一般病床数:307療養病床数:0精神病床数:0感染症病床数:0合計病床数:307】徳島県鳴門市撫養町黒崎字小谷３２番" }, "geometry": { "type": "Point", "coordinates": [ 134.594064, 34.182767 ] } },
{ "type": "Feature", "properties": { "ID": 3611365200610, "正式名称": "鳴門山上病院", "機関区分": 1, "都道府県コード": 36, "市区町村コード": 202, "所在地": "徳島県鳴門市鳴門町土佐泊浦字高砂２０５－２９", "緯度": 34.205698, "経度": 134.625778, "url": "https://www.iryou.teikyouseido.mhlw.go.jp/znk-web/juminkanja/S2430/initialize?prefCd=36&kikanCd=1365200610&kikanKbn=1", "url2": "https://www.kyujinkai-mc.or.jp", "内容": "鳴門山上病院【1:病院】【診療科目:内科_脳神経内科_循環器内科_外科_脳神経外科_眼科_耳鼻いんこう科_皮膚科_泌尿器科_リハビリテーション科_放射線科】【一般病床数:0療養病床数:90精神病床数:0感染症病床数:0合計病床数:90】徳島県鳴門市鳴門町土佐泊浦字高砂２０５－２９" }, "geometry": { "type": "Point", "coordinates": [ 134.625778, 34.205698 ] } },
{ "type": "Feature", "properties": { "ID": 3611365200740, "正式名称": "浦田病院", "機関区分": 1, "都道府県コード": 36, "市区町村コード": 401, "所在地": "徳島県板野郡松茂町広島字南ハリ１３", "緯度": 34.132979, "経度": 134.577584, "url": "https://www.iryou.teikyouseido.mhlw.go.jp/znk-web/juminkanja/S2430/initialize?prefCd=36&kikanCd=1365200740&kikanKbn=1", "url2": "http://www.uratahp.com/", "内容": "浦田病院【1:病院】【診療科目:内科_呼吸器内科_循環器内科_消化器内科_外科_泌尿器科_歯科_リハビリテーション科_放射線科】【一般病床数:23療養病床数:57精神病床数:0感染症病床数:0合計病床数:80】徳島県板野郡松茂町広島字南ハリ１３" }, "geometry": { "type": "Point", "coordinates": [ 134.577584, 34.132979 ] } },
{ "type": "Feature", "properties": { "ID": 3611365200900, "正式名称": "独立行政法人国立病院機構とくしま医療センター東病院", "機関区分": 1, "都道府県コード": 36, "市区町村コード": 404, "所在地": "徳島県板野郡板野町大寺字大向北１－１", "緯度": 34.137454, "経度": 134.468536, "url": "https://www.iryou.teikyouseido.mhlw.go.jp/znk-web/juminkanja/S2430/initialize?prefCd=36&kikanCd=1365200900&kikanKbn=1", "url2": "https://higashitokushima.hosp.go.jp/", "内容": "独立行政法人国立病院機構とくしま医療センター東病院【1:病院】【診療科目:内科_呼吸器内科_循環器内科_消化器内科_外科_呼吸器外科_整形外科_小児科_泌尿器科_リハビリテーション科_放射線科_麻酔科】【一般病床数:287療養病床数:0精神病床数:0感染症病床数:8合計病床数:307】徳島県板野郡板野町大寺字大向北１－１" }, "geometry": { "type": "Point", "coordinates": [ 134.468536, 34.137454 ] } },
{ "type": "Feature", "properties": { "ID": 3611365201200, "正式名称": "岩朝病院", "機関区分": 1, "都道府県コード": 36, "市区町村コード": 202, "所在地": "徳島県鳴門市撫養町立岩字元地２８０", "緯度": 34.174049, "経度": 134.618281, "url": "https://www.iryou.teikyouseido.mhlw.go.jp/znk-web/juminkanja/S2430/initialize?prefCd=36&kikanCd=1365201200&kikanKbn=1", "url2": "https://www.iwasa-hp.or.jp/", "内容": "岩朝病院【1:病院】【診療科目:内科_呼吸器内科_循環器内科_消化器内科_外科_整形外科_泌尿器科_リハビリテーション科】【一般病床数:0療養病床数:44精神病床数:0感染症病床数:0合計病床数:44】徳島県鳴門市撫養町立岩字元地２８０" }, "geometry": { "type": "Point", "coordinates": [ 134.618281, 34.174049 ] } },
{ "type": "Feature", "properties": { "ID": 3611365201460, "正式名称": "兼松病院", "機関区分": 1, "都道府県コード": 36, "市区町村コード": 202, "所在地": "徳島県鳴門市撫養町斎田字大堤５４", "緯度": 34.176952, "経度": 134.604834, "url": "https://www.iryou.teikyouseido.mhlw.go.jp/znk-web/juminkanja/S2430/initialize?prefCd=36&kikanCd=1365201460&kikanKbn=1", "url2": "http://www.kanematsu-hp.com", "内容": "兼松病院【1:病院】【診療科目:内科_循環器内科_消化器内科_外科_脳神経外科_乳腺外科_肛門外科_整形外科_眼科_リハビリテーション科_放射線科】【一般病床数:40療養病床数:46精神病床数:0感染症病床数:0合計病床数:86】徳島県鳴門市撫養町斎田字大堤５４" }, "geometry": { "type": "Point", "coordinates": [ 134.604834, 34.176952 ] } },
{ "type": "Feature", "properties": { "ID": 3611365300190, "正式名称": "徳島赤十字ひのみね医療療育センター", "機関区分": 1, "都道府県コード": 36, "市区町村コード": 203, "所在地": "徳島県小松島市中田町字新開４－１", "緯度": 34.016407, "経度": 134.582557, "url": "https://www.iryou.teikyouseido.mhlw.go.jp/znk-web/juminkanja/S2430/initialize?prefCd=36&kikanCd=1365300190&kikanKbn=1", "url2": "http://www.hinomine-mrc.jp/", "内容": "徳島赤十字ひのみね医療療育センター【1:病院】【診療科目:内科_整形外科_小児科_神経小児科_精神科_歯科_リハビリテーション科】【一般病床数:144療養病床数:0精神病床数:0感染症病床数:0合計病床数:144】徳島県小松島市中田町字新開４－１" }, "geometry": { "type": "Point", "coordinates": [ 134.582557, 34.016407 ] } },
{ "type": "Feature", "properties": { "ID": 3611365300770, "正式名称": "国民健康保険勝浦病院", "機関区分": 1, "都道府県コード": 36, "市区町村コード": 301, "所在地": "徳島県勝浦郡勝浦町大字棚野字鴻畑１３番地２", "緯度": 33.893319, "経度": 134.460652, "url": "https://www.iryou.teikyouseido.mhlw.go.jp/znk-web/juminkanja/S2430/initialize?prefCd=36&kikanCd=1365300770&kikanKbn=1", "url2": "http://www.town.katsuura.lg.jp/hospital/", "内容": "国民健康保険勝浦病院【1:病院】【診療科目:内科_外科_整形外科_小児科_リハビリテーション科】【一般病床数:50療養病床数:0精神病床数:0感染症病床数:0合計病床数:50】徳島県勝浦郡勝浦町大字棚野字鴻畑１３番地２" }, "geometry": { "type": "Point", "coordinates": [ 134.460652, 33.893319 ] } },
{ "type": "Feature", "properties": { "ID": 3611365300800, "正式名称": "小松島金磯病院", "機関区分": 1, "都道府県コード": 36, "市区町村コード": 203, "所在地": "徳島県小松島市金磯町１０番１９号", "緯度": 33.991872, "経度": 134.602132, "url": "https://www.iryou.teikyouseido.mhlw.go.jp/znk-web/juminkanja/S2430/initialize?prefCd=36&kikanCd=1365300800&kikanKbn=1", "url2": "www.kanaiso.or.jp", "内容": "小松島金磯病院【1:病院】【診療科目:内科_循環器内科_胃腸内科_外科_肛門外科_整形外科】【一般病床数:47療養病床数:0精神病床数:0感染症病床数:0合計病床数:47】徳島県小松島市金磯町１０番１９号" }, "geometry": { "type": "Point", "coordinates": [ 134.602132, 33.991872 ] } },
{ "type": "Feature", "properties": { "ID": 3611365300930, "正式名称": "徳島ロイヤル病院", "機関区分": 1, "都道府県コード": 36, "市区町村コード": 203, "所在地": "徳島県小松島市中田町字新開４８番地", "緯度": 34.013481, "経度": 134.58378, "url": "https://www.iryou.teikyouseido.mhlw.go.jp/znk-web/juminkanja/S2430/initialize?prefCd=36&kikanCd=1365300930&kikanKbn=1", "url2": "http://www13.plala.or.jp/royal-hp/", "内容": "徳島ロイヤル病院【1:病院】【診療科目:内科_循環器内科_消化器内科_リハビリテーション科】【一般病床数:46療養病床数:0精神病床数:0感染症病床数:0合計病床数:46】徳島県小松島市中田町字新開４８番地" }, "geometry": { "type": "Point", "coordinates": [ 134.58378, 34.013481 ] } },
{ "type": "Feature", "properties": { "ID": 3611365301070, "正式名称": "小松島病院", "機関区分": 1, "都道府県コード": 36, "市区町村コード": 203, "所在地": "徳島県小松島市田浦町近里８３－１１", "緯度": 34.002937, "経度": 134.569001, "url": "https://www.iryou.teikyouseido.mhlw.go.jp/znk-web/juminkanja/S2430/initialize?prefCd=36&kikanCd=1365301070&kikanKbn=1", "url2": "https://komatsushimahp.jp/", "内容": "小松島病院【1:病院】【診療科目:内科_整形外科_リハビリテーション科】【一般病床数:0療養病床数:92精神病床数:0感染症病床数:0合計病床数:92】徳島県小松島市田浦町近里８３－１１" }, "geometry": { "type": "Point", "coordinates": [ 134.569001, 34.002937 ] } },
{ "type": "Feature", "properties": { "ID": 3611365301230, "正式名称": "碩心館病院", "機関区分": 1, "都道府県コード": 36, "市区町村コード": 203, "所在地": "徳島県小松島市江田町字大江田４４の１", "緯度": 34.014211, "経度": 134.56376, "url": "https://www.iryou.teikyouseido.mhlw.go.jp/znk-web/juminkanja/S2430/initialize?prefCd=36&kikanCd=1365301230&kikanKbn=1", "url2": "https://www.sekishinkan.or.jp/", "内容": "碩心館病院【1:病院】【診療科目:内科_感染症内科_血液・腫瘍内科_糖尿病内科_循環器内科_消化器内科_脳神経外科_整形外科_眼科_リハビリテーション科】【一般病床数:60療養病床数:0精神病床数:0感染症病床数:0合計病床数:60】徳島県小松島市江田町字大江田４４の１" }, "geometry": { "type": "Point", "coordinates": [ 134.56376, 34.014211 ] } },
{ "type": "Feature", "properties": { "ID": 3611365400120, "正式名称": "杜のホスピタル", "機関区分": 1, "都道府県コード": 36, "市区町村コード": 204, "所在地": "徳島県阿南市見能林町築溜１の１", "緯度": 33.902336, "経度": 134.663458, "url": "https://www.iryou.teikyouseido.mhlw.go.jp/znk-web/juminkanja/S2430/initialize?prefCd=36&kikanCd=1365400120&kikanKbn=1", "url2": "https://morinohp.jp/", "内容": "杜のホスピタル【1:病院】【診療科目:内科_精神科_心療内科】【一般病床数:0療養病床数:0精神病床数:114感染症病床数:0合計病床数:114】徳島県阿南市見能林町築溜１の１" }, "geometry": { "type": "Point", "coordinates": [ 134.663458, 33.902336 ] } },
{ "type": "Feature", "properties": { "ID": 3611365400380, "正式名称": "原田病院", "機関区分": 1, "都道府県コード": 36, "市区町村コード": 204, "所在地": "徳島県阿南市富岡町あ石１４－１", "緯度": 33.917651, "経度": 134.662471, "url": "https://www.iryou.teikyouseido.mhlw.go.jp/znk-web/juminkanja/S2430/initialize?prefCd=36&kikanCd=1365400380&kikanKbn=1", "url2": null, "内容": "原田病院【1:病院】【診療科目:内科_外科_整形外科_小児科_皮膚科_リハビリテーション科_放射線科】【一般病床数:0療養病床数:73精神病床数:0感染症病床数:0合計病床数:73】徳島県阿南市富岡町あ石１４－１" }, "geometry": { "type": "Point", "coordinates": [ 134.662471, 33.917651 ] } },
{ "type": "Feature", "properties": { "ID": 3611365400670, "正式名称": "羽ノ浦整形外科内科病院", "機関区分": 1, "都道府県コード": 36, "市区町村コード": 204, "所在地": "徳島県阿南市羽ノ浦町宮倉芝生４０－１１", "緯度": 33.962013, "経度": 134.619513, "url": "https://www.iryou.teikyouseido.mhlw.go.jp/znk-web/juminkanja/S2430/initialize?prefCd=36&kikanCd=1365400670&kikanKbn=1", "url2": null, "内容": "羽ノ浦整形外科内科病院【1:病院】【診療科目:内科_呼吸器内科_循環器内科_胃腸内科_外科_脳神経外科_整形外科_リウマチ科_リハビリテーション科】【一般病床数:0療養病床数:40精神病床数:0感染症病床数:0合計病床数:40】徳島県阿南市羽ノ浦町宮倉芝生４０－１１" }, "geometry": { "type": "Point", "coordinates": [ 134.619513, 33.962013 ] } },
{ "type": "Feature", "properties": { "ID": 3611365400830, "正式名称": "阿南天満病院", "機関区分": 1, "都道府県コード": 36, "市区町村コード": 204, "所在地": "徳島県阿南市宝田町荒井２０番地", "緯度": 33.924079, "経度": 134.643813, "url": "https://www.iryou.teikyouseido.mhlw.go.jp/znk-web/juminkanja/S2430/initialize?prefCd=36&kikanCd=1365400830&kikanKbn=1", "url2": "http://www.tamama-hp.com", "内容": "阿南天満病院【1:病院】【診療科目:内科_循環器内科_胃腸内科_外科_肛門外科_泌尿器科】【一般病床数:0療養病床数:42精神病床数:0感染症病床数:0合計病床数:42】徳島県阿南市宝田町荒井２０番地" }, "geometry": { "type": "Point", "coordinates": [ 134.643813, 33.924079 ] } },
{ "type": "Feature", "properties": { "ID": 3611365400960, "正式名称": "宮本病院", "機関区分": 1, "都道府県コード": 36, "市区町村コード": 204, "所在地": "徳島県阿南市羽ノ浦町古庄古野神４番地１４", "緯度": 33.941393, "経度": 134.623879, "url": "https://www.iryou.teikyouseido.mhlw.go.jp/znk-web/juminkanja/S2430/initialize?prefCd=36&kikanCd=1365400960&kikanKbn=1", "url2": "http://www.myclinic.ne.jp/miyamoto_hp/", "内容": "宮本病院【1:病院】【診療科目:内科_胃腸内科_外科_肛門外科_整形外科_小児科_リハビリテーション科】【一般病床数:0療養病床数:48精神病床数:0感染症病床数:0合計病床数:48】徳島県阿南市羽ノ浦町古庄古野神４番地１４" }, "geometry": { "type": "Point", "coordinates": [ 134.623879, 33.941393 ] } },
{ "type": "Feature", "properties": { "ID": 3611365401000, "正式名称": "那賀町立上那賀病院", "機関区分": 1, "都道府県コード": 36, "市区町村コード": 368, "所在地": "徳島県那賀郡那賀町小浜１３７番地の１", "緯度": 33.806485, "経度": 134.373044, "url": "https://www.iryou.teikyouseido.mhlw.go.jp/znk-web/juminkanja/S2430/initialize?prefCd=36&kikanCd=1365401000&kikanKbn=1", "url2": "http://www.town.tokushima-naka.lg.jp/kaminaka_hos/index.htm", "内容": "那賀町立上那賀病院【1:病院】【診療科目:内科_胃腸内科_外科_脳神経外科_肛門外科_整形外科_皮膚科_リハビリテーション科】【一般病床数:40療養病床数:0精神病床数:0感染症病床数:0合計病床数:40】徳島県那賀郡那賀町小浜１３７番地の１" }, "geometry": { "type": "Point", "coordinates": [ 134.373044, 33.806485 ] } },
{ "type": "Feature", "properties": { "ID": 3611365401130, "正式名称": "阿南医療センター", "機関区分": 1, "都道府県コード": 36, "市区町村コード": 204, "所在地": "徳島県阿南市宝田町川原６番地１", "緯度": 33.924257, "経度": 134.646416, "url": "https://www.iryou.teikyouseido.mhlw.go.jp/znk-web/juminkanja/S2430/initialize?prefCd=36&kikanCd=1365401130&kikanKbn=1", "url2": "https://anan-medc.jp", "内容": "阿南医療センター【1:病院】【診療科目:内科_糖尿病内科_代謝内科_呼吸器内科_循環器内科_消化器内科_緩和ケア内科_外科_脳神経外科_乳腺外科_整形外科_形成外科_小児科_産婦人科_眼科_耳鼻いんこう科_皮膚科_泌尿器科_リウマチ科_リハビリテーション科_放射線科_病理診断科_麻酔科】【一般病床数:348療養病床数:0精神病床数:0感染症病床数:0合計病床数:348】徳島県阿南市宝田町川原６番地１" }, "geometry": { "type": "Point", "coordinates": [ 134.646416, 33.924257 ] } },
{ "type": "Feature", "properties": { "ID": 3611365500310, "正式名称": "冨田病院", "機関区分": 1, "都道府県コード": 36, "市区町村コード": 387, "所在地": "徳島県海部郡美波町西河内字月輪１２９－４", "緯度": 33.736403, "経度": 134.522781, "url": "https://www.iryou.teikyouseido.mhlw.go.jp/znk-web/juminkanja/S2430/initialize?prefCd=36&kikanCd=1365500310&kikanKbn=1", "url2": "http://tomitahp.web.fc2.com", "内容": "冨田病院【1:病院】【診療科目:内科_小児神経内科_精神科_心療内科】【一般病床数:0療養病床数:0精神病床数:144感染症病床数:0合計病床数:144】徳島県海部郡美波町西河内字月輪１２９－４" }, "geometry": { "type": "Point", "coordinates": [ 134.522781, 33.736403 ] } },
{ "type": "Feature", "properties": { "ID": 3611365500600, "正式名称": "海陽町国民健康保険海南病院", "機関区分": 1, "都道府県コード": 36, "市区町村コード": 388, "所在地": "徳島県海部郡海陽町四方原字広谷１６－１", "緯度": 33.614668, "経度": 134.355184, "url": "https://www.iryou.teikyouseido.mhlw.go.jp/znk-web/juminkanja/S2430/initialize?prefCd=36&kikanCd=1365500600&kikanKbn=1", "url2": "https://kainanhp.jp", "内容": "海陽町国民健康保険海南病院【1:病院】【診療科目:内科_外科_脳神経外科_整形外科】【一般病床数:45療養病床数:0精神病床数:0感染症病床数:0合計病床数:45】徳島県海部郡海陽町四方原字広谷１６－１" }, "geometry": { "type": "Point", "coordinates": [ 134.355184, 33.614668 ] } },
{ "type": "Feature", "properties": { "ID": 3611365500730, "正式名称": "美波町国民健康保険美波病院", "機関区分": 1, "都道府県コード": 36, "市区町村コード": 387, "所在地": "徳島県海部郡美波町田井１０５番地１", "緯度": 33.776734, "経度": 134.58533, "url": "https://www.iryou.teikyouseido.mhlw.go.jp/znk-web/juminkanja/S2430/initialize?prefCd=36&kikanCd=1365500730&kikanKbn=1", "url2": "https://www.town.minami.lg.jp/minami-byoin/", "内容": "美波町国民健康保険美波病院【1:病院】【診療科目:内科_外科_脳神経外科_整形外科_耳鼻いんこう科】【一般病床数:50療養病床数:0精神病床数:0感染症病床数:0合計病床数:50】徳島県海部郡美波町田井１０５番地１" }, "geometry": { "type": "Point", "coordinates": [ 134.58533, 33.776734 ] } },
{ "type": "Feature", "properties": { "ID": 3611365500860, "正式名称": "徳島県立海部病院", "機関区分": 1, "都道府県コード": 36, "市区町村コード": 383, "所在地": "徳島県海部郡牟岐町中村字杉谷２６６番地", "緯度": 33.6711, "経度": 134.414666, "url": "https://www.iryou.teikyouseido.mhlw.go.jp/znk-web/juminkanja/S2430/initialize?prefCd=36&kikanCd=1365500860&kikanKbn=1", "url2": "https://tph.pref.tokushima.lg.jp/kaifu/", "内容": "徳島県立海部病院【1:病院】【診療科目:内科_外科_脳神経外科_整形外科_小児科_産婦人科_耳鼻いんこう科_リハビリテーション科_放射線科】【一般病床数:102療養病床数:0精神病床数:0感染症病床数:4合計病床数:110】徳島県海部郡牟岐町中村字杉谷２６６番地" }, "geometry": { "type": "Point", "coordinates": [ 134.414666, 33.6711 ] } },
{ "type": "Feature", "properties": { "ID": 3611365700110, "正式名称": "藍里病院", "機関区分": 1, "都道府県コード": 36, "市区町村コード": 405, "所在地": "徳島県板野郡上板町佐藤塚字東２８８－３", "緯度": 34.115358, "経度": 134.453924, "url": "https://www.iryou.teikyouseido.mhlw.go.jp/znk-web/juminkanja/S2430/initialize?prefCd=36&kikanCd=1365700110&kikanKbn=1", "url2": "http://www.aizato.or.jp", "内容": "藍里病院【1:病院】【診療科目:内科_精神科_心療内科_歯科】【一般病床数:0療養病床数:0精神病床数:228感染症病床数:0合計病床数:228】徳島県板野郡上板町佐藤塚字東２８８－３" }, "geometry": { "type": "Point", "coordinates": [ 134.453924, 34.115358 ] } },
{ "type": "Feature", "properties": { "ID": 3611365700240, "正式名称": "大野病院", "機関区分": 1, "都道府県コード": 36, "市区町村コード": 206, "所在地": "徳島県阿波市土成町土成字南原２３１番地", "緯度": 34.102335, "経度": 134.343631, "url": "https://www.iryou.teikyouseido.mhlw.go.jp/znk-web/juminkanja/S2430/initialize?prefCd=36&kikanCd=1365700240&kikanKbn=1", "url2": "http://hakubi-ohno-hp.com/", "内容": "大野病院【1:病院】【診療科目:内科_循環器内科_外科_整形外科_小児科】【一般病床数:0療養病床数:35精神病床数:0感染症病床数:0合計病床数:35】徳島県阿波市土成町土成字南原２３１番地" }, "geometry": { "type": "Point", "coordinates": [ 134.343631, 34.102335 ] } },
{ "type": "Feature", "properties": { "ID": 3611365700530, "正式名称": "独立行政法人国立病院機構とくしま医療センター西病院", "機関区分": 1, "都道府県コード": 36, "市区町村コード": 205, "所在地": "徳島県吉野川市鴨島町敷地１３５４番地", "緯度": 34.055931, "経度": 134.338632, "url": "https://www.iryou.teikyouseido.mhlw.go.jp/znk-web/juminkanja/S2430/initialize?prefCd=36&kikanCd=1365700530&kikanKbn=1", "url2": "https://tokushima.hosp.go.jp/", "内容": "独立行政法人国立病院機構とくしま医療センター西病院【1:病院】【診療科目:内科_脳神経内科_呼吸器内科_循環器内科_消化器内科_神経内科_外科_整形外科_小児科_眼科_歯科_リハビリテーション科_放射線科_麻酔科】【一般病床数:236療養病床数:0精神病床数:0感染症病床数:0合計病床数:236】徳島県吉野川市鴨島町敷地１３５４番地" }, "geometry": { "type": "Point", "coordinates": [ 134.338632, 34.055931 ] } },
{ "type": "Feature", "properties": { "ID": 3611365700790, "正式名称": "美摩病院", "機関区分": 1, "都道府県コード": 36, "市区町村コード": 205, "所在地": "徳島県吉野川市鴨島町上下島４９７", "緯度": 34.071147, "経度": 134.349575, "url": "https://www.iryou.teikyouseido.mhlw.go.jp/znk-web/juminkanja/S2430/initialize?prefCd=36&kikanCd=1365700790&kikanKbn=1", "url2": "http://www.mima-gr.jp", "内容": "美摩病院【1:病院】【診療科目:内科_外科_脳神経外科_整形外科_形成外科_眼科_皮膚科_リウマチ科_リハビリテーション科】【一般病床数:37療養病床数:60精神病床数:0感染症病床数:0合計病床数:97】徳島県吉野川市鴨島町上下島４９７" }, "geometry": { "type": "Point", "coordinates": [ 134.349575, 34.071147 ] } },
{ "type": "Feature", "properties": { "ID": 3611365700950, "正式名称": "鴨島病院", "機関区分": 1, "都道府県コード": 36, "市区町村コード": 205, "所在地": "徳島県吉野川市鴨島町内原４３２", "緯度": 34.07008, "経度": 134.367514, "url": "https://www.iryou.teikyouseido.mhlw.go.jp/znk-web/juminkanja/S2430/initialize?prefCd=36&kikanCd=1365700950&kikanKbn=1", "url2": "https://kamojima.t-group.net/", "内容": "鴨島病院【1:病院】【診療科目:内科_脳神経外科_整形外科_リハビリテーション科_放射線科】【一般病床数:0療養病床数:178精神病床数:0感染症病床数:0合計病床数:178】徳島県吉野川市鴨島町内原４３２" }, "geometry": { "type": "Point", "coordinates": [ 134.367514, 34.07008 ] } },
{ "type": "Feature", "properties": { "ID": 3611365701410, "正式名称": "吉野川医療センター", "機関区分": 1, "都道府県コード": 36, "市区町村コード": 205, "所在地": "徳島県吉野川市鴨島町知恵島字西知恵島１２０", "緯度": 34.075308, "経度": 134.340959, "url": "https://www.iryou.teikyouseido.mhlw.go.jp/znk-web/juminkanja/S2430/initialize?prefCd=36&kikanCd=1365701410&kikanKbn=1", "url2": "http://www.ja-ymc.jp/", "内容": "吉野川医療センター【1:病院】【診療科目:内科_循環器内科_消化器内科_外科_脳神経外科_心臓血管外科_消化器外科_肛門外科_整形外科_形成外科_小児科_産婦人科_眼科_耳鼻いんこう科_皮膚科_泌尿器科_リウマチ科_リハビリテーション科_放射線科_救急科_麻酔科】【一般病床数:290療養病床数:0精神病床数:0感染症病床数:0合計病床数:290】徳島県吉野川市鴨島町知恵島字西知恵島１２０" }, "geometry": { "type": "Point", "coordinates": [ 134.340959, 34.075308 ] } },
{ "type": "Feature", "properties": { "ID": 3611365800270, "正式名称": "桜木病院", "機関区分": 1, "都道府県コード": 36, "市区町村コード": 207, "所在地": "徳島県美馬市脇町木ノ内３７６３番地", "緯度": 34.061797, "経度": 134.105558, "url": "https://www.iryou.teikyouseido.mhlw.go.jp/znk-web/juminkanja/S2430/initialize?prefCd=36&kikanCd=1365800270&kikanKbn=1", "url2": null, "内容": "桜木病院【1:病院】【診療科目:内科_精神科_心療内科】【一般病床数:15療養病床数:0精神病床数:146感染症病床数:0合計病床数:161】徳島県美馬市脇町木ノ内３７６３番地" }, "geometry": { "type": "Point", "coordinates": [ 134.105558, 34.061797 ] } },
{ "type": "Feature", "properties": { "ID": 3611365800850, "正式名称": "成田病院", "機関区分": 1, "都道府県コード": 36, "市区町村コード": 207, "所在地": "徳島県美馬市脇町字拝原２５７６番地", "緯度": 34.065032, "経度": 134.17551, "url": "https://www.iryou.teikyouseido.mhlw.go.jp/znk-web/juminkanja/S2430/initialize?prefCd=36&kikanCd=1365800850&kikanKbn=1", "url2": "http://fujinokai.net", "内容": "成田病院【1:病院】【診療科目:内科_呼吸器内科_消化器内科_外科_整形外科_小児科_皮膚科_リハビリテーション科_放射線科】【一般病床数:0療養病床数:46精神病床数:0感染症病床数:0合計病床数:46】徳島県美馬市脇町字拝原２５７６番地" }, "geometry": { "type": "Point", "coordinates": [ 134.17551, 34.065032 ] } },
{ "type": "Feature", "properties": { "ID": 3611365800980, "正式名称": "岡内科病院", "機関区分": 1, "都道府県コード": 36, "市区町村コード": 207, "所在地": "徳島県美馬市脇町字拝原１４９６－５", "緯度": 34.066667, "経度": 134.166327, "url": "https://www.iryou.teikyouseido.mhlw.go.jp/znk-web/juminkanja/S2430/initialize?prefCd=36&kikanCd=1365800980&kikanKbn=1", "url2": null, "内容": "岡内科病院【1:病院】【診療科目:内科_循環器内科_消化器内科_小児科_リウマチ科_リハビリテーション科】【一般病床数:0療養病床数:30精神病床数:0感染症病床数:0合計病床数:30】徳島県美馬市脇町字拝原１４９６－５" }, "geometry": { "type": "Point", "coordinates": [ 134.166327, 34.066667 ] } },
{ "type": "Feature", "properties": { "ID": 3611365801150, "正式名称": "折野病院", "機関区分": 1, "都道府県コード": 36, "市区町村コード": 207, "所在地": "徳島県美馬市美馬町字ナロヲ２５番地", "緯度": 34.053655, "経度": 134.031959, "url": "https://www.iryou.teikyouseido.mhlw.go.jp/znk-web/juminkanja/S2430/initialize?prefCd=36&kikanCd=1365801150&kikanKbn=1", "url2": null, "内容": "折野病院【1:病院】【診療科目:内科_精神科_心療内科】【一般病床数:0療養病床数:0精神病床数:184感染症病床数:0合計病床数:184】徳島県美馬市美馬町字ナロヲ２５番地" }, "geometry": { "type": "Point", "coordinates": [ 134.031959, 34.053655 ] } },
{ "type": "Feature", "properties": { "ID": 3611365801280, "正式名称": "つるぎ町立半田病院", "機関区分": 1, "都道府県コード": 36, "市区町村コード": 468, "所在地": "徳島県美馬郡つるぎ町半田字中藪２３４番地１", "緯度": 34.039823, "経度": 134.037023, "url": "https://www.iryou.teikyouseido.mhlw.go.jp/znk-web/juminkanja/S2430/initialize?prefCd=36&kikanCd=1365801280&kikanKbn=1", "url2": "https://www.handa-hospital.jp/", "内容": "つるぎ町立半田病院【1:病院】【診療科目:内科_消化器内科_外科_整形外科_形成外科_美容外科_小児科_産婦人科_眼科_耳鼻いんこう科_皮膚科_泌尿器科_リハビリテーション科_放射線科_麻酔科】【一般病床数:99療養病床数:0精神病床数:0感染症病床数:0合計病床数:99】徳島県美馬郡つるぎ町半田字中藪２３４番地１" }, "geometry": { "type": "Point", "coordinates": [ 134.037023, 34.039823 ] } },
{ "type": "Feature", "properties": { "ID": 3611365801990, "正式名称": "ホウエツ病院", "機関区分": 1, "都道府県コード": 36, "市区町村コード": 207, "所在地": "徳島県美馬市脇町大字猪尻字八幡神社下南１３０番地３", "緯度": 34.063646, "経度": 134.156456, "url": "https://www.iryou.teikyouseido.mhlw.go.jp/znk-web/juminkanja/S2430/initialize?prefCd=36&kikanCd=1365801990&kikanKbn=1", "url2": "https://www.houetsu-hospital.jp/", "内容": "ホウエツ病院【1:病院】【診療科目:内科_脳神経内科_外科_脳神経外科_整形外科_小児科_婦人科_皮膚科_リハビリテーション科_放射線科_臨床検査科_救急科_麻酔科】【一般病床数:65療養病床数:0精神病床数:0感染症病床数:0合計病床数:65】徳島県美馬市脇町大字猪尻字八幡神社下南１３０番地３" }, "geometry": { "type": "Point", "coordinates": [ 134.156456, 34.063646 ] } },
{ "type": "Feature", "properties": { "ID": 3611365802160, "正式名称": "美馬リハビリテーション病院", "機関区分": 1, "都道府県コード": 36, "市区町村コード": 207, "所在地": "徳島県美馬市美馬町字沼田７５番地", "緯度": 34.049789, "経度": 134.037196, "url": "https://www.iryou.teikyouseido.mhlw.go.jp/znk-web/juminkanja/S2430/initialize?prefCd=36&kikanCd=1365802160&kikanKbn=1", "url2": null, "内容": "美馬リハビリテーション病院【1:病院】【診療科目:内科_外科_整形外科_泌尿器科_リウマチ科_リハビリテーション科_放射線科】【一般病床数:60療養病床数:0精神病床数:0感染症病床数:0合計病床数:60】徳島県美馬市美馬町字沼田７５番地" }, "geometry": { "type": "Point", "coordinates": [ 134.037196, 34.049789 ] } },
{ "type": "Feature", "properties": { "ID": 3611365900170, "正式名称": "三好市国民健康保険　市立三野病院", "機関区分": 1, "都道府県コード": 36, "市区町村コード": 208, "所在地": "徳島県三好市三野町芝生１２７０－３０", "緯度": 34.044054, "経度": 133.966427, "url": "https://www.iryou.teikyouseido.mhlw.go.jp/znk-web/juminkanja/S2430/initialize?prefCd=36&kikanCd=1365900170&kikanKbn=1", "url2": "https://www.miyoshi.i-tokushima.jp/mino_hsp/", "内容": "三好市国民健康保険　市立三野病院【1:病院】【診療科目:内科_外科_整形外科】【一般病床数:60療養病床数:0精神病床数:0感染症病床数:0合計病床数:60】徳島県三好市三野町芝生１２７０－３０" }, "geometry": { "type": "Point", "coordinates": [ 133.966427, 34.044054 ] } },
{ "type": "Feature", "properties": { "ID": 3611365900330, "正式名称": "秋田病院", "機関区分": 1, "都道府県コード": 36, "市区町村コード": 208, "所在地": "徳島県三好市池田町州津堂面２１５", "緯度": 34.035009, "経度": 133.842742, "url": "https://www.iryou.teikyouseido.mhlw.go.jp/znk-web/juminkanja/S2430/initialize?prefCd=36&kikanCd=1365900330&kikanKbn=1", "url2": null, "内容": "秋田病院【1:病院】【診療科目:内科_精神科_神経科】【一般病床数:0療養病床数:0精神病床数:60感染症病床数:0合計病床数:60】徳島県三好市池田町州津堂面２１５" }, "geometry": { "type": "Point", "coordinates": [ 133.842742, 34.035009 ] } },
{ "type": "Feature", "properties": { "ID": 3611365900590, "正式名称": "徳島県立三好病院", "機関区分": 1, "都道府県コード": 36, "市区町村コード": 208, "所在地": "徳島県三好市池田町シマ８１５番地２", "緯度": 34.028487, "経度": 133.817993, "url": "https://www.iryou.teikyouseido.mhlw.go.jp/znk-web/juminkanja/S2430/initialize?prefCd=36&kikanCd=1365900590&kikanKbn=1", "url2": "https://tph.pref.tokushima.lg.jp/miyoshi/", "内容": "徳島県立三好病院【1:病院】【診療科目:内科_脳神経内科_呼吸器内科_循環器内科_消化器内科_緩和ケア内科_外科_脳神経外科_整形外科_形成外科_小児科_産婦人科_眼科_耳鼻いんこう科_皮膚科_泌尿器科_リハビリテーション科_放射線科_救急科_麻酔科】【一般病床数:206療養病床数:0精神病床数:0感染症病床数:6合計病床数:220】徳島県三好市池田町シマ８１５番地２" }, "geometry": { "type": "Point", "coordinates": [ 133.817993, 34.028487 ] } },
{ "type": "Feature", "properties": { "ID": 3611365900620, "正式名称": "三加茂田中病院", "機関区分": 1, "都道府県コード": 36, "市区町村コード": 489, "所在地": "徳島県三好郡東みよし町加茂１８８３－４", "緯度": 34.039289, "経度": 133.926516, "url": "https://www.iryou.teikyouseido.mhlw.go.jp/znk-web/juminkanja/S2430/initialize?prefCd=36&kikanCd=1365900620&kikanKbn=1", "url2": "http://www.mikamotanakahp.ecnet.jp/", "内容": "三加茂田中病院【1:病院】【診療科目:内科_糖尿病内科_呼吸器内科_循環器内科_消化器内科_腎臓内科_神経内科_外科_脳神経外科_呼吸器外科_乳腺外科_整形外科_耳鼻いんこう科_皮膚科_泌尿器科_リハビリテーション科_放射線科】【一般病床数:0療養病床数:99精神病床数:0感染症病床数:0合計病床数:99】徳島県三好郡東みよし町加茂１８８３－４" }, "geometry": { "type": "Point", "coordinates": [ 133.926516, 34.039289 ] } },
{ "type": "Feature", "properties": { "ID": 3611365900880, "正式名称": "藤内整形外科病院", "機関区分": 1, "都道府県コード": 36, "市区町村コード": 489, "所在地": "徳島県三好郡東みよし町中庄１０１１番地の３", "緯度": 34.037084, "経度": 133.952844, "url": "https://www.iryou.teikyouseido.mhlw.go.jp/znk-web/juminkanja/S2430/initialize?prefCd=36&kikanCd=1365900880&kikanKbn=1", "url2": null, "内容": "藤内整形外科病院【1:病院】【診療科目:内科_整形外科_リウマチ科_リハビリテーション科】【一般病床数:0療養病床数:50精神病床数:0感染症病床数:0合計病床数:50】徳島県三好郡東みよし町中庄１０１１番地の３" }, "geometry": { "type": "Point", "coordinates": [ 133.952844, 34.037084 ] } },
{ "type": "Feature", "properties": { "ID": 3611365900910, "正式名称": "北條病院", "機関区分": 1, "都道府県コード": 36, "市区町村コード": 208, "所在地": "徳島県三好市池田町マチ２５２６－７", "緯度": 34.028833, "経度": 133.804722, "url": "https://www.iryou.teikyouseido.mhlw.go.jp/znk-web/juminkanja/S2430/initialize?prefCd=36&kikanCd=1365900910&kikanKbn=1", "url2": "http://www.hojyo-hp.com/index.html", "内容": "北條病院【1:病院】【診療科目:内科_脳外科_小児科_リハビリテーション科】【一般病床数:0療養病床数:36精神病床数:0感染症病床数:0合計病床数:36】徳島県三好市池田町マチ２５２６－７" }, "geometry": { "type": "Point", "coordinates": [ 133.804722, 34.028833 ] } },
{ "type": "Feature", "properties": { "ID": 3611365901050, "正式名称": "三野田中病院", "機関区分": 1, "都道府県コード": 36, "市区町村コード": 208, "所在地": "徳島県三好市三野町芝生１２４２－６", "緯度": 34.042596, "経度": 133.966513, "url": "https://www.iryou.teikyouseido.mhlw.go.jp/znk-web/juminkanja/S2430/initialize?prefCd=36&kikanCd=1365901050&kikanKbn=1", "url2": "http://www.tanakahospital.or.jp/", "内容": "三野田中病院【1:病院】【診療科目:内科_糖尿病・代謝内科_呼吸器内科_循環器内科_消化器内科_腎臓内科_神経内科_外科_脳神経外科_乳腺外科_肛門外科_整形外科_形成外科_眼科_耳鼻いんこう科_泌尿器科_精神科_リハビリテーション科_放射線科】【一般病床数:94療養病床数:0精神病床数:0感染症病床数:0合計病床数:94】徳島県三好市三野町芝生１２４２－６" }, "geometry": { "type": "Point", "coordinates": [ 133.966513, 34.042596 ] } },
{ "type": "Feature", "properties": { "ID": 3611365901180, "正式名称": "特定医療法人恵済会ゆうあいホスピタル", "機関区分": 1, "都道府県コード": 36, "市区町村コード": 489, "所在地": "徳島県三好郡東みよし町中庄７２８番地１", "緯度": 34.03856, "経度": 133.953745, "url": "https://www.iryou.teikyouseido.mhlw.go.jp/znk-web/juminkanja/S2430/initialize?prefCd=36&kikanCd=1365901180&kikanKbn=1", "url2": "http://www5.ocn.ne.jp/~skh.1100/", "内容": "特定医療法人恵済会ゆうあいホスピタル【1:病院】【診療科目:内科_精神科_神経科_心療内科】【一般病床数:0療養病床数:0精神病床数:220感染症病床数:0合計病床数:220】徳島県三好郡東みよし町中庄７２８番地１" }, "geometry": { "type": "Point", "coordinates": [ 133.953745, 34.03856 ] } }
]
}
