{
"type": "FeatureCollection",
"name": "geo_36_幼保連携型認定こども園",
"crs": { "type": "name", "properties": { "name": "urn:ogc:def:crs:EPSG::6668" } },
"features": [
{ "type": "Feature", "properties": { "P29_001": "36201", "P29_002": "A236220100016", "P29_003": "16013", "P29_004": "徳島市立北井上認定こども園", "P29_005": "徳島県徳島市国府町西黒田字南傍示275-1", "P29_006": "3", "P29_007": "0", "P29_008": "00", "P29_009": null }, "geometry": { "type": "Point", "coordinates": [ 134.466062998428043, 34.100061999398527 ] } },
{ "type": "Feature", "properties": { "P29_001": "36201", "P29_002": "A236220100025", "P29_003": "16013", "P29_004": "徳島市立勝占認定こども園", "P29_005": "徳島県徳島市勝占町中須155-2", "P29_006": "3", "P29_007": "0", "P29_008": "00", "P29_009": null }, "geometry": { "type": "Point", "coordinates": [ 134.553148001122537, 34.023719001356824 ] } },
{ "type": "Feature", "properties": { "P29_001": "36201", "P29_002": "A236220100196", "P29_003": "16013", "P29_004": "徳島市立不動認定こども園", "P29_005": "徳島県徳島市不動本町2-145-1", "P29_006": "3", "P29_007": "0", "P29_008": "00", "P29_009": null }, "geometry": { "type": "Point", "coordinates": [ 134.505562588034252, 34.09636692842863 ] } },
{ "type": "Feature", "properties": { "P29_001": "36204", "P29_002": "A236220400013", "P29_003": "16013", "P29_004": "阿南市立橘こどもセンター", "P29_005": "徳島県阿南市橘町久保38-3", "P29_006": "3", "P29_007": "0", "P29_008": "00", "P29_009": null }, "geometry": { "type": "Point", "coordinates": [ 134.640597030728145, 33.875099009084124 ] } },
{ "type": "Feature", "properties": { "P29_001": "36205", "P29_002": "A236220500021", "P29_003": "16013", "P29_004": "吉野川市立高越こども園", "P29_005": "徳島県吉野川市山川町町94", "P29_006": "3", "P29_007": "0", "P29_008": "00", "P29_009": null }, "geometry": { "type": "Point", "coordinates": [ 134.225579482478253, 34.04496625499597 ] } },
{ "type": "Feature", "properties": { "P29_001": "36205", "P29_002": "A236220500030", "P29_003": "16013", "P29_004": "吉野川市立鴨島東こども園", "P29_005": "徳島県吉野川市鴨島町牛島888-1", "P29_006": "3", "P29_007": "0", "P29_008": "00", "P29_009": null }, "geometry": { "type": "Point", "coordinates": [ 134.385303583026115, 34.074085458485584 ] } },
{ "type": "Feature", "properties": { "P29_001": "36206", "P29_002": "A236220600011", "P29_003": "16013", "P29_004": "阿波市立幼保連携型一条認定こども園", "P29_005": "徳島県阿波市吉野町西条字岡ノ川原134-1", "P29_006": "3", "P29_007": "0", "P29_008": "00", "P29_009": null }, "geometry": { "type": "Point", "coordinates": [ 134.386134004955125, 34.100530001534246 ] } },
{ "type": "Feature", "properties": { "P29_001": "36206", "P29_002": "A236220600020", "P29_003": "16013", "P29_004": "阿波市立幼保連携型土成中央認定こども園", "P29_005": "徳島県阿波市土成町吉田字山の神23-1", "P29_006": "3", "P29_007": "0", "P29_008": "00", "P29_009": null }, "geometry": { "type": "Point", "coordinates": [ 134.351819397547132, 34.123687980096889 ] } },
{ "type": "Feature", "properties": { "P29_001": "36206", "P29_002": "A236220600039", "P29_003": "16013", "P29_004": "阿波市立幼保連携型八幡認定こども園", "P29_005": "徳島県阿波市市場町大野島字稲荷179", "P29_006": "3", "P29_007": "0", "P29_008": "00", "P29_009": null }, "geometry": { "type": "Point", "coordinates": [ 134.310498756087014, 34.091261361242474 ] } },
{ "type": "Feature", "properties": { "P29_001": "36206", "P29_002": "A236220600048", "P29_003": "16013", "P29_004": "阿波市立幼保連携型伊沢認定こども園", "P29_005": "徳島県阿波市阿波町南柴生83-1", "P29_006": "3", "P29_007": "0", "P29_008": "00", "P29_009": null }, "geometry": { "type": "Point", "coordinates": [ 134.22993100246029, 34.088397003862788 ] } },
{ "type": "Feature", "properties": { "P29_001": "36206", "P29_002": "A236220600057", "P29_003": "16013", "P29_004": "大俣認定こども園", "P29_005": "徳島県阿波市市場町大俣字行峯257-1", "P29_006": "3", "P29_007": "0", "P29_008": "00", "P29_009": null }, "geometry": { "type": "Point", "coordinates": [ 134.261608896532749, 34.101327032909502 ] } },
{ "type": "Feature", "properties": { "P29_001": "36207", "P29_002": "A236220700010", "P29_003": "16013", "P29_004": "美馬市立江原認定こども園", "P29_005": "徳島県美馬市脇町字拝原700-1", "P29_006": "3", "P29_007": "0", "P29_008": "00", "P29_009": null }, "geometry": { "type": "Point", "coordinates": [ 134.171046251119918, 34.071995359127726 ] } },
{ "type": "Feature", "properties": { "P29_001": "36207", "P29_002": "A236220700029", "P29_003": "16013", "P29_004": "美馬認定こども園", "P29_005": "徳島県美馬市美馬町字中東原70-1", "P29_006": "3", "P29_007": "0", "P29_008": "00", "P29_009": null }, "geometry": { "type": "Point", "coordinates": [ 134.048246346220509, 34.053522445415958 ] } },
{ "type": "Feature", "properties": { "P29_001": "36207", "P29_002": "A236220700038", "P29_003": "16013", "P29_004": "穴吹認定こども園", "P29_005": "徳島県美馬市穴吹町穴吹宇福戸原1", "P29_006": "3", "P29_007": "0", "P29_008": "00", "P29_009": null }, "geometry": { "type": "Point", "coordinates": [ 134.172294215100152, 34.052171501770275 ] } },
{ "type": "Feature", "properties": { "P29_001": "36207", "P29_002": "A236220700047", "P29_003": "16013", "P29_004": "岩倉認定こども園", "P29_005": "徳島県美馬市脇町岩倉2426-4", "P29_006": "3", "P29_007": "0", "P29_008": "00", "P29_009": null }, "geometry": { "type": "Point", "coordinates": [ 134.1142359988919, 34.062921003389739 ] } },
{ "type": "Feature", "properties": { "P29_001": "36387", "P29_002": "A236238700012", "P29_003": "16013", "P29_004": "美波町立日和佐こども園", "P29_005": "徳島県海部郡美波町奥河内字弁才天19-3", "P29_006": "3", "P29_007": "0", "P29_008": "00", "P29_009": null }, "geometry": { "type": "Point", "coordinates": [ 134.533600001385622, 33.727961996473006 ] } },
{ "type": "Feature", "properties": { "P29_001": "36387", "P29_002": "A236238700021", "P29_003": "16013", "P29_004": "美波町立由岐こども園", "P29_005": "徳島県海部郡美波町西の地字西地55", "P29_006": "3", "P29_007": "0", "P29_008": "00", "P29_009": null }, "geometry": { "type": "Point", "coordinates": [ 134.591009806955753, 33.774646121096964 ] } },
{ "type": "Feature", "properties": { "P29_001": "36201", "P29_002": "A236320100014", "P29_003": "16013", "P29_004": "助任なかよし認定こども園", "P29_005": "徳島県徳島市中吉野町1-65", "P29_006": "4", "P29_007": "0", "P29_008": "00", "P29_009": null }, "geometry": { "type": "Point", "coordinates": [ 134.558337001287498, 34.085295000993597 ] } },
{ "type": "Feature", "properties": { "P29_001": "36201", "P29_002": "A236320100023", "P29_003": "16013", "P29_004": "わかば認定こども園", "P29_005": "徳島県徳島市金沢1-4-8", "P29_006": "4", "P29_007": "0", "P29_008": "00", "P29_009": null }, "geometry": { "type": "Point", "coordinates": [ 134.583720997431897, 34.074852999053221 ] } },
{ "type": "Feature", "properties": { "P29_001": "36201", "P29_002": "A236320100032", "P29_003": "16013", "P29_004": "もとしろ認定こども園", "P29_005": "徳島県徳島市福島1-6-24", "P29_006": "4", "P29_007": "0", "P29_008": "00", "P29_009": null }, "geometry": { "type": "Point", "coordinates": [ 134.564546201329421, 34.071609198345151 ] } },
{ "type": "Feature", "properties": { "P29_001": "36201", "P29_002": "A236320100041", "P29_003": "16013", "P29_004": "幼保連携型認定こども園めだかのこころ", "P29_005": "徳島県徳島市新浜本町2-2-23", "P29_006": "4", "P29_007": "0", "P29_008": "00", "P29_009": null }, "geometry": { "type": "Point", "coordinates": [ 134.568980809911977, 34.043739532585505 ] } },
{ "type": "Feature", "properties": { "P29_001": "36201", "P29_002": "A236320100050", "P29_003": "16013", "P29_004": "幼保連携型大原認定こども園", "P29_005": "徳島県徳島市大原町中須51-1", "P29_006": "4", "P29_007": "0", "P29_008": "00", "P29_009": null }, "geometry": { "type": "Point", "coordinates": [ 134.566476000125164, 34.028958001434255 ] } },
{ "type": "Feature", "properties": { "P29_001": "36201", "P29_002": "A236320100069", "P29_003": "16013", "P29_004": "ゆめあい認定こども園", "P29_005": "徳島県徳島市雑賀町西開4-3", "P29_006": "4", "P29_007": "0", "P29_008": "00", "P29_009": null }, "geometry": { "type": "Point", "coordinates": [ 134.560303752611446, 34.039825343743878 ] } },
{ "type": "Feature", "properties": { "P29_001": "36201", "P29_002": "A236320100078", "P29_003": "16013", "P29_004": "エクセレント南部こども園", "P29_005": "徳島県徳島市大谷町大開16-1", "P29_006": "4", "P29_007": "0", "P29_008": "00", "P29_009": null }, "geometry": { "type": "Point", "coordinates": [ 134.53678965546473, 34.035079840919018 ] } },
{ "type": "Feature", "properties": { "P29_001": "36201", "P29_002": "A236320100087", "P29_003": "16013", "P29_004": "四国大学附属認定こども園", "P29_005": "徳島県徳島市応神町古川字戎子野182-4", "P29_006": "4", "P29_007": "0", "P29_008": "00", "P29_009": null }, "geometry": { "type": "Point", "coordinates": [ 134.553236699148584, 34.10164264203862 ] } },
{ "type": "Feature", "properties": { "P29_001": "36201", "P29_002": "A236320100096", "P29_003": "16013", "P29_004": "育英認定こども園", "P29_005": "徳島県徳島市中昭和町4-80", "P29_006": "4", "P29_007": "0", "P29_008": "00", "P29_009": null }, "geometry": { "type": "Point", "coordinates": [ 134.561081647303894, 34.059776451397028 ] } },
{ "type": "Feature", "properties": { "P29_001": "36201", "P29_002": "A236320100103", "P29_003": "16013", "P29_004": "沖浜シーズ認定こども園", "P29_005": "徳島県徳島市沖浜町北川726-3", "P29_006": "4", "P29_007": "0", "P29_008": "00", "P29_009": null }, "geometry": { "type": "Point", "coordinates": [ 134.55256676331706, 34.056306469276443 ] } },
{ "type": "Feature", "properties": { "P29_001": "36201", "P29_002": "A236320100112", "P29_003": "16013", "P29_004": "青嵐認定こども園", "P29_005": "徳島県徳島市北田宮2-2-58", "P29_006": "4", "P29_007": "0", "P29_008": "00", "P29_009": null }, "geometry": { "type": "Point", "coordinates": [ 134.543304997193985, 34.087584004404079 ] } },
{ "type": "Feature", "properties": { "P29_001": "36201", "P29_002": "A236320100121", "P29_003": "16013", "P29_004": "みつぼしこどもえん", "P29_005": "徳島県徳島市沖浜東2-46", "P29_006": "4", "P29_007": "0", "P29_008": "00", "P29_009": null }, "geometry": { "type": "Point", "coordinates": [ 134.555155980321558, 34.051764301712431 ] } },
{ "type": "Feature", "properties": { "P29_001": "36201", "P29_002": "A236320100130", "P29_003": "16013", "P29_004": "おおぎ認定こども園", "P29_005": "徳島県徳島市上八万町広田461-1", "P29_006": "4", "P29_007": "0", "P29_008": "00", "P29_009": null }, "geometry": { "type": "Point", "coordinates": [ 134.515618464506872, 34.035488513246293 ] } },
{ "type": "Feature", "properties": { "P29_001": "36201", "P29_002": "A236320100149", "P29_003": "16013", "P29_004": "田宮シーズ認定こども園", "P29_005": "徳島県徳島市北田宮4-791-4", "P29_006": "4", "P29_007": "0", "P29_008": "00", "P29_009": null }, "geometry": { "type": "Point", "coordinates": [ 134.531222171873907, 34.091045331912632 ] } },
{ "type": "Feature", "properties": { "P29_001": "36201", "P29_002": "A236320100158", "P29_003": "16013", "P29_004": "若松こども園", "P29_005": "徳島県徳島市名東町1-110-1", "P29_006": "4", "P29_007": "0", "P29_008": "00", "P29_009": null }, "geometry": { "type": "Point", "coordinates": [ 134.50454994299929, 34.067834648752758 ] } },
{ "type": "Feature", "properties": { "P29_001": "36201", "P29_002": "A236320100167", "P29_003": "16013", "P29_004": "四国大学附属西富田こども園", "P29_005": "徳島県徳島市伊賀町1-6-8", "P29_006": "4", "P29_007": "0", "P29_008": "00", "P29_009": null }, "geometry": { "type": "Point", "coordinates": [ 134.544873710725625, 34.066290406366022 ] } },
{ "type": "Feature", "properties": { "P29_001": "36201", "P29_002": "A236320100176", "P29_003": "16013", "P29_004": "阿波国慈恵院こども園", "P29_005": "徳島県徳島市福島1-6-62", "P29_006": "4", "P29_007": "0", "P29_008": "00", "P29_009": null }, "geometry": { "type": "Point", "coordinates": [ 134.563973996715589, 34.071300004690933 ] } },
{ "type": "Feature", "properties": { "P29_001": "36201", "P29_002": "A236320100185", "P29_003": "16013", "P29_004": "川内南アコールこども園", "P29_005": "徳島県徳島市川内町下別宮西38-2", "P29_006": "4", "P29_007": "0", "P29_008": "00", "P29_009": null }, "geometry": { "type": "Point", "coordinates": [ 134.590807354341962, 34.092843913871846 ] } },
{ "type": "Feature", "properties": { "P29_001": "36201", "P29_002": "A236320100194", "P29_003": "16013", "P29_004": "みのり認定こども園", "P29_005": "徳島県徳島市八万町犬山250-1", "P29_006": "4", "P29_007": "0", "P29_008": "00", "P29_009": null }, "geometry": { "type": "Point", "coordinates": [ 134.546532056495664, 34.041017047462709 ] } },
{ "type": "Feature", "properties": { "P29_001": "36201", "P29_002": "A236320100201", "P29_003": "16013", "P29_004": "とくしま健祥会認定こども園", "P29_005": "徳島県徳島市八万町新貝93-1", "P29_006": "4", "P29_007": "0", "P29_008": "00", "P29_009": null }, "geometry": { "type": "Point", "coordinates": [ 134.521763182162488, 34.045482439380201 ] } },
{ "type": "Feature", "properties": { "P29_001": "36201", "P29_002": "A236320100210", "P29_003": "16013", "P29_004": "八万南ひまわり認定こども園", "P29_005": "徳島県徳島市八万町町川南27-3", "P29_006": "4", "P29_007": "0", "P29_008": "00", "P29_009": null }, "geometry": { "type": "Point", "coordinates": [ 134.537187608193989, 34.043520897176585 ] } },
{ "type": "Feature", "properties": { "P29_001": "36201", "P29_002": "A236320100229", "P29_003": "16013", "P29_004": "島田認定こども園", "P29_005": "徳島県徳島市中島田町3-18", "P29_006": "4", "P29_007": "0", "P29_008": "00", "P29_009": null }, "geometry": { "type": "Point", "coordinates": [ 134.509490733719815, 34.08222900456164 ] } },
{ "type": "Feature", "properties": { "P29_001": "36201", "P29_002": "A236320100238", "P29_003": "16013", "P29_004": "島田おひさま認定こども園", "P29_005": "徳島県徳島市国府町日開字東387-1", "P29_006": "4", "P29_007": "0", "P29_008": "00", "P29_009": null }, "geometry": { "type": "Point", "coordinates": [ 134.480781303770073, 34.082159967476464 ] } },
{ "type": "Feature", "properties": { "P29_001": "36201", "P29_002": "A236320100247", "P29_003": "16013", "P29_004": "沖洲こども園", "P29_005": "徳島県徳島市北沖洲3-5-12", "P29_006": "4", "P29_007": "0", "P29_008": "00", "P29_009": null }, "geometry": { "type": "Point", "coordinates": [ 134.588463677630358, 34.067403376617293 ] } },
{ "type": "Feature", "properties": { "P29_001": "36201", "P29_002": "A236320100256", "P29_003": "16013", "P29_004": "（仮称）南井上認定こども園", "P29_005": "徳島県徳島市国府町川原田字南野239-1", "P29_006": "4", "P29_007": "0", "P29_008": "00", "P29_009": null }, "geometry": { "type": "Point", "coordinates": [ 134.474590791844776, 34.089952518456698 ] } },
{ "type": "Feature", "properties": { "P29_001": "36202", "P29_002": "A236320200013", "P29_003": "16013", "P29_004": "幼保連携型認定こども園ＩＺＵＭＩ", "P29_005": "徳島県鳴門市鳴門町高島字南433-2", "P29_006": "4", "P29_007": "0", "P29_008": "00", "P29_009": null }, "geometry": { "type": "Point", "coordinates": [ 134.595268890976399, 34.201076507820211 ] } },
{ "type": "Feature", "properties": { "P29_001": "36202", "P29_002": "A236320200022", "P29_003": "16013", "P29_004": "認定こども園さら", "P29_005": "徳島県鳴門市撫養町南浜字蛭子前西92-1", "P29_006": "4", "P29_007": "0", "P29_008": "00", "P29_009": null }, "geometry": { "type": "Point", "coordinates": [ 134.59200200158017, 34.172706004660931 ] } },
{ "type": "Feature", "properties": { "P29_001": "36202", "P29_002": "A236320200031", "P29_003": "16013", "P29_004": "公私連携幼保連携型認定こども園成稔", "P29_005": "徳島県鳴門市鳴門町高島字北221", "P29_006": "4", "P29_007": "0", "P29_008": "00", "P29_009": null }, "geometry": { "type": "Point", "coordinates": [ 134.596835789793602, 34.203808388435874 ] } },
{ "type": "Feature", "properties": { "P29_001": "36203", "P29_002": "A236320300012", "P29_003": "16013", "P29_004": "こまつしま健祥会認定こども園", "P29_005": "徳島県小松島市中田町字新開2-8", "P29_006": "4", "P29_007": "0", "P29_008": "00", "P29_009": null }, "geometry": { "type": "Point", "coordinates": [ 134.583640099450406, 34.014582456250132 ] } },
{ "type": "Feature", "properties": { "P29_001": "36203", "P29_002": "A236320300021", "P29_003": "16013", "P29_004": "花しんばり子ども園", "P29_005": "徳島県小松島市大林町字金岡70-1", "P29_006": "4", "P29_007": "0", "P29_008": "00", "P29_009": null }, "geometry": { "type": "Point", "coordinates": [ 134.616116564043665, 33.978695001668761 ] } },
{ "type": "Feature", "properties": { "P29_001": "36203", "P29_002": "A236320300030", "P29_003": "16013", "P29_004": "こやす認定こども園", "P29_005": "徳島県小松島市田浦町字子安73", "P29_006": "4", "P29_007": "0", "P29_008": "00", "P29_009": null }, "geometry": { "type": "Point", "coordinates": [ 134.561141591392584, 33.999321730357558 ] } },
{ "type": "Feature", "properties": { "P29_001": "36204", "P29_002": "A236320400011", "P29_003": "16013", "P29_004": "（仮称）エクセレント羽ノ浦こども園", "P29_005": "徳島県阿南市羽ノ浦町中庄やたけ1-1", "P29_006": "4", "P29_007": "0", "P29_008": "00", "P29_009": null }, "geometry": { "type": "Point", "coordinates": [ 134.630984203726314, 33.95824436566533 ] } },
{ "type": "Feature", "properties": { "P29_001": "36205", "P29_002": "A236320500010", "P29_003": "16013", "P29_004": "認定こども園めぐみ幼稚園めぐみ保育園", "P29_005": "徳島県吉野川市鴨島町鴨島380", "P29_006": "4", "P29_007": "0", "P29_008": "00", "P29_009": null }, "geometry": { "type": "Point", "coordinates": [ 134.358525886379596, 34.071365906647401 ] } },
{ "type": "Feature", "properties": { "P29_001": "36205", "P29_002": "A236320500029", "P29_003": "16013", "P29_004": "鴨島かもめこども園", "P29_005": "徳島県吉野川市鴨島町西麻植字大東98-1", "P29_006": "4", "P29_007": "0", "P29_008": "00", "P29_009": null }, "geometry": { "type": "Point", "coordinates": [ 134.347955189383555, 34.064495092750356 ] } },
{ "type": "Feature", "properties": { "P29_001": "36205", "P29_002": "A236320500038", "P29_003": "16013", "P29_004": "山瀬かもめこども園", "P29_005": "徳島県吉野川市山川町諏訪266-5", "P29_006": "4", "P29_007": "0", "P29_008": "00", "P29_009": null }, "geometry": { "type": "Point", "coordinates": [ 134.251133688556962, 34.061674651896581 ] } },
{ "type": "Feature", "properties": { "P29_001": "36205", "P29_002": "A236320500047", "P29_003": "16013", "P29_004": "鴨島中央認定こども園", "P29_005": "徳島県吉野川市鴨島町鴨島乙897-9", "P29_006": "4", "P29_007": "0", "P29_008": "00", "P29_009": null }, "geometry": { "type": "Point", "coordinates": [ 134.356587002044847, 34.076767001474693 ] } },
{ "type": "Feature", "properties": { "P29_001": "36205", "P29_002": "A236320500056", "P29_003": "16013", "P29_004": "（仮称）川島かもめこども園", "P29_005": "徳島県吉野川市川島町桒村2421-1", "P29_006": "4", "P29_007": "0", "P29_008": "00", "P29_009": null }, "geometry": { "type": "Point", "coordinates": [ 134.304325699116049, 34.060014971676082 ] } },
{ "type": "Feature", "properties": { "P29_001": "36206", "P29_002": "A236320600019", "P29_003": "16013", "P29_004": "かきはら子ども園", "P29_005": "徳島県阿波市吉野町柿原字ヒロナカ238-1", "P29_006": "4", "P29_007": "0", "P29_008": "00", "P29_009": null }, "geometry": { "type": "Point", "coordinates": [ 134.353406057193752, 34.097008068337253 ] } },
{ "type": "Feature", "properties": { "P29_001": "36206", "P29_002": "A236320600028", "P29_003": "16013", "P29_004": "はやし子ども園", "P29_005": "徳島県阿波市阿波町東整理155-1", "P29_006": "4", "P29_007": "0", "P29_008": "00", "P29_009": null }, "geometry": { "type": "Point", "coordinates": [ 134.201081996565136, 34.074159001452337 ] } },
{ "type": "Feature", "properties": { "P29_001": "36206", "P29_002": "A236320600037", "P29_003": "16013", "P29_004": "市場かもめこども園", "P29_005": "徳島県阿波市市場町市場字上野段669", "P29_006": "4", "P29_007": "0", "P29_008": "00", "P29_009": null }, "geometry": { "type": "Point", "coordinates": [ 134.286806996566753, 34.088020999840261 ] } },
{ "type": "Feature", "properties": { "P29_001": "36206", "P29_002": "A236320600046", "P29_003": "16013", "P29_004": "久勝かもめこども園", "P29_005": "徳島県阿波市阿波町森沢26", "P29_006": "4", "P29_007": "0", "P29_008": "00", "P29_009": null }, "geometry": { "type": "Point", "coordinates": [ 134.25139100587063, 34.085345002789161 ] } },
{ "type": "Feature", "properties": { "P29_001": "36341", "P29_002": "A236334100015", "P29_003": "16013", "P29_004": "さくら認定こども園", "P29_005": "徳島県名西郡石井町高川原字高川原1254-1", "P29_006": "4", "P29_007": "0", "P29_008": "00", "P29_009": null }, "geometry": { "type": "Point", "coordinates": [ 134.448778190365459, 34.076767455859844 ] } },
{ "type": "Feature", "properties": { "P29_001": "36401", "P29_002": "A236340100012", "P29_003": "16013", "P29_004": "きらら認定こども園", "P29_005": "徳島県板野郡松茂町中喜来字前原東七番越19-3", "P29_006": "4", "P29_007": "0", "P29_008": "00", "P29_009": null }, "geometry": { "type": "Point", "coordinates": [ 134.580730574861917, 34.142039572611466 ] } },
{ "type": "Feature", "properties": { "P29_001": "36401", "P29_002": "A236340100021", "P29_003": "16013", "P29_004": "（仮称）まつしげ子ども園", "P29_005": "徳島県板野郡松茂町笹木野字山東43", "P29_006": "4", "P29_007": "0", "P29_008": "00", "P29_009": null }, "geometry": { "type": "Point", "coordinates": [ 134.597781815105492, 34.12387133576204 ] } },
{ "type": "Feature", "properties": { "P29_001": "36402", "P29_002": "A236340200011", "P29_003": "16013", "P29_004": "認定こども園めばえ", "P29_005": "徳島県板野郡北島町中村字前田道添11-6", "P29_006": "4", "P29_007": "0", "P29_008": "00", "P29_009": null }, "geometry": { "type": "Point", "coordinates": [ 134.548542283039694, 34.126283362450884 ] } },
{ "type": "Feature", "properties": { "P29_001": "36489", "P29_002": "A236348900017", "P29_003": "16013", "P29_004": "みのだ認定こども園", "P29_005": "徳島県三好郡東みよし町昼間20-10", "P29_006": "4", "P29_007": "0", "P29_008": "00", "P29_009": null }, "geometry": { "type": "Point", "coordinates": [ 133.888797681963013, 34.042944638743833 ] } }
]
}
