{
"type": "FeatureCollection",
"name": "geo_36_小規模多機能型居宅介護",
"crs": { "type": "name", "properties": { "name": "urn:ogc:def:crs:OGC:1.3:CRS84" } },
"features": [
{ "type": "Feature", "properties": { "内容": "小規模多機能ホーム名東の家【小規模多機能型居宅介護】徳島県徳島市名東町1丁目69－2", "url": "https://www.kaigokensaku.mhlw.go.jp/36/index.php?action_kouhyou_detail_004_kani=true&JigyosyoCd=3690167923-00&ServiceCd=730&Type=search", "url2": "http://ryoun.com" }, "geometry": { "type": "Point", "coordinates": [ 134.5058884, 34.0631389 ] } },
{ "type": "Feature", "properties": { "内容": "常三島小規模多機能居宅シャングリ・ラ【小規模多機能型居宅介護】徳島県徳島市北常三島町2丁目48－1", "url": "https://www.kaigokensaku.mhlw.go.jp/36/index.php?action_kouhyou_detail_004_kani=true&JigyosyoCd=3690100106-00&ServiceCd=730&Type=search", "url2": "http://www.global-assist.jp/" }, "geometry": { "type": "Point", "coordinates": [ 134.562198399999943, 34.0821772 ] } },
{ "type": "Feature", "properties": { "内容": "小規模多機能型居宅介護あさがお【小規模多機能型居宅介護】徳島県徳島市大原町外籠４６番地", "url": "https://www.kaigokensaku.mhlw.go.jp/36/index.php?action_kouhyou_detail_004_kani=true&JigyosyoCd=3690100239-00&ServiceCd=730&Type=search", "url2": "http://www.asagao-fukushikai.jp/" }, "geometry": { "type": "Point", "coordinates": [ 134.568604377909878, 34.033706367279557 ] } },
{ "type": "Feature", "properties": { "内容": "セントケア沖洲【小規模多機能型居宅介護】徳島県徳島市北沖洲２丁目11-59", "url": "https://www.kaigokensaku.mhlw.go.jp/36/index.php?action_kouhyou_detail_004_kani=true&JigyosyoCd=3690100197-00&ServiceCd=730&Type=search", "url2": "http://www.saint-care.com/" }, "geometry": { "type": "Point", "coordinates": [ 134.588993399999907, 34.0731783 ] } },
{ "type": "Feature", "properties": { "内容": "なごみの家【小規模多機能型居宅介護】徳島県徳島市北田宮一丁目1番4号", "url": "https://www.kaigokensaku.mhlw.go.jp/36/index.php?action_kouhyou_detail_004_kani=true&JigyosyoCd=3690168251-00&ServiceCd=730&Type=search", "url2": "https://www.okagawa-g.com/" }, "geometry": { "type": "Point", "coordinates": [ 134.5482807, 34.0872147 ] } },
{ "type": "Feature", "properties": { "内容": "小規模多機能とみだ【小規模多機能型居宅介護】徳島県徳島市中昭和町3丁目48番地の2", "url": "https://www.kaigokensaku.mhlw.go.jp/36/index.php?action_kouhyou_detail_004_kani=true&JigyosyoCd=3690100163-00&ServiceCd=730&Type=search", "url2": "http://hayashikai.or.jp/mallscale/" }, "geometry": { "type": "Point", "coordinates": [ 134.559457299999963, 34.0609712 ] } },
{ "type": "Feature", "properties": { "内容": "八万小規模多機能センター【小規模多機能型居宅介護】徳島県徳島市八万町下福万128－88", "url": "https://www.kaigokensaku.mhlw.go.jp/36/index.php?action_kouhyou_detail_004_kani=true&JigyosyoCd=3690100080-00&ServiceCd=730&Type=search", "url2": "https://hachiman.grouph.jp/" }, "geometry": { "type": "Point", "coordinates": [ 134.532424, 34.0544487 ] } },
{ "type": "Feature", "properties": { "内容": "大和なでしこ【小規模多機能型居宅介護】徳島県徳島市川内町平石夷野24番地", "url": "https://www.kaigokensaku.mhlw.go.jp/36/index.php?action_kouhyou_detail_004_kani=true&JigyosyoCd=3690168392-00&ServiceCd=730&Type=search", "url2": null }, "geometry": { "type": "Point", "coordinates": [ 134.5761794, 34.1212762 ] } },
{ "type": "Feature", "properties": { "内容": "四宮邸大雅【小規模多機能型居宅介護】徳島県徳島市住吉一丁目４番３３四宮邸大雅", "url": "https://www.kaigokensaku.mhlw.go.jp/36/index.php?action_kouhyou_detail_004_kani=true&JigyosyoCd=3690168152-00&ServiceCd=730&Type=search", "url2": "http://okagawa-g.com" }, "geometry": { "type": "Point", "coordinates": [ 134.564637396820103, 34.074371802489367 ] } },
{ "type": "Feature", "properties": { "内容": "小規模多機能ホーム　万代の家【小規模多機能型居宅介護】徳島市万代町5丁目22番地の9小規模多機能ホーム万代の家", "url": "https://www.kaigokensaku.mhlw.go.jp/36/index.php?action_kouhyou_detail_004_kani=true&JigyosyoCd=3690167980-00&ServiceCd=730&Type=search", "url2": "http://www.ryoun.com/s_bandai/bandainoie.html" }, "geometry": { "type": "Point", "coordinates": [ 134.564070899999933, 34.0628683 ] } },
{ "type": "Feature", "properties": { "内容": "グループリビングとくしま県庁前【小規模多機能型居宅介護】徳島市昭和町3丁目32番地グループリビングとくしま県庁前", "url": "https://www.kaigokensaku.mhlw.go.jp/36/index.php?action_kouhyou_detail_004_kani=true&JigyosyoCd=3690100130-00&ServiceCd=730&Type=search", "url2": "http://www.group-living.com/" }, "geometry": { "type": "Point", "coordinates": [ 134.560115600000017, 34.0633182 ] } },
{ "type": "Feature", "properties": { "内容": "やまもも小規模多機能型居宅介護施設【小規模多機能型居宅介護】徳島県徳島市下町本丁59-33", "url": "https://www.kaigokensaku.mhlw.go.jp/36/index.php?action_kouhyou_detail_004_kani=true&JigyosyoCd=3690100155-00&ServiceCd=730&Type=search", "url2": "http://www.tk2.nmt.ne.jp/~kouhuukai/index.html" }, "geometry": { "type": "Point", "coordinates": [ 134.486203, 34.0359672 ] } },
{ "type": "Feature", "properties": { "内容": "鳴門小規模多機能センター【小規模多機能型居宅介護】徳島県鳴門市撫養町木津字防崎445番1", "url": "https://www.kaigokensaku.mhlw.go.jp/36/index.php?action_kouhyou_detail_004_kani=true&JigyosyoCd=3690200054-00&ServiceCd=730&Type=search", "url2": "https://naruto.grouph.jp/" }, "geometry": { "type": "Point", "coordinates": [ 134.578209, 34.1687122 ] } },
{ "type": "Feature", "properties": { "内容": "小規模多機能ホーム　健祥会テルダム【小規模多機能型居宅介護】徳島県小松島市日開野町宗人屋敷71番地4ケアハウス健祥会アムス", "url": "https://www.kaigokensaku.mhlw.go.jp/36/index.php?action_kouhyou_detail_004_kani=true&JigyosyoCd=3690300094-00&ServiceCd=730&Type=search", "url2": "https://www.kenshokai.group/" }, "geometry": { "type": "Point", "coordinates": [ 134.578502006151552, 33.997621760860895 ] } },
{ "type": "Feature", "properties": { "内容": "小規模多機能型居宅介護ホームいちご【小規模多機能型居宅介護】徳島県阿南市那賀川町西原248番地", "url": "https://www.kaigokensaku.mhlw.go.jp/36/index.php?action_kouhyou_detail_004_kani=true&JigyosyoCd=3690400035-00&ServiceCd=730&Type=search", "url2": "http://homeichigo.com/" }, "geometry": { "type": "Point", "coordinates": [ 134.636867700000039, 33.9447728 ] } },
{ "type": "Feature", "properties": { "内容": "多機能ホームキムラ【小規模多機能型居宅介護】徳島県阿南市横見町高川原29番地1", "url": "https://www.kaigokensaku.mhlw.go.jp/36/index.php?action_kouhyou_detail_004_kani=true&JigyosyoCd=3690400043-00&ServiceCd=730&Type=search", "url2": "https://www.lifesupportkimura.net" }, "geometry": { "type": "Point", "coordinates": [ 134.654266199999938, 33.927341499999983 ] } },
{ "type": "Feature", "properties": { "内容": "菜の花小規模多機能ホーム【小規模多機能型居宅介護】徳島県阿南市新野町妙見前７４番地１２", "url": "https://www.kaigokensaku.mhlw.go.jp/36/index.php?action_kouhyou_detail_004_kani=true&JigyosyoCd=3690400100-00&ServiceCd=730&Type=search", "url2": null }, "geometry": { "type": "Point", "coordinates": [ 134.608087899999987, 33.8349529 ] } },
{ "type": "Feature", "properties": { "内容": "ウィズ双葉【小規模多機能型居宅介護】徳島県阿南市見能林町南林260-2", "url": "https://www.kaigokensaku.mhlw.go.jp/36/index.php?action_kouhyou_detail_004_kani=true&JigyosyoCd=3690400027-00&ServiceCd=730&Type=search", "url2": "http://www.futabakai.info/" }, "geometry": { "type": "Point", "coordinates": [ 134.68125550000002, 33.894985 ] } },
{ "type": "Feature", "properties": { "内容": "小規模多機能型居宅介護事業所　花畑　ロイヤルフラワーガーデン【小規模多機能型居宅介護】徳島県阿南市中林町蟹田１－２", "url": "https://www.kaigokensaku.mhlw.go.jp/36/index.php?action_kouhyou_detail_004_kani=true&JigyosyoCd=3690400092-00&ServiceCd=730&Type=search", "url2": null }, "geometry": { "type": "Point", "coordinates": [ 134.683001206607059, 33.905874046640541 ] } },
{ "type": "Feature", "properties": { "内容": "小規模多機能ホーム緑風会登子【小規模多機能型居宅介護】徳島県阿南市下大野町五反畑126番地１", "url": "https://www.kaigokensaku.mhlw.go.jp/36/index.php?action_kouhyou_detail_004_kani=true&JigyosyoCd=3690400084-00&ServiceCd=730&Type=search", "url2": "http://www.ryokufu1984.or.jp/" }, "geometry": { "type": "Point", "coordinates": [ 134.606293199999982, 33.9329661 ] } },
{ "type": "Feature", "properties": { "内容": "小規模多機能ホーム　健祥会セビリア【小規模多機能型居宅介護】徳島県阿南市羽ノ浦町中庄大知渕31番地", "url": "https://www.kaigokensaku.mhlw.go.jp/36/index.php?action_kouhyou_detail_004_kani=true&JigyosyoCd=3690400076-00&ServiceCd=730&Type=search", "url2": "https://www.kenshokai.group/institution/shokibo/sevilla/" }, "geometry": { "type": "Point", "coordinates": [ 134.635792700000025, 33.9538881 ] } },
{ "type": "Feature", "properties": { "内容": "シルバー小規模多機能ホーム【小規模多機能型居宅介護】徳島県阿南市上中町岡２２２－１", "url": "https://www.kaigokensaku.mhlw.go.jp/36/index.php?action_kouhyou_detail_004_kani=true&JigyosyoCd=3690400050-00&ServiceCd=730&Type=search", "url2": "http://silver-kaigo.jimdo.com/" }, "geometry": { "type": "Point", "coordinates": [ 134.621135900000013, 33.9307612 ] } },
{ "type": "Feature", "properties": { "内容": "小規模多機能型居宅介護　セカンドハウス　サクラ【小規模多機能型居宅介護】徳島県阿南市原ヶ崎町居屋敷１５６－２", "url": "https://www.kaigokensaku.mhlw.go.jp/36/index.php?action_kouhyou_detail_004_kani=true&JigyosyoCd=3690400068-00&ServiceCd=730&Type=search", "url2": "https://hase-group.jp/" }, "geometry": { "type": "Point", "coordinates": [ 134.677736526389282, 33.931942469387991 ] } },
{ "type": "Feature", "properties": { "内容": "小規模多機能型居宅介護　しきじ苑【小規模多機能型居宅介護】徳島県吉野川市鴨島町敷地15番地7", "url": "https://www.kaigokensaku.mhlw.go.jp/36/index.php?action_kouhyou_detail_004_kani=true&JigyosyoCd=3691700037-00&ServiceCd=730&Type=search", "url2": "http://suzukinaika.net" }, "geometry": { "type": "Point", "coordinates": [ 134.347829199999978, 34.061358 ] } },
{ "type": "Feature", "properties": { "内容": "小規模多機能型居宅介護事業所アトレやまかわ【小規模多機能型居宅介護】徳島県吉野川市山川町前川149番地1", "url": "https://www.kaigokensaku.mhlw.go.jp/36/index.php?action_kouhyou_detail_004_kani=true&JigyosyoCd=3691700060-00&ServiceCd=730&Type=search", "url2": "http://miki-rehabili.jp" }, "geometry": { "type": "Point", "coordinates": [ 134.239523922180155, 34.059113103698571 ] } },
{ "type": "Feature", "properties": { "内容": "みにほーむかずは【小規模多機能型居宅介護】徳島県阿波市市場町市場字岸ノ下205-2", "url": "https://www.kaigokensaku.mhlw.go.jp/36/index.php?action_kouhyou_detail_004_kani=true&JigyosyoCd=3671600165-00&ServiceCd=730&Type=search", "url2": null }, "geometry": { "type": "Point", "coordinates": [ 134.275579209227345, 34.08589328351519 ] } },
{ "type": "Feature", "properties": { "内容": "阿波の里【小規模多機能型居宅介護】徳島県阿波市土成町土成南原１４９番地", "url": "https://www.kaigokensaku.mhlw.go.jp/36/index.php?action_kouhyou_detail_004_kani=true&JigyosyoCd=3691600047-00&ServiceCd=730&Type=search", "url2": null }, "geometry": { "type": "Point", "coordinates": [ 138.252924, 36.204824 ] } },
{ "type": "Feature", "properties": { "内容": "小規模多機能型居宅介護事業所　あお葉【小規模多機能型居宅介護】徳島県阿波市市場町市場字岸ノ下205-1", "url": "https://www.kaigokensaku.mhlw.go.jp/36/index.php?action_kouhyou_detail_004_kani=true&JigyosyoCd=3691600013-00&ServiceCd=730&Type=search", "url2": "info@futaba-group28.com" }, "geometry": { "type": "Point", "coordinates": [ 138.252924, 36.204824 ] } },
{ "type": "Feature", "properties": { "内容": "ミニホーム　紅葉【小規模多機能型居宅介護】徳島県阿波市阿波町大次郎10-2,10-5の各一部", "url": "https://www.kaigokensaku.mhlw.go.jp/36/index.php?action_kouhyou_detail_004_kani=true&JigyosyoCd=3671600280-00&ServiceCd=730&Type=search", "url2": null }, "geometry": { "type": "Point", "coordinates": [ 134.239228588523474, 34.085256307089615 ] } },
{ "type": "Feature", "properties": { "内容": "若宮の里小規模多機能ホーム【小規模多機能型居宅介護】徳島県美馬市脇町大字猪尻字若宮南80-1", "url": "https://www.kaigokensaku.mhlw.go.jp/36/index.php?action_kouhyou_detail_004_kani=true&JigyosyoCd=3670500168-00&ServiceCd=730&Type=search", "url2": "http://www.houetsu.com/" }, "geometry": { "type": "Point", "coordinates": [ 134.157970400000067, 34.0645465 ] } },
{ "type": "Feature", "properties": { "内容": "社会医療法人　芳越会　わきの里小規模多機能ホーム【小規模多機能型居宅介護】徳島県美馬市脇町大字脇町340番地", "url": "https://www.kaigokensaku.mhlw.go.jp/36/index.php?action_kouhyou_detail_004_kani=true&JigyosyoCd=3690500032-00&ServiceCd=730&Type=search", "url2": "http://ｗｗｗ.houetsu.com/wakinosato-smh/index.html" }, "geometry": { "type": "Point", "coordinates": [ 134.148302100000024, 34.0701431 ] } },
{ "type": "Feature", "properties": { "内容": "小規模多機能型居宅介護事業所希の里【小規模多機能型居宅介護】徳島県名西郡石井町藍畑字東覚円103-2小規模多機能型居宅介護事業所希の里", "url": "https://www.kaigokensaku.mhlw.go.jp/36/index.php?action_kouhyou_detail_004_kani=true&JigyosyoCd=3691200046-00&ServiceCd=730&Type=search", "url2": "yuseikai.net" }, "geometry": { "type": "Point", "coordinates": [ 134.43554072813464, 34.09618194670427 ] } },
{ "type": "Feature", "properties": { "内容": "地域密着型小規模多機能居宅介護こだま【小規模多機能型居宅介護】徳島県那賀郡那賀町大殿字中北23番地こだまハウス", "url": "https://www.kaigokensaku.mhlw.go.jp/36/index.php?action_kouhyou_detail_004_kani=true&JigyosyoCd=3691300093-00&ServiceCd=730&Type=search", "url2": null }, "geometry": { "type": "Point", "coordinates": [ 134.2992744, 33.7938387 ] } },
{ "type": "Feature", "properties": { "内容": "小規模多機能施設さくら町【小規模多機能型居宅介護】徳島県海部郡美波町奥河内字寺前203番地13", "url": "https://www.kaigokensaku.mhlw.go.jp/36/index.php?action_kouhyou_detail_004_kani=true&JigyosyoCd=3691400067-00&ServiceCd=730&Type=search", "url2": "ｈｔｔｐ：//toukoukai．ｃｏｍ/" }, "geometry": { "type": "Point", "coordinates": [ 134.531483100000059, 33.7300841 ] } },
{ "type": "Feature", "properties": { "内容": "小規模多機能ホーム　健祥会ハーグ【小規模多機能型居宅介護】徳島県板野郡北島町太郎八須字備後江家12番地7", "url": "https://www.kaigokensaku.mhlw.go.jp/36/index.php?action_kouhyou_detail_004_kani=true&JigyosyoCd=3691500148-00&ServiceCd=730&Type=search", "url2": "https://www.kenshokai.group" }, "geometry": { "type": "Point", "coordinates": [ 134.560940661552962, 34.133547591868272 ] } },
{ "type": "Feature", "properties": { "内容": "小規模多機能ホーム　藍住の家【小規模多機能型居宅介護】徳島県板野郡藍住町矢上字安任175-5メディション凌雲", "url": "https://www.kaigokensaku.mhlw.go.jp/36/index.php?action_kouhyou_detail_004_kani=true&JigyosyoCd=3691500098-00&ServiceCd=730&Type=search", "url2": "http//www.ryoun.com" }, "geometry": { "type": "Point", "coordinates": [ 134.496146299999964, 34.1380782 ] } },
{ "type": "Feature", "properties": { "内容": "小規模多機能ホームこもれび【小規模多機能型居宅介護】徳島県美馬郡つるぎ町半田字小野４８７番地６", "url": "https://www.kaigokensaku.mhlw.go.jp/36/index.php?action_kouhyou_detail_004_kani=true&JigyosyoCd=3691800019-00&ServiceCd=730&Type=search", "url2": "http://www.seijyukai.org/" }, "geometry": { "type": "Point", "coordinates": [ 134.029095200000029, 34.0391569 ] } }
]
}
