{
"type": "FeatureCollection",
"name": "geo_36_訪問看護",
"crs": { "type": "name", "properties": { "name": "urn:ogc:def:crs:OGC:1.3:CRS84" } },
"features": [
{ "type": "Feature", "properties": { "内容": "医療法人　徳松会　松永病院【訪問看護】徳島県徳島市南庄町４丁目６３－１", "url": "https://www.kaigokensaku.mhlw.go.jp/36/index.php?action_kouhyou_detail_004_kani=true&JigyosyoCd=3610125423-00&ServiceCd=130&Type=search", "url2": "http://www.matsunaga-hp.jp/facility/hospital/" }, "geometry": { "type": "Point", "coordinates": [ 138.252924, 36.204824 ] } },
{ "type": "Feature", "properties": { "内容": "訪問看護事業所　虹の橋病院【訪問看護】徳島県徳島市中島田町３丁目６０番地１", "url": "https://www.kaigokensaku.mhlw.go.jp/36/index.php?action_kouhyou_detail_004_kani=true&JigyosyoCd=3610125480-00&ServiceCd=130&Type=search", "url2": "http://www.nijinohashi.net/" }, "geometry": { "type": "Point", "coordinates": [ 134.510436429360993, 34.083928997435592 ] } },
{ "type": "Feature", "properties": { "内容": "スウェーデン歯科こくふ【訪問看護】国府町桜間字登々路31番1", "url": "https://www.kaigokensaku.mhlw.go.jp/36/index.php?action_kouhyou_detail_004_kani=true&JigyosyoCd=3630134843-00&ServiceCd=130&Type=search", "url2": "https://sweden-kokufu.net/" }, "geometry": { "type": "Point", "coordinates": [ 134.4642859, 34.0843502 ] } },
{ "type": "Feature", "properties": { "内容": "東洋病院【訪問看護】徳島県徳島市北島田町1丁目160番地2", "url": "https://www.kaigokensaku.mhlw.go.jp/36/index.php?action_kouhyou_detail_004_kani=true&JigyosyoCd=3610125340-00&ServiceCd=130&Type=search", "url2": "http://www.toyohosp.jp/" }, "geometry": { "type": "Point", "coordinates": [ 134.515427126550861, 34.08960219186897 ] } },
{ "type": "Feature", "properties": { "内容": "訪問看護ステーションみつば【訪問看護】八万町上福万２２０番地１３", "url": "https://www.kaigokensaku.mhlw.go.jp/36/index.php?action_kouhyou_detail_004_kani=true&JigyosyoCd=3660190624-00&ServiceCd=130&Type=search", "url2": null }, "geometry": { "type": "Point", "coordinates": [ 134.530734886196171, 34.050310962361543 ] } },
{ "type": "Feature", "properties": { "内容": "医療法人善成会善成病院【訪問看護】徳島県徳島市佐古三番町７番３号", "url": "https://www.kaigokensaku.mhlw.go.jp/36/index.php?action_kouhyou_detail_004_kani=true&JigyosyoCd=3610123709-00&ServiceCd=130&Type=search", "url2": null }, "geometry": { "type": "Point", "coordinates": [ 134.535425900000064, 34.0785659 ] } },
{ "type": "Feature", "properties": { "内容": "訪問看護ステーション　デューン徳島【訪問看護】徳島県徳島市寺島本町西1丁目10番地幸田ビル3階", "url": "https://www.kaigokensaku.mhlw.go.jp/36/index.php?action_kouhyou_detail_004_kani=true&JigyosyoCd=3660190566-00&ServiceCd=130&Type=search", "url2": "http://www.nfield.co.jp" }, "geometry": { "type": "Point", "coordinates": [ 134.5493611, 34.0739718 ] } },
{ "type": "Feature", "properties": { "内容": "川内内科訪問看護【訪問看護】徳島県徳島市国府町和田字原淵67-1", "url": "https://www.kaigokensaku.mhlw.go.jp/36/index.php?action_kouhyou_detail_004_kani=true&JigyosyoCd=3610127791-00&ServiceCd=130&Type=search", "url2": "kawauchi-clinic.jp/" }, "geometry": { "type": "Point", "coordinates": [ 134.50179940000001, 34.0723914 ] } },
{ "type": "Feature", "properties": { "内容": "徳島往診クリニック【訪問看護】徳島県徳島市八万町新貝56番地の28", "url": "https://www.kaigokensaku.mhlw.go.jp/36/index.php?action_kouhyou_detail_004_kani=true&JigyosyoCd=3670105869-00&ServiceCd=130&Type=search", "url2": "http://toku-oushin.jp" }, "geometry": { "type": "Point", "coordinates": [ 134.5220646, 34.0464357 ] } },
{ "type": "Feature", "properties": { "内容": "あいざと蔵本訪問看護ステーション【訪問看護】徳島県徳島市蔵本元町二丁目40-1", "url": "https://www.kaigokensaku.mhlw.go.jp/36/index.php?action_kouhyou_detail_004_kani=true&JigyosyoCd=3660190913-00&ServiceCd=130&Type=search", "url2": null }, "geometry": { "type": "Point", "coordinates": [ 134.5163334, 34.0793145 ] } },
{ "type": "Feature", "properties": { "内容": "医療法人一洋会　訪問看護ステーションさくら【訪問看護】徳島県徳島市下町本丁59-26", "url": "https://www.kaigokensaku.mhlw.go.jp/36/index.php?action_kouhyou_detail_004_kani=true&JigyosyoCd=3660190152-00&ServiceCd=130&Type=search", "url2": "http://ichiyou-kai.com/" }, "geometry": { "type": "Point", "coordinates": [ 134.48750270000005, 34.0369334 ] } },
{ "type": "Feature", "properties": { "内容": "訪問看護ステーション万葉【訪問看護】徳島市八万町上福万220番地の13", "url": "https://www.kaigokensaku.mhlw.go.jp/36/index.php?action_kouhyou_detail_004_kani=true&JigyosyoCd=3660190996-00&ServiceCd=130&Type=search", "url2": null }, "geometry": { "type": "Point", "coordinates": [ 134.5297224, 34.050354 ] } },
{ "type": "Feature", "properties": { "内容": "訪問看護ステーションビオラ【訪問看護】八万町内浜130番地1森住宅C-1", "url": "https://www.kaigokensaku.mhlw.go.jp/36/index.php?action_kouhyou_detail_004_kani=true&JigyosyoCd=3660190889-00&ServiceCd=130&Type=search", "url2": null }, "geometry": { "type": "Point", "coordinates": [ 134.540426599999989, 34.0513372 ] } },
{ "type": "Feature", "properties": { "内容": "合同会社ウィズ訪問看護ステーション【訪問看護】徳島県徳島市北田宮4丁目10-43クレセント103", "url": "https://www.kaigokensaku.mhlw.go.jp/36/index.php?action_kouhyou_detail_004_kani=true&JigyosyoCd=3660190905-00&ServiceCd=130&Type=search", "url2": "https://houmon-with-nurse.com/" }, "geometry": { "type": "Point", "coordinates": [ 134.534671593765268, 34.089259794981842 ] } },
{ "type": "Feature", "properties": { "内容": "訪問看護ステーションイツモスマイルplus【訪問看護】徳島県徳島市北田宮1丁目7-19", "url": "https://www.kaigokensaku.mhlw.go.jp/36/index.php?action_kouhyou_detail_004_kani=true&JigyosyoCd=3660190616-00&ServiceCd=130&Type=search", "url2": "http://itsumosmile.jp/" }, "geometry": { "type": "Point", "coordinates": [ 134.546158645486003, 34.088765824664115 ] } },
{ "type": "Feature", "properties": { "内容": "合同会社ＲＥＬＹ【訪問看護】徳島県徳島市論田町本浦中11-3", "url": "https://www.kaigokensaku.mhlw.go.jp/36/index.php?action_kouhyou_detail_004_kani=true&JigyosyoCd=3660190806-00&ServiceCd=130&Type=search", "url2": "https://www.rely-llc.co.jp/" }, "geometry": { "type": "Point", "coordinates": [ 134.562973699999986, 34.0312171 ] } },
{ "type": "Feature", "properties": { "内容": "訪問看護ステーションこはる常三島【訪問看護】徳島県徳島市助任橋4丁目13-3グランコート常三島　205", "url": "https://www.kaigokensaku.mhlw.go.jp/36/index.php?action_kouhyou_detail_004_kani=true&JigyosyoCd=3660190988-00&ServiceCd=130&Type=search", "url2": "http://www.i-keiai.org/" }, "geometry": { "type": "Point", "coordinates": [ 134.560087, 34.0812257 ] } },
{ "type": "Feature", "properties": { "内容": "訪問看護ステーション　アイナ【訪問看護】徳島県徳島市大原町千代ヶ丸146番地", "url": "https://www.kaigokensaku.mhlw.go.jp/36/index.php?action_kouhyou_detail_004_kani=true&JigyosyoCd=3660390067-00&ServiceCd=130&Type=search", "url2": "http://www.doushisya.jp/" }, "geometry": { "type": "Point", "coordinates": [ 134.568956299999968, 34.0281804 ] } },
{ "type": "Feature", "properties": { "内容": "きりん訪問看護ステーション【訪問看護】徳島県徳島市南庄町２丁目２５-１", "url": "https://www.kaigokensaku.mhlw.go.jp/36/index.php?action_kouhyou_detail_004_kani=true&JigyosyoCd=3660190632-00&ServiceCd=130&Type=search", "url2": null }, "geometry": { "type": "Point", "coordinates": [ 134.511857152895459, 34.071645691199222 ] } },
{ "type": "Feature", "properties": { "内容": "末広訪問看護ステーション【訪問看護】徳島県徳島市南末広町1-12", "url": "https://www.kaigokensaku.mhlw.go.jp/36/index.php?action_kouhyou_detail_004_kani=true&JigyosyoCd=3660190608-00&ServiceCd=130&Type=search", "url2": "https://ichie-kizuna.or.jp/" }, "geometry": { "type": "Point", "coordinates": [ 134.57194549999997, 34.0641211 ] } },
{ "type": "Feature", "properties": { "内容": "訪問看護ステーションピクニック【訪問看護】徳島県徳島市末広１丁目5－10PINO105", "url": "https://www.kaigokensaku.mhlw.go.jp/36/index.php?action_kouhyou_detail_004_kani=true&JigyosyoCd=3660190970-00&ServiceCd=130&Type=search", "url2": "http://pasocala.net" }, "geometry": { "type": "Point", "coordinates": [ 134.5705963, 34.0644534 ] } },
{ "type": "Feature", "properties": { "内容": "訪問看護ステーション　ルーム【訪問看護】徳島県徳島市城東町1丁目8‐16", "url": "https://www.kaigokensaku.mhlw.go.jp/36/index.php?action_kouhyou_detail_004_kani=true&JigyosyoCd=3660190863-00&ServiceCd=130&Type=search", "url2": "info@room-care.org" }, "geometry": { "type": "Point", "coordinates": [ 134.5729749, 34.072208300000014 ] } },
{ "type": "Feature", "properties": { "内容": "かぶしきがいしゃえいど【訪問看護】徳島県徳島市北矢三町3丁目2-70-25", "url": "https://www.kaigokensaku.mhlw.go.jp/36/index.php?action_kouhyou_detail_004_kani=true&JigyosyoCd=3660190434-00&ServiceCd=130&Type=search", "url2": "http://www.kango-izumi.com/" }, "geometry": { "type": "Point", "coordinates": [ 134.521482281208989, 34.086649285049901 ] } },
{ "type": "Feature", "properties": { "内容": "公益社団法人徳島県看護協会訪問看護ステーション徳島【訪問看護】徳島市上助任町蛭子98-76", "url": "https://www.kaigokensaku.mhlw.go.jp/36/index.php?action_kouhyou_detail_004_kani=true&JigyosyoCd=3660190020-00&ServiceCd=130&Type=search", "url2": "www.toku-na.jp/" }, "geometry": { "type": "Point", "coordinates": [ 134.5491409, 34.0912759 ] } },
{ "type": "Feature", "properties": { "内容": "訪問看護ステーション　そよかぜ【訪問看護】徳島県徳島市鮎喰町１丁目58-1203", "url": "https://www.kaigokensaku.mhlw.go.jp/36/index.php?action_kouhyou_detail_004_kani=true&JigyosyoCd=3660191028-00&ServiceCd=130&Type=search", "url2": "https://sei-ryu-kai.or.jp/" }, "geometry": { "type": "Point", "coordinates": [ 134.50274, 34.0721745 ] } },
{ "type": "Feature", "properties": { "内容": "徳島さくらクリニック訪問看護【訪問看護】下町本丁５９－１", "url": "https://www.kaigokensaku.mhlw.go.jp/36/index.php?action_kouhyou_detail_004_kani=true&JigyosyoCd=3670106123-00&ServiceCd=130&Type=search", "url2": "https://ichiyou-kai.com" }, "geometry": { "type": "Point", "coordinates": [ 134.487686799999977, 34.0367844 ] } },
{ "type": "Feature", "properties": { "内容": "えがふる訪問看護ステーション【訪問看護】徳島市北沖洲１丁目2-14ハイエスト201", "url": "https://www.kaigokensaku.mhlw.go.jp/36/index.php?action_kouhyou_detail_004_kani=true&JigyosyoCd=3660190897-00&ServiceCd=130&Type=search", "url2": "htps://www.egafull.com" }, "geometry": { "type": "Point", "coordinates": [ 134.5841922, 34.0678511 ] } },
{ "type": "Feature", "properties": { "内容": "訪問看護ステーション　ＦｏｒＹｏｕ【訪問看護】徳島県徳島市北常三島町1丁目1番地1", "url": "https://www.kaigokensaku.mhlw.go.jp/36/index.php?action_kouhyou_detail_004_kani=true&JigyosyoCd=3660190491-00&ServiceCd=130&Type=search", "url2": "http://www.foryou-kai.co.jp/" }, "geometry": { "type": "Point", "coordinates": [ 134.538760691201787, 34.080711709263475 ] } },
{ "type": "Feature", "properties": { "内容": "訪問看護ステーションこばと【訪問看護】徳島市栄町4丁目10番地", "url": "https://www.kaigokensaku.mhlw.go.jp/36/index.php?action_kouhyou_detail_004_kani=true&JigyosyoCd=3660190350-00&ServiceCd=130&Type=search", "url2": null }, "geometry": { "type": "Point", "coordinates": [ 134.548805499999958, 34.0620153 ] } },
{ "type": "Feature", "properties": { "内容": "ツクイ徳島訪問看護ステーション【訪問看護】八百屋町２丁目7徳島センタービル４階", "url": "https://www.kaigokensaku.mhlw.go.jp/36/index.php?action_kouhyou_detail_004_kani=true&JigyosyoCd=3660191002-00&ServiceCd=130&Type=search", "url2": null }, "geometry": { "type": "Point", "coordinates": [ 134.5520467, 34.0716192 ] } },
{ "type": "Feature", "properties": { "内容": "訪問看護リハビリステーションたすき【訪問看護】末広1丁目5-11Pino205号", "url": "https://www.kaigokensaku.mhlw.go.jp/36/index.php?action_kouhyou_detail_004_kani=true&JigyosyoCd=3660190830-00&ServiceCd=130&Type=search", "url2": "http://hp.kaipoke.biz/shd/" }, "geometry": { "type": "Point", "coordinates": [ 134.570820288623793, 34.064724526917423 ] } },
{ "type": "Feature", "properties": { "内容": "訪問看護ステーションすみれ【訪問看護】北田宮二丁目７番３９号アルカディア１０２", "url": "https://www.kaigokensaku.mhlw.go.jp/36/index.php?action_kouhyou_detail_004_kani=true&JigyosyoCd=3660191101-00&ServiceCd=130&Type=search", "url2": "https://wb-sumire.com/" }, "geometry": { "type": "Point", "coordinates": [ 134.5442366, 34.0897289 ] } },
{ "type": "Feature", "properties": { "内容": "なずな訪問看護ステーション【訪問看護】徳島県徳島市山城町西浜傍示161-2シティメゾンフェニックス103号", "url": "https://www.kaigokensaku.mhlw.go.jp/36/index.php?action_kouhyou_detail_004_kani=true&JigyosyoCd=3660190749-00&ServiceCd=130&Type=search", "url2": null }, "geometry": { "type": "Point", "coordinates": [ 134.55877043855125, 34.051285246928074 ] } },
{ "type": "Feature", "properties": { "内容": "訪問ステーションてとてと徳島【訪問看護】徳島県徳島市通町一丁目6", "url": "https://www.kaigokensaku.mhlw.go.jp/36/index.php?action_kouhyou_detail_004_kani=true&JigyosyoCd=3660190657-00&ServiceCd=130&Type=search", "url2": "http://tetote.to/" }, "geometry": { "type": "Point", "coordinates": [ 134.553679083432399, 34.070711117995934 ] } },
{ "type": "Feature", "properties": { "内容": "かもな桜公園クリニック訪問看護【訪問看護】徳島県徳島市鮎喰町2丁目95番1", "url": "https://www.kaigokensaku.mhlw.go.jp/36/index.php?action_kouhyou_detail_004_kani=true&JigyosyoCd=3610127965-00&ServiceCd=130&Type=search", "url2": "https://kamona-sakurakouen-clinic.jp/" }, "geometry": { "type": "Point", "coordinates": [ 134.5018025, 34.0723663 ] } },
{ "type": "Feature", "properties": { "内容": "鈴江病院【訪問看護】徳島県徳島市佐古8番町4-22", "url": "https://www.kaigokensaku.mhlw.go.jp/36/index.php?action_kouhyou_detail_004_kani=true&JigyosyoCd=3610123568-00&ServiceCd=130&Type=search", "url2": null }, "geometry": { "type": "Point", "coordinates": [ 134.522479200000021, 34.0772557 ] } },
{ "type": "Feature", "properties": { "内容": "株式会社りんご　浅香リハビリ訪問看護ステーション【訪問看護】徳島県徳島市新浜本町３丁目６-３８-１４", "url": "https://www.kaigokensaku.mhlw.go.jp/36/index.php?action_kouhyou_detail_004_kani=true&JigyosyoCd=3660190517-00&ServiceCd=130&Type=search", "url2": null }, "geometry": { "type": "Point", "coordinates": [ 134.566412, 34.0467199 ] } },
{ "type": "Feature", "properties": { "内容": "訪問看護ステーションりぶら【訪問看護】徳島県徳島市北田宮一丁目7-24山中ビルJ号室", "url": "https://www.kaigokensaku.mhlw.go.jp/36/index.php?action_kouhyou_detail_004_kani=true&JigyosyoCd=3660190665-00&ServiceCd=130&Type=search", "url2": "https://www.libra-co.jp" }, "geometry": { "type": "Point", "coordinates": [ 134.545540199999976, 34.0893227 ] } },
{ "type": "Feature", "properties": { "内容": "訪問看護ステーションとみだ【訪問看護】徳島県徳島市中昭和町2丁目94", "url": "https://www.kaigokensaku.mhlw.go.jp/36/index.php?action_kouhyou_detail_004_kani=true&JigyosyoCd=3660190053-00&ServiceCd=130&Type=search", "url2": "http://hayashikai.or.jp/kaigo/" }, "geometry": { "type": "Point", "coordinates": [ 134.558607400000028, 34.0617405 ] } },
{ "type": "Feature", "properties": { "内容": "リバーサイドのぞみ病院訪問看護事業部【訪問看護】徳島県徳島市中徳島町2丁目97-1", "url": "https://www.kaigokensaku.mhlw.go.jp/36/index.php?action_kouhyou_detail_004_kani=true&JigyosyoCd=3610125407-00&ServiceCd=130&Type=search", "url2": "http://www.nozomihp.com/" }, "geometry": { "type": "Point", "coordinates": [ 134.558907200000021, 34.0760363 ] } },
{ "type": "Feature", "properties": { "内容": "訪問看護ステーションきょうりつ【訪問看護】徳島県徳島市八万町寺山１３番地２", "url": "https://www.kaigokensaku.mhlw.go.jp/36/index.php?action_kouhyou_detail_004_kani=true&JigyosyoCd=3660190939-00&ServiceCd=130&Type=search", "url2": "http://kyoritsuhp.or.jp" }, "geometry": { "type": "Point", "coordinates": [ 134.521274, 34.0430921 ] } },
{ "type": "Feature", "properties": { "内容": "訪問看護ステーション　きずな【訪問看護】丈六町小谷46番地1", "url": "https://www.kaigokensaku.mhlw.go.jp/36/index.php?action_kouhyou_detail_004_kani=true&JigyosyoCd=3660190947-00&ServiceCd=130&Type=search", "url2": "https://www.jonanh.com/kizuna/" }, "geometry": { "type": "Point", "coordinates": [ 134.547732951774464, 34.014157839689254 ] } },
{ "type": "Feature", "properties": { "内容": "訪問看護ステーション　れんげ草【訪問看護】徳島県徳島市南庄町1丁目16番3", "url": "https://www.kaigokensaku.mhlw.go.jp/36/index.php?action_kouhyou_detail_004_kani=true&JigyosyoCd=3660190582-00&ServiceCd=130&Type=search", "url2": "http://kseo9953.wixsite.com/mysite" }, "geometry": { "type": "Point", "coordinates": [ 134.51608155922716, 34.0723522368923 ] } },
{ "type": "Feature", "properties": { "内容": "訪問看護ステーション　cuddle【訪問看護】名東町2丁目235-1", "url": "https://www.kaigokensaku.mhlw.go.jp/36/index.php?action_kouhyou_detail_004_kani=true&JigyosyoCd=3660190814-00&ServiceCd=130&Type=search", "url2": "https://cuddle-nurse.com" }, "geometry": { "type": "Point", "coordinates": [ 134.496507352903507, 34.061373373840183 ] } },
{ "type": "Feature", "properties": { "内容": "中洲八木病院訪問看護ステーション【訪問看護】徳島県徳島市中洲町1丁目30番地", "url": "https://www.kaigokensaku.mhlw.go.jp/36/index.php?action_kouhyou_detail_004_kani=true&JigyosyoCd=3660190681-00&ServiceCd=130&Type=search", "url2": "https://yagihospital.com" }, "geometry": { "type": "Point", "coordinates": [ 134.558088199999986, 34.0681784 ] } },
{ "type": "Feature", "properties": { "内容": "訪問看護ステーションあいか【訪問看護】徳島県徳島市沖浜町2丁目12番地SARA林Ⅳ２０２号", "url": "https://www.kaigokensaku.mhlw.go.jp/36/index.php?action_kouhyou_detail_004_kani=true&JigyosyoCd=3660190442-00&ServiceCd=130&Type=search", "url2": null }, "geometry": { "type": "Point", "coordinates": [ 134.552212303457623, 34.052399927503728 ] } },
{ "type": "Feature", "properties": { "内容": "どりーまぁ訪問看護ステーション【訪問看護】徳島県徳島市北沖洲4丁目14番38", "url": "https://www.kaigokensaku.mhlw.go.jp/36/index.php?action_kouhyou_detail_004_kani=true&JigyosyoCd=3660190228-00&ServiceCd=130&Type=search", "url2": "http//dreamer-service.org" }, "geometry": { "type": "Point", "coordinates": [ 134.596615, 34.071497900000018 ] } },
{ "type": "Feature", "properties": { "内容": "ゆずりは訪問看護ステーション【訪問看護】徳島県徳島市北矢三町3丁目2－85", "url": "https://www.kaigokensaku.mhlw.go.jp/36/index.php?action_kouhyou_detail_004_kani=true&JigyosyoCd=3660191119-00&ServiceCd=130&Type=search", "url2": "https://yuzu-reha.jp/visiting-nursing/" }, "geometry": { "type": "Point", "coordinates": [ 134.520591200000013, 34.0850167 ] } },
{ "type": "Feature", "properties": { "内容": "訪問看護ステーションイツモスマイル【訪問看護】徳島県徳島市佐古二番町5番11号", "url": "https://www.kaigokensaku.mhlw.go.jp/36/index.php?action_kouhyou_detail_004_kani=true&JigyosyoCd=3660190533-00&ServiceCd=130&Type=search", "url2": "http://itsumosmile.jp/" }, "geometry": { "type": "Point", "coordinates": [ 134.53847559999997, 34.0771967 ] } },
{ "type": "Feature", "properties": { "内容": "セントケア訪問看護ステーション徳島【訪問看護】徳島市山城西3丁目20", "url": "https://www.kaigokensaku.mhlw.go.jp/36/index.php?action_kouhyou_detail_004_kani=true&JigyosyoCd=3660190467-00&ServiceCd=130&Type=search", "url2": "http://www.saint-care.com/" }, "geometry": { "type": "Point", "coordinates": [ 134.55486058079029, 34.049215863764296 ] } },
{ "type": "Feature", "properties": { "内容": "いちご訪問看護ステーション【訪問看護】徳島県徳島市徳島町2-55-2", "url": "https://www.kaigokensaku.mhlw.go.jp/36/index.php?action_kouhyou_detail_004_kani=true&JigyosyoCd=3660190095-00&ServiceCd=130&Type=search", "url2": null }, "geometry": { "type": "Point", "coordinates": [ 134.558204499999988, 34.0738782 ] } },
{ "type": "Feature", "properties": { "内容": "八木クリニック　訪問看護【訪問看護】徳島県徳島市大松町榎原外50-1ジラソーレ大松", "url": "https://www.kaigokensaku.mhlw.go.jp/36/index.php?action_kouhyou_detail_004_kani=true&JigyosyoCd=3610127122-00&ServiceCd=130&Type=search", "url2": "http://himawari-gi.com" }, "geometry": { "type": "Point", "coordinates": [ 134.555858645496301, 34.024750978102368 ] } },
{ "type": "Feature", "properties": { "内容": "近藤内科病院【訪問看護】徳島県徳島市西新浜町１丁目６番２５号", "url": "https://www.kaigokensaku.mhlw.go.jp/36/index.php?action_kouhyou_detail_004_kani=true&JigyosyoCd=3610125399-00&ServiceCd=130&Type=search", "url2": "http://www.kondo-hp.com/" }, "geometry": { "type": "Point", "coordinates": [ 134.557721300000026, 34.0437366 ] } },
{ "type": "Feature", "properties": { "内容": "徳島市医師会訪問看護ステーション【訪問看護】徳島県徳島市幸町3丁目77番地徳島市医師会館３階", "url": "https://www.kaigokensaku.mhlw.go.jp/36/index.php?action_kouhyou_detail_004_kani=true&JigyosyoCd=3660190004-00&ServiceCd=130&Type=search", "url2": "http://www.tokushima-med.or.jp" }, "geometry": { "type": "Point", "coordinates": [ 134.555905654244953, 34.068828119265447 ] } },
{ "type": "Feature", "properties": { "内容": "えん訪問看護ステーション徳島【訪問看護】徳島県徳島市佐古七番町3-25", "url": "https://www.kaigokensaku.mhlw.go.jp/36/index.php?action_kouhyou_detail_004_kani=true&JigyosyoCd=3660191051-00&ServiceCd=130&Type=search", "url2": "https://en-houkan.com/" }, "geometry": { "type": "Point", "coordinates": [ 134.5238588, 34.0778674 ] } },
{ "type": "Feature", "properties": { "内容": "リボン訪問看護ステーション【訪問看護】徳島県徳島市東吉野町2-31-2グランフロント東吉野301", "url": "https://www.kaigokensaku.mhlw.go.jp/36/index.php?action_kouhyou_detail_004_kani=true&JigyosyoCd=3660190764-00&ServiceCd=130&Type=search", "url2": "https://ribon.tokushima.jp/" }, "geometry": { "type": "Point", "coordinates": [ 134.563472342417782, 34.083852518333096 ] } },
{ "type": "Feature", "properties": { "内容": "訪問看護ステーションゆめ【訪問看護】徳島市名東町１丁目99-2", "url": "https://www.kaigokensaku.mhlw.go.jp/36/index.php?action_kouhyou_detail_004_kani=true&JigyosyoCd=3660190541-00&ServiceCd=130&Type=search", "url2": "https;//minnanoouti-mtk.com" }, "geometry": { "type": "Point", "coordinates": [ 138.252924, 36.204824 ] } },
{ "type": "Feature", "properties": { "内容": "訪問看護ステーションそら【訪問看護】徳島県徳島市名東町３丁目２３２－２６", "url": "https://www.kaigokensaku.mhlw.go.jp/36/index.php?action_kouhyou_detail_004_kani=true&JigyosyoCd=3660190251-00&ServiceCd=130&Type=search", "url2": "https://www.sora-hari.jp/domiciliary_care/" }, "geometry": { "type": "Point", "coordinates": [ 134.492832799999974, 34.056184 ] } },
{ "type": "Feature", "properties": { "内容": "なないろ訪問看護ステーション【訪問看護】徳島県徳島市津田町三丁目6番12-1号", "url": "https://www.kaigokensaku.mhlw.go.jp/36/index.php?action_kouhyou_detail_004_kani=true&JigyosyoCd=3660190673-00&ServiceCd=130&Type=search", "url2": "https://nanaironsst.com/" }, "geometry": { "type": "Point", "coordinates": [ 134.581741702715732, 34.047294570810898 ] } },
{ "type": "Feature", "properties": { "内容": "ベリー訪問看護ステーション【訪問看護】徳島県徳島市川内町大松８９１－５島谷ハイツ", "url": "https://www.kaigokensaku.mhlw.go.jp/36/index.php?action_kouhyou_detail_004_kani=true&JigyosyoCd=3660190921-00&ServiceCd=130&Type=search", "url2": "https://www.belly-vns.com" }, "geometry": { "type": "Point", "coordinates": [ 134.5719105, 34.1234678 ] } },
{ "type": "Feature", "properties": { "内容": "訪問看護ステーションけやき【訪問看護】徳島県徳島市昭和町6丁目31本谷事務所6号室", "url": "https://www.kaigokensaku.mhlw.go.jp/36/index.php?action_kouhyou_detail_004_kani=true&JigyosyoCd=3660191036-00&ServiceCd=130&Type=search", "url2": null }, "geometry": { "type": "Point", "coordinates": [ 134.566558426493486, 34.060586455968817 ] } },
{ "type": "Feature", "properties": { "内容": "とくしま健生訪問看護ステーション【訪問看護】徳島県徳島市下助任町4丁目9", "url": "https://www.kaigokensaku.mhlw.go.jp/36/index.php?action_kouhyou_detail_004_kani=true&JigyosyoCd=3660190046-00&ServiceCd=130&Type=search", "url2": "http://www2.tcn.ne.jp/~hcoopt/" }, "geometry": { "type": "Point", "coordinates": [ 134.548911053479173, 34.082760718991551 ] } },
{ "type": "Feature", "properties": { "内容": "カメリア訪問看護ステーション【訪問看護】徳島県徳島市昭和町8丁目48-30", "url": "https://www.kaigokensaku.mhlw.go.jp/36/index.php?action_kouhyou_detail_004_kani=true&JigyosyoCd=3660190590-00&ServiceCd=130&Type=search", "url2": "http://ichie-kizuna.or.jp/" }, "geometry": { "type": "Point", "coordinates": [ 134.56964812579497, 34.056867037414619 ] } },
{ "type": "Feature", "properties": { "内容": "医療法人慈成会寺沢病院【訪問看護】徳島県徳島市津田西町一丁目2番30号", "url": "https://www.kaigokensaku.mhlw.go.jp/36/index.php?action_kouhyou_detail_004_kani=true&JigyosyoCd=3610123675-00&ServiceCd=130&Type=search", "url2": "http://www.terasawa.or.jp/" }, "geometry": { "type": "Point", "coordinates": [ 134.5768167, 34.0520958 ] } },
{ "type": "Feature", "properties": { "内容": "徳島往診クリニック【訪問看護】徳島県徳島市沖浜東２丁目17番地", "url": "https://www.kaigokensaku.mhlw.go.jp/36/index.php?action_kouhyou_detail_004_kani=true&JigyosyoCd=3610127957-00&ServiceCd=130&Type=search", "url2": null }, "geometry": { "type": "Point", "coordinates": [ 134.5541332, 34.053059 ] } },
{ "type": "Feature", "properties": { "内容": "たまき青空訪問看護ステーション【訪問看護】徳島県徳島市国府町早淵字池久保35-1", "url": "https://www.kaigokensaku.mhlw.go.jp/36/index.php?action_kouhyou_detail_004_kani=true&JigyosyoCd=3660190079-00&ServiceCd=130&Type=search", "url2": "https://tamaki-aozora.ne.jp" }, "geometry": { "type": "Point", "coordinates": [ 134.487161700802659, 34.07207788043042 ] } },
{ "type": "Feature", "properties": { "内容": "アメイン訪問看護ステーション【訪問看護】蔵本町2丁目20宮城ビル205号室", "url": "https://www.kaigokensaku.mhlw.go.jp/36/index.php?action_kouhyou_detail_004_kani=true&JigyosyoCd=3660191085-00&ServiceCd=130&Type=search", "url2": null }, "geometry": { "type": "Point", "coordinates": [ 134.5191017, 34.0775137 ] } },
{ "type": "Feature", "properties": { "内容": "訪問看護ステーションハナコトバ【訪問看護】徳島県徳島市山城町東浜傍示19-2", "url": "https://www.kaigokensaku.mhlw.go.jp/36/index.php?action_kouhyou_detail_004_kani=true&JigyosyoCd=3660190756-00&ServiceCd=130&Type=search", "url2": "huit88.com" }, "geometry": { "type": "Point", "coordinates": [ 134.558371199999982, 34.0496785 ] } },
{ "type": "Feature", "properties": { "内容": "訪問看護ステーション　はーと【訪問看護】徳島県徳島市国府町観音寺２４１番地の4", "url": "https://www.kaigokensaku.mhlw.go.jp/36/index.php?action_kouhyou_detail_004_kani=true&JigyosyoCd=3660190574-00&ServiceCd=130&Type=search", "url2": "http://www.confidence-care.co.jp/" }, "geometry": { "type": "Point", "coordinates": [ 134.471806900000047, 34.071857 ] } },
{ "type": "Feature", "properties": { "内容": "みんなのかかりつけ訪問看護ステーション徳島【訪問看護】徳島県徳島市出来島本町2丁目４２番地１０", "url": "https://www.kaigokensaku.mhlw.go.jp/36/index.php?action_kouhyou_detail_004_kani=true&JigyosyoCd=3660190962-00&ServiceCd=130&Type=search", "url2": "https://kakaritsuke.co.jp/" }, "geometry": { "type": "Point", "coordinates": [ 134.545480709821675, 34.078842359848458 ] } },
{ "type": "Feature", "properties": { "内容": "訪問看護ステーション秋桜【訪問看護】徳島県徳島市金沢2丁目5-76", "url": "https://www.kaigokensaku.mhlw.go.jp/36/index.php?action_kouhyou_detail_004_kani=true&JigyosyoCd=3660190871-00&ServiceCd=130&Type=search", "url2": null }, "geometry": { "type": "Point", "coordinates": [ 134.585817, 34.0747668 ] } },
{ "type": "Feature", "properties": { "内容": "大神子訪問看護ステーション【訪問看護】徳島市大原町余慶７１－２", "url": "https://www.kaigokensaku.mhlw.go.jp/36/index.php?action_kouhyou_detail_004_kani=true&JigyosyoCd=3660190012-00&ServiceCd=130&Type=search", "url2": "oomiko-houmonkango@sudachikai.jp" }, "geometry": { "type": "Point", "coordinates": [ 134.575534850587474, 34.028270554382743 ] } },
{ "type": "Feature", "properties": { "内容": "川島病院　訪問看護【訪問看護】徳島県徳島市北佐古一番町６番１号社会医療法人川島会川島病院", "url": "https://www.kaigokensaku.mhlw.go.jp/36/index.php?action_kouhyou_detail_004_kani=true&JigyosyoCd=3610127684-00&ServiceCd=130&Type=search", "url2": "http://khg.or.jp/" }, "geometry": { "type": "Point", "coordinates": [ 134.540236173680114, 34.081080393229975 ] } },
{ "type": "Feature", "properties": { "内容": "訪問看護ステーション心愛【訪問看護】徳島県徳島市南昭和町５丁目６８－２昭和マンションB-25", "url": "https://www.kaigokensaku.mhlw.go.jp/36/index.php?action_kouhyou_detail_004_kani=true&JigyosyoCd=3670106289-00&ServiceCd=130&Type=search", "url2": null }, "geometry": { "type": "Point", "coordinates": [ 134.5625169, 34.0557752 ] } },
{ "type": "Feature", "properties": { "内容": "ホームケアべんり堂訪問看護ステーション【訪問看護】徳島県徳島市北矢三町1丁目1-15ホームケアべんり堂ビル", "url": "https://www.kaigokensaku.mhlw.go.jp/36/index.php?action_kouhyou_detail_004_kani=true&JigyosyoCd=3660190244-00&ServiceCd=130&Type=search", "url2": "http://www.benrido.net" }, "geometry": { "type": "Point", "coordinates": [ 134.52891790000001, 34.0864814 ] } },
{ "type": "Feature", "properties": { "内容": "訪問看護ステーションあらた．【訪問看護】徳島市名東町１丁目３３１キューブ名方C", "url": "https://www.kaigokensaku.mhlw.go.jp/36/index.php?action_kouhyou_detail_004_kani=true&JigyosyoCd=3660191069-00&ServiceCd=130&Type=search", "url2": "http://www.2piece.co.jp/" }, "geometry": { "type": "Point", "coordinates": [ 134.502865303041062, 34.06091708819195 ] } },
{ "type": "Feature", "properties": { "内容": "訪問看護ステーションKanoa【訪問看護】徳島県徳島市中前川町4丁目8-1", "url": "https://www.kaigokensaku.mhlw.go.jp/36/index.php?action_kouhyou_detail_004_kani=true&JigyosyoCd=3660190848-00&ServiceCd=130&Type=search", "url2": "https://ohana0323.com" }, "geometry": { "type": "Point", "coordinates": [ 134.549105145113487, 34.079871747700103 ] } },
{ "type": "Feature", "properties": { "内容": "訪問看護ステーションえくせれんと【訪問看護】南昭和町1丁目35-1", "url": "https://www.kaigokensaku.mhlw.go.jp/36/index.php?action_kouhyou_detail_004_kani=true&JigyosyoCd=3660191093-00&ServiceCd=130&Type=search", "url2": "https://www.excare.co.jp/facility/06/thoukan/" }, "geometry": { "type": "Point", "coordinates": [ 134.5550073, 34.057346 ] } },
{ "type": "Feature", "properties": { "内容": "TAOKA訪問看護ステーション山手【訪問看護】東山手町1丁目5", "url": "https://www.kaigokensaku.mhlw.go.jp/36/index.php?action_kouhyou_detail_004_kani=true&JigyosyoCd=3660190459-00&ServiceCd=130&Type=search", "url2": "https://taoka-msw.jp/taoka/" }, "geometry": { "type": "Point", "coordinates": [ 134.54573767843479, 34.069760572975106 ] } },
{ "type": "Feature", "properties": { "内容": "TAOKA訪問看護ステーション万代【訪問看護】万代町4丁目2－2", "url": "https://www.kaigokensaku.mhlw.go.jp/36/index.php?action_kouhyou_detail_004_kani=true&JigyosyoCd=3660190954-00&ServiceCd=130&Type=search", "url2": "https://taoka-zaitaku.jp/facility/taoka-vn/" }, "geometry": { "type": "Point", "coordinates": [ 134.56356790000001, 34.0656266 ] } },
{ "type": "Feature", "properties": { "内容": "鳴門市医師会訪問看護ステーション【訪問看護】徳島県鳴門市撫養町南浜字東浜435", "url": "https://www.kaigokensaku.mhlw.go.jp/36/index.php?action_kouhyou_detail_004_kani=true&JigyosyoCd=3660290036-00&ServiceCd=130&Type=search", "url2": "http://naruto-med.or.jp/web/" }, "geometry": { "type": "Point", "coordinates": [ 134.607949800000029, 34.1741982 ] } },
{ "type": "Feature", "properties": { "内容": "やまかみ訪問看護ステーション【訪問看護】徳島県鳴門市鳴門町土佐泊浦字高砂205番地29", "url": "https://www.kaigokensaku.mhlw.go.jp/36/index.php?action_kouhyou_detail_004_kani=true&JigyosyoCd=3660290010-00&ServiceCd=130&Type=search", "url2": "https://kyujinkai-mc.or.jp" }, "geometry": { "type": "Point", "coordinates": [ 134.625550100000027, 34.2056747 ] } },
{ "type": "Feature", "properties": { "内容": "訪問看護ステーション・暁【訪問看護】徳島県鳴門市撫養町立岩元地297タニグチハイツ106", "url": "https://www.kaigokensaku.mhlw.go.jp/36/index.php?action_kouhyou_detail_004_kani=true&JigyosyoCd=3660190509-00&ServiceCd=130&Type=search", "url2": "http://hazimeakatsuki.co.jp" }, "geometry": { "type": "Point", "coordinates": [ 134.618773726160072, 34.174587482113672 ] } },
{ "type": "Feature", "properties": { "内容": "訪問看護ステーション優衣【訪問看護】徳島県鳴門市撫養町斎田字西発11番地2", "url": "https://www.kaigokensaku.mhlw.go.jp/36/index.php?action_kouhyou_detail_004_kani=true&JigyosyoCd=3661590152-00&ServiceCd=130&Type=search", "url2": null }, "geometry": { "type": "Point", "coordinates": [ 134.602729470790109, 34.172458438861163 ] } },
{ "type": "Feature", "properties": { "内容": "訪問看護ステーション未来【訪問看護】徳島県鳴門市撫養町木津829番地10", "url": "https://www.kaigokensaku.mhlw.go.jp/36/index.php?action_kouhyou_detail_004_kani=true&JigyosyoCd=3660290077-00&ServiceCd=130&Type=search", "url2": "http://daikokuya-care.com/mirai/index.html" }, "geometry": { "type": "Point", "coordinates": [ 134.581048913491827, 34.167439500763592 ] } },
{ "type": "Feature", "properties": { "内容": "ナースサポートゆとり【訪問看護】徳島県鳴門市鳴門町高島字南463番地", "url": "https://www.kaigokensaku.mhlw.go.jp/36/index.php?action_kouhyou_detail_004_kani=true&JigyosyoCd=3660290093-00&ServiceCd=130&Type=search", "url2": null }, "geometry": { "type": "Point", "coordinates": [ 134.597028723392498, 34.202606389013141 ] } },
{ "type": "Feature", "properties": { "内容": "訪問看護ステーションてんま【訪問看護】徳島県小松島市中田町字狭間47番地", "url": "https://www.kaigokensaku.mhlw.go.jp/36/index.php?action_kouhyou_detail_004_kani=true&JigyosyoCd=3660390109-00&ServiceCd=130&Type=search", "url2": "https://tenma-hpg.com/clinic/visiting-nursing-station-tenma/" }, "geometry": { "type": "Point", "coordinates": [ 134.5705882, 34.0150962 ] } },
{ "type": "Feature", "properties": { "内容": "訪問看護ステーション　はなみずき【訪問看護】徳島県小松島市中田町字新開58番地ケアハウスロイヤルローズガーデン", "url": "https://www.kaigokensaku.mhlw.go.jp/36/index.php?action_kouhyou_detail_004_kani=true&JigyosyoCd=3660390059-00&ServiceCd=130&Type=search", "url2": "http://ｗｗｗ13.ｐｌａｌａ．ｏｒ．ｊｐ/ｒｏｙａｌ－ｈｐ" }, "geometry": { "type": "Point", "coordinates": [ 134.582512522090184, 34.013768700000121 ] } },
{ "type": "Feature", "properties": { "内容": "南部訪問看護ステーション【訪問看護】徳島県小松島市大林町字北浦20番地１平成在宅総合支援センター", "url": "https://www.kaigokensaku.mhlw.go.jp/36/index.php?action_kouhyou_detail_004_kani=true&JigyosyoCd=3660390091-00&ServiceCd=130&Type=search", "url2": null }, "geometry": { "type": "Point", "coordinates": [ 134.61968909999996, 33.976365500000014 ] } },
{ "type": "Feature", "properties": { "内容": "医療法人　敬和会【訪問看護】徳島県小松島市坂野町字平田１８番地の2", "url": "https://www.kaigokensaku.mhlw.go.jp/36/index.php?action_kouhyou_detail_004_kani=true&JigyosyoCd=3660390018-00&ServiceCd=130&Type=search", "url2": "http://fujino.ezdns.jp" }, "geometry": { "type": "Point", "coordinates": [ 134.633095799999978, 33.9808063 ] } },
{ "type": "Feature", "properties": { "内容": "訪問看護ステーションライフナース【訪問看護】徳島県小松島市赤石町１４番２７号", "url": "https://www.kaigokensaku.mhlw.go.jp/36/index.php?action_kouhyou_detail_004_kani=true&JigyosyoCd=3660390000-00&ServiceCd=130&Type=search", "url2": null }, "geometry": { "type": "Point", "coordinates": [ 134.61103490000005, 33.9793151 ] } },
{ "type": "Feature", "properties": { "内容": "合同会社麦わら訪問看護ステーション【訪問看護】上福井西ノ口61-1スリーブ1　103号室", "url": "https://www.kaigokensaku.mhlw.go.jp/36/index.php?action_kouhyou_detail_004_kani=true&JigyosyoCd=3660490099-00&ServiceCd=130&Type=search", "url2": null }, "geometry": { "type": "Point", "coordinates": [ 134.66694, 33.9493312 ] } },
{ "type": "Feature", "properties": { "内容": "訪問看護ステーション　コスモス【訪問看護】徳島県阿南市羽ノ浦町中ノ庄池ノ上55-1", "url": "https://www.kaigokensaku.mhlw.go.jp/36/index.php?action_kouhyou_detail_004_kani=true&JigyosyoCd=3661390033-00&ServiceCd=130&Type=search", "url2": "http://royal-carecenter.main.jp/" }, "geometry": { "type": "Point", "coordinates": [ 134.636626799999988, 33.9569647 ] } },
{ "type": "Feature", "properties": { "内容": "公益社団法人徳島県看護協会訪問看護ステーション阿南【訪問看護】徳島県阿南市富岡町北通33番地1阿南ひまわり会館内", "url": "https://www.kaigokensaku.mhlw.go.jp/36/index.php?action_kouhyou_detail_004_kani=true&JigyosyoCd=3660490024-00&ServiceCd=130&Type=search", "url2": "http://www.toku-na.jp" }, "geometry": { "type": "Point", "coordinates": [ 134.662658161185504, 33.921381367398105 ] } },
{ "type": "Feature", "properties": { "内容": "訪問看護ステーション　ナイチンゲール【訪問看護】徳島県阿南市見能林町南林396訪問看護ステーション　ナイチンゲール", "url": "https://www.kaigokensaku.mhlw.go.jp/36/index.php?action_kouhyou_detail_004_kani=true&JigyosyoCd=3660490073-00&ServiceCd=130&Type=search", "url2": "http.//www.suishoukai.jp" }, "geometry": { "type": "Point", "coordinates": [ 134.678316399999972, 33.89148 ] } },
{ "type": "Feature", "properties": { "内容": "ひまわり訪問看護ステーション【訪問看護】徳島県阿南市新野町信里6番地1", "url": "https://www.kaigokensaku.mhlw.go.jp/36/index.php?action_kouhyou_detail_004_kani=true&JigyosyoCd=3660490016-00&ServiceCd=130&Type=search", "url2": null }, "geometry": { "type": "Point", "coordinates": [ 134.59954730000004, 33.8469681 ] } },
{ "type": "Feature", "properties": { "内容": "セントケア訪問看護ステーション阿南【訪問看護】徳島県阿南市津乃峰町東分100‐7", "url": "https://www.kaigokensaku.mhlw.go.jp/36/index.php?action_kouhyou_detail_004_kani=true&JigyosyoCd=3660490107-00&ServiceCd=130&Type=search", "url2": "http://www.saint-care.com/" }, "geometry": { "type": "Point", "coordinates": [ 134.6520797, 33.8869676 ] } },
{ "type": "Feature", "properties": { "内容": "らいずリハビリ訪問看護ステーション【訪問看護】徳島県阿南市富岡町玉塚67-1", "url": "https://www.kaigokensaku.mhlw.go.jp/36/index.php?action_kouhyou_detail_004_kani=true&JigyosyoCd=3660490065-00&ServiceCd=130&Type=search", "url2": null }, "geometry": { "type": "Point", "coordinates": [ 134.656432699999982, 33.9182456 ] } },
{ "type": "Feature", "properties": { "内容": "なないろなんぶ訪問看護ステーション【訪問看護】徳島県阿南市羽ノ浦町中庄中屋21-12", "url": "https://www.kaigokensaku.mhlw.go.jp/36/index.php?action_kouhyou_detail_004_kani=true&JigyosyoCd=3660490115-00&ServiceCd=130&Type=search", "url2": null }, "geometry": { "type": "Point", "coordinates": [ 134.623123, 33.9519491 ] } },
{ "type": "Feature", "properties": { "内容": "JA徳島厚生連訪問看護ステーション共栄【訪問看護】徳島県阿南市宝田町川原６番地１", "url": "https://www.kaigokensaku.mhlw.go.jp/36/index.php?action_kouhyou_detail_004_kani=true&JigyosyoCd=3661390017-00&ServiceCd=130&Type=search", "url2": "houmonkango@ananmc.jp" }, "geometry": { "type": "Point", "coordinates": [ 134.6457419, 33.9241476 ] } },
{ "type": "Feature", "properties": { "内容": "訪問看護ステーション　大樹【訪問看護】徳島県吉野川市鴨島町麻植塚112-5", "url": "https://www.kaigokensaku.mhlw.go.jp/36/index.php?action_kouhyou_detail_004_kani=true&JigyosyoCd=3661790075-00&ServiceCd=130&Type=search", "url2": null }, "geometry": { "type": "Point", "coordinates": [ 134.3803737, 34.0715438 ] } },
{ "type": "Feature", "properties": { "内容": "あいざと山川訪問看護ステーション【訪問看護】徳島県吉野川市山川町湯立245-1", "url": "https://www.kaigokensaku.mhlw.go.jp/36/index.php?action_kouhyou_detail_004_kani=true&JigyosyoCd=3661790109-00&ServiceCd=130&Type=search", "url2": null }, "geometry": { "type": "Point", "coordinates": [ 134.234224, 34.0563037 ] } },
{ "type": "Feature", "properties": { "内容": "セントケア四国株式会社　セントケア訪問看護ステーション吉野川【訪問看護】徳島県吉野川市川島町三ツ島北新田482", "url": "https://www.kaigokensaku.mhlw.go.jp/36/index.php?action_kouhyou_detail_004_kani=true&JigyosyoCd=3661790091-00&ServiceCd=130&Type=search", "url2": "https://www.saint-care.com/" }, "geometry": { "type": "Point", "coordinates": [ 134.2816507, 34.063608 ] } },
{ "type": "Feature", "properties": { "内容": "訪問看護ステーション　リハビリ俱楽部【訪問看護】徳島県吉野川市川島町桑村2301-2コーポ玉水", "url": "https://www.kaigokensaku.mhlw.go.jp/36/index.php?action_kouhyou_detail_004_kani=true&JigyosyoCd=3661790034-00&ServiceCd=130&Type=search", "url2": null }, "geometry": { "type": "Point", "coordinates": [ 134.311760700000036, 34.0607072 ] } },
{ "type": "Feature", "properties": { "内容": "JA徳島厚生連訪問看護ステーション協同【訪問看護】徳島県吉野川市鴨島町知恵島字西知恵島120", "url": "https://www.kaigokensaku.mhlw.go.jp/36/index.php?action_kouhyou_detail_004_kani=true&JigyosyoCd=3661790018-00&ServiceCd=130&Type=search", "url2": null }, "geometry": { "type": "Point", "coordinates": [ 134.340796387588512, 34.075348095988247 ] } },
{ "type": "Feature", "properties": { "内容": "医療法人さくら診療所　訪問看護【訪問看護】徳島県吉野川市山川町前川212-6", "url": "https://www.kaigokensaku.mhlw.go.jp/36/index.php?action_kouhyou_detail_004_kani=true&JigyosyoCd=3611713136-00&ServiceCd=130&Type=search", "url2": "http://www.sakura-sakura.or.jp/" }, "geometry": { "type": "Point", "coordinates": [ 134.239104200000043, 34.0571092 ] } },
{ "type": "Feature", "properties": { "内容": "医療法人よしのがわ　よしのがわ往診診療所【訪問看護】徳島県吉野川市山川町湯立277‐1", "url": "https://www.kaigokensaku.mhlw.go.jp/36/index.php?action_kouhyou_detail_004_kani=true&JigyosyoCd=3611713284-00&ServiceCd=130&Type=search", "url2": "http://yoshinogawaclinic@hotmail.com" }, "geometry": { "type": "Point", "coordinates": [ 134.231121699999989, 34.0570598 ] } },
{ "type": "Feature", "properties": { "内容": "訪問看護ステーションみま【訪問看護】徳島県吉野川市鴨島町上下島４２１－１", "url": "https://www.kaigokensaku.mhlw.go.jp/36/index.php?action_kouhyou_detail_004_kani=true&JigyosyoCd=3661790026-00&ServiceCd=130&Type=search", "url2": "ｈｔｔｐ；//www.mima－ｇｒｊｐ/ｓｅｉｈｏｕ/" }, "geometry": { "type": "Point", "coordinates": [ 134.350144076371095, 34.070655882909634 ] } },
{ "type": "Feature", "properties": { "内容": "あおぞら内科訪問看護ステーション【訪問看護】徳島県吉野川市鴨島町鴨島876", "url": "https://www.kaigokensaku.mhlw.go.jp/36/index.php?action_kouhyou_detail_004_kani=true&JigyosyoCd=3661790042-00&ServiceCd=130&Type=search", "url2": "https://www.harenohi0515.com" }, "geometry": { "type": "Point", "coordinates": [ 134.350525716512976, 34.076762404323162 ] } },
{ "type": "Feature", "properties": { "内容": "一般社団法人　吉野川市医師会訪問看護ステーション【訪問看護】徳島県吉野川市鴨島町飯尾４００番地１", "url": "https://www.kaigokensaku.mhlw.go.jp/36/index.php?action_kouhyou_detail_004_kani=true&JigyosyoCd=3661790000-00&ServiceCd=130&Type=search", "url2": null }, "geometry": { "type": "Point", "coordinates": [ 134.3618808, 34.0634941 ] } },
{ "type": "Feature", "properties": { "内容": "阿波伊月訪問看護ステーション【訪問看護】徳島県阿波市阿波町大原107‐1", "url": "https://www.kaigokensaku.mhlw.go.jp/36/index.php?action_kouhyou_detail_004_kani=true&JigyosyoCd=3661690028-00&ServiceCd=130&Type=search", "url2": null }, "geometry": { "type": "Point", "coordinates": [ 134.247135593254171, 34.079428155067177 ] } },
{ "type": "Feature", "properties": { "内容": "訪問看護ステーションみらい【訪問看護】徳島県阿波市吉野町柿原一丁目358番地1", "url": "https://www.kaigokensaku.mhlw.go.jp/36/index.php?action_kouhyou_detail_004_kani=true&JigyosyoCd=3661690036-00&ServiceCd=130&Type=search", "url2": "https://tos-serv001.oops.jp/3601000087_mirai/" }, "geometry": { "type": "Point", "coordinates": [ 134.336804300000011, 34.09044 ] } },
{ "type": "Feature", "properties": { "内容": "ＪＡ徳島厚生連　訪問看護ステーションあわ【訪問看護】徳島県阿波市市場町市場字岸ノ下190番地１", "url": "https://www.kaigokensaku.mhlw.go.jp/36/index.php?action_kouhyou_detail_004_kani=true&JigyosyoCd=3661690002-00&ServiceCd=130&Type=search", "url2": "http://www6.ocn.ne.jp/^kwahp02/" }, "geometry": { "type": "Point", "coordinates": [ 134.275622804893459, 34.084179611961368 ] } },
{ "type": "Feature", "properties": { "内容": "つるぎ株式会社　　日和訪問看護ステーション【訪問看護】徳島県阿波市市場町日開谷字稲荷206番地4", "url": "https://www.kaigokensaku.mhlw.go.jp/36/index.php?action_kouhyou_detail_004_kani=true&JigyosyoCd=3661690044-00&ServiceCd=130&Type=search", "url2": null }, "geometry": { "type": "Point", "coordinates": [ 134.271467699999988, 34.1174781 ] } },
{ "type": "Feature", "properties": { "内容": "篠原商事有限会社　訪問看護リハビリステーション　笑くぼ【訪問看護】徳島県阿波市吉野町柿原西二条225番地4ドルチェカーサ2号棟", "url": "https://www.kaigokensaku.mhlw.go.jp/36/index.php?action_kouhyou_detail_004_kani=true&JigyosyoCd=3661690010-00&ServiceCd=130&Type=search", "url2": "http://shinohara-shoji.com/" }, "geometry": { "type": "Point", "coordinates": [ 138.252924, 36.204824 ] } },
{ "type": "Feature", "properties": { "内容": "成田病院【訪問看護】徳島県美馬市脇町字拝原2576番地", "url": "https://www.kaigokensaku.mhlw.go.jp/36/index.php?action_kouhyou_detail_004_kani=true&JigyosyoCd=3610510087-00&ServiceCd=130&Type=search", "url2": "http://www.fujinokai.net" }, "geometry": { "type": "Point", "coordinates": [ 134.175362700000051, 34.0650076 ] } },
{ "type": "Feature", "properties": { "内容": "医療法人　芳越会　訪問看護ステーション　みやの【訪問看護】徳島県美馬市脇町大字脇町340番地", "url": "https://www.kaigokensaku.mhlw.go.jp/36/index.php?action_kouhyou_detail_004_kani=true&JigyosyoCd=3661890008-00&ServiceCd=130&Type=search", "url2": "miyano@houetsu.com" }, "geometry": { "type": "Point", "coordinates": [ 134.148302100000024, 34.0701431 ] } },
{ "type": "Feature", "properties": { "内容": "訪問看護ステーションマリル【訪問看護】徳島県美馬市脇町大字脇町字大堀７７７－１", "url": "https://www.kaigokensaku.mhlw.go.jp/36/index.php?action_kouhyou_detail_004_kani=true&JigyosyoCd=3661890024-00&ServiceCd=130&Type=search", "url2": null }, "geometry": { "type": "Point", "coordinates": [ 134.140564293428611, 34.068808163740002 ] } },
{ "type": "Feature", "properties": { "内容": "村山内科【訪問看護】徳島県三好市池田町サラダ１７９５番地１", "url": "https://www.kaigokensaku.mhlw.go.jp/36/index.php?action_kouhyou_detail_004_kani=true&JigyosyoCd=3610610556-00&ServiceCd=130&Type=search", "url2": "murayamanaika.com" }, "geometry": { "type": "Point", "coordinates": [ 133.806613500000026, 34.0277548 ] } },
{ "type": "Feature", "properties": { "内容": "訪問看護ステーション　やまぶき【訪問看護】徳島県三好市池田町サラダ1884番地4三好市社会福祉協議会　三好市介護お世話センター", "url": "https://www.kaigokensaku.mhlw.go.jp/36/index.php?action_kouhyou_detail_004_kani=true&JigyosyoCd=3660690011-00&ServiceCd=130&Type=search", "url2": "miyoshicity-shyakyo.jp" }, "geometry": { "type": "Point", "coordinates": [ 133.803116029805352, 34.0259916666854 ] } },
{ "type": "Feature", "properties": { "内容": "三野田中病院　訪問看護部【訪問看護】徳島県三好市三野町芝生１２４２-６", "url": "https://www.kaigokensaku.mhlw.go.jp/36/index.php?action_kouhyou_detail_004_kani=true&JigyosyoCd=3610610069-00&ServiceCd=130&Type=search", "url2": "www.tanakahospitalor.jp/" }, "geometry": { "type": "Point", "coordinates": [ 133.96647669999993, 34.0425132 ] } },
{ "type": "Feature", "properties": { "内容": "訪問看護ステーション　柚の木【訪問看護】三好市池田町マチ2507-10さかべテナント2Ｆ－1号", "url": "https://www.kaigokensaku.mhlw.go.jp/36/index.php?action_kouhyou_detail_004_kani=true&JigyosyoCd=3660690029-00&ServiceCd=130&Type=search", "url2": null }, "geometry": { "type": "Point", "coordinates": [ 133.8065407442989, 34.02980762635714 ] } },
{ "type": "Feature", "properties": { "内容": "西部健生訪問看護ステーション【訪問看護】徳島県三好市井川町吉岡127-2", "url": "https://www.kaigokensaku.mhlw.go.jp/36/index.php?action_kouhyou_detail_004_kani=true&JigyosyoCd=3661990022-00&ServiceCd=130&Type=search", "url2": null }, "geometry": { "type": "Point", "coordinates": [ 133.8072458, 34.0260234 ] } },
{ "type": "Feature", "properties": { "内容": "名西郡医師会訪問看護ステーション【訪問看護】徳島県名西郡石井町高原字東高原１００－９", "url": "https://www.kaigokensaku.mhlw.go.jp/36/index.php?action_kouhyou_detail_004_kani=true&JigyosyoCd=3661290001-00&ServiceCd=130&Type=search", "url2": null }, "geometry": { "type": "Point", "coordinates": [ 134.426606399999969, 34.0821961 ] } },
{ "type": "Feature", "properties": { "内容": "訪問看護ステーションアズ【訪問看護】徳島県名西郡石井町石井字石井629-4", "url": "https://www.kaigokensaku.mhlw.go.jp/36/index.php?action_kouhyou_detail_004_kani=true&JigyosyoCd=3661290035-00&ServiceCd=130&Type=search", "url2": "http://nobilva.com/wp/" }, "geometry": { "type": "Point", "coordinates": [ 134.454774, 34.0711953 ] } },
{ "type": "Feature", "properties": { "内容": "訪問看護ステーション永和【訪問看護】徳島県名西郡石井町高原字東高原13-1", "url": "https://www.kaigokensaku.mhlw.go.jp/36/index.php?action_kouhyou_detail_004_kani=true&JigyosyoCd=3661290043-00&ServiceCd=130&Type=search", "url2": null }, "geometry": { "type": "Point", "coordinates": [ 134.4236138, 34.0826888 ] } },
{ "type": "Feature", "properties": { "内容": "まこと訪問看護ステーション【訪問看護】徳島県名西郡石井町藍肌字東覚円103-2", "url": "https://www.kaigokensaku.mhlw.go.jp/36/index.php?action_kouhyou_detail_004_kani=true&JigyosyoCd=3661290019-00&ServiceCd=130&Type=search", "url2": "http//www11.ocn.ne.jp/~yuseien/" }, "geometry": { "type": "Point", "coordinates": [ 134.4354198, 34.0960933 ] } },
{ "type": "Feature", "properties": { "内容": "医療法人　神山医院【訪問看護】徳島県名西郡神山町下分字今井163", "url": "https://www.kaigokensaku.mhlw.go.jp/36/index.php?action_kouhyou_detail_004_kani=true&JigyosyoCd=3611210430-00&ServiceCd=130&Type=search", "url2": null }, "geometry": { "type": "Point", "coordinates": [ 134.308290266493032, 33.959973917984357 ] } },
{ "type": "Feature", "properties": { "内容": "おうち診療所神山【訪問看護】徳島県名西郡神山町神領字本上角100-4", "url": "https://www.kaigokensaku.mhlw.go.jp/36/index.php?action_kouhyou_detail_004_kani=true&JigyosyoCd=3661290050-00&ServiceCd=130&Type=search", "url2": null }, "geometry": { "type": "Point", "coordinates": [ 134.369137203041106, 33.973937438022858 ] } },
{ "type": "Feature", "properties": { "内容": "訪問看護ステーションあいりす【訪問看護】徳島県板野郡松茂町笹木野字八北開拓25番地", "url": "https://www.kaigokensaku.mhlw.go.jp/36/index.php?action_kouhyou_detail_004_kani=true&JigyosyoCd=3661590194-00&ServiceCd=130&Type=search", "url2": null }, "geometry": { "type": "Point", "coordinates": [ 134.5862768, 34.135932 ] } },
{ "type": "Feature", "properties": { "内容": "訪問看護ステーション　ウォームス【訪問看護】徳島県板野郡北島町中村字岸ノ上1-215", "url": "https://www.kaigokensaku.mhlw.go.jp/36/index.php?action_kouhyou_detail_004_kani=true&JigyosyoCd=3661590160-00&ServiceCd=130&Type=search", "url2": "http://www17.plala.or.jp/politework2020/" }, "geometry": { "type": "Point", "coordinates": [ 134.568893800000012, 34.1297707 ] } },
{ "type": "Feature", "properties": { "内容": "訪問看護ステーション彩都【訪問看護】徳島県板野郡北島町中村字岸ノ上1-236", "url": "https://www.kaigokensaku.mhlw.go.jp/36/index.php?action_kouhyou_detail_004_kani=true&JigyosyoCd=3660290119-00&ServiceCd=130&Type=search", "url2": "https://naruto-saito.co.jp/" }, "geometry": { "type": "Point", "coordinates": [ 134.569321111105836, 34.129679837063719 ] } },
{ "type": "Feature", "properties": { "内容": "TAOKA訪問看護ステーション北島【訪問看護】徳島県板野郡北島町鯛浜字外野34番地TAOKA訪問看護ステーション北島", "url": "https://www.kaigokensaku.mhlw.go.jp/36/index.php?action_kouhyou_detail_004_kani=true&JigyosyoCd=3660190400-00&ServiceCd=130&Type=search", "url2": "ＵＲＬ：http://ＷＷＷ.kitajima‐taoka.or.jp/" }, "geometry": { "type": "Point", "coordinates": [ 134.551795800000036, 34.1058492 ] } },
{ "type": "Feature", "properties": { "内容": "地域リハビリテーション稲次指定訪問看護事業所【訪問看護】徳島県板野郡藍住町矢上字安任175-5メディション凌雲", "url": "https://www.kaigokensaku.mhlw.go.jp/36/index.php?action_kouhyou_detail_004_kani=true&JigyosyoCd=3611513478-00&ServiceCd=130&Type=search", "url2": "http://www.ryoun.com" }, "geometry": { "type": "Point", "coordinates": [ 134.49590349999994, 34.1380447 ] } },
{ "type": "Feature", "properties": { "内容": "訪問看護ステーション　ビブレ藍住【訪問看護】徳島県板野郡藍住町奥野字原86-1ロマンスハイツ103号室", "url": "https://www.kaigokensaku.mhlw.go.jp/36/index.php?action_kouhyou_detail_004_kani=true&JigyosyoCd=3661590186-00&ServiceCd=130&Type=search", "url2": "https://www.brave-mc.co.jp/" }, "geometry": { "type": "Point", "coordinates": [ 134.490208299999978, 34.121976 ] } },
{ "type": "Feature", "properties": { "内容": "訪問看護ステーション明華【訪問看護】徳島県板野郡藍住町徳命元村112-6", "url": "https://www.kaigokensaku.mhlw.go.jp/36/index.php?action_kouhyou_detail_004_kani=true&JigyosyoCd=3660190731-00&ServiceCd=130&Type=search", "url2": null }, "geometry": { "type": "Point", "coordinates": [ 134.5440209, 34.0786546 ] } },
{ "type": "Feature", "properties": { "内容": "さわやか徳島訪問看護ステーション【訪問看護】徳島県板野郡藍住町富吉字地神60番3", "url": "https://www.kaigokensaku.mhlw.go.jp/36/index.php?action_kouhyou_detail_004_kani=true&JigyosyoCd=3661590038-00&ServiceCd=130&Type=search", "url2": "http://55web.jp/sawayaka/" }, "geometry": { "type": "Point", "coordinates": [ 134.4874489, 34.1374334 ] } },
{ "type": "Feature", "properties": { "内容": "ホウモンカンゴステーションヤドリギ【訪問看護】徳島県板野郡藍住町徳命字元村東22－22", "url": "https://www.kaigokensaku.mhlw.go.jp/36/index.php?action_kouhyou_detail_004_kani=true&JigyosyoCd=3661590210-00&ServiceCd=130&Type=search", "url2": "https://www.yadorigi-tokushima.com/" }, "geometry": { "type": "Point", "coordinates": [ 134.4997438, 34.1149009 ] } },
{ "type": "Feature", "properties": { "内容": "訪問看護ステーションいこい【訪問看護】徳島県板野郡藍住町住吉字神蔵143番地コーポ新聖102", "url": "https://www.kaigokensaku.mhlw.go.jp/36/index.php?action_kouhyou_detail_004_kani=true&JigyosyoCd=3661590236-00&ServiceCd=130&Type=search", "url2": "https://ikoi-kango.com/" }, "geometry": { "type": "Point", "coordinates": [ 134.5065512, 34.1240256 ] } },
{ "type": "Feature", "properties": { "内容": "訪問看護ステーション昴【訪問看護】徳島県板野郡藍住町矢上字安任137-1老人保健施設昴", "url": "https://www.kaigokensaku.mhlw.go.jp/36/index.php?action_kouhyou_detail_004_kani=true&JigyosyoCd=3661590178-00&ServiceCd=130&Type=search", "url2": "http://www.ryoun.com" }, "geometry": { "type": "Point", "coordinates": [ 134.497210200000012, 34.1366204 ] } },
{ "type": "Feature", "properties": { "内容": "クレア訪問看護ステーション【訪問看護】徳島県板野郡藍住町住吉字藤の木８３番地の２住宅型有料老人ホーム　クレア藍住", "url": "https://www.kaigokensaku.mhlw.go.jp/36/index.php?action_kouhyou_detail_004_kani=true&JigyosyoCd=3661590095-00&ServiceCd=130&Type=search", "url2": "www.crea-care.com" }, "geometry": { "type": "Point", "coordinates": [ 134.502430799999956, 34.126196 ] } },
{ "type": "Feature", "properties": { "内容": "ほまれ訪問看護ステーション【訪問看護】徳島県板野郡藍住町奥野字前川63-12", "url": "https://www.kaigokensaku.mhlw.go.jp/36/index.php?action_kouhyou_detail_004_kani=true&JigyosyoCd=3661590129-00&ServiceCd=130&Type=search", "url2": "https://homare2017.com" }, "geometry": { "type": "Point", "coordinates": [ 134.489894224690744, 34.120119711275741 ] } },
{ "type": "Feature", "properties": { "内容": "訪問看護ステーション　暮ras【訪問看護】徳島県板野郡藍住町奥野字猪熊245-1エトワールナカセ　303号室", "url": "https://www.kaigokensaku.mhlw.go.jp/36/index.php?action_kouhyou_detail_004_kani=true&JigyosyoCd=3661590202-00&ServiceCd=130&Type=search", "url2": "https://www.hirogaru-kuras.com/" }, "geometry": { "type": "Point", "coordinates": [ 134.4947474, 34.1257544 ] } },
{ "type": "Feature", "properties": { "内容": "訪問看護ステーション　あい【訪問看護】徳島県板野郡藍住町東中富敷地傍示5番地4高橋工務店　東棟　２F", "url": "https://www.kaigokensaku.mhlw.go.jp/36/index.php?action_kouhyou_detail_004_kani=true&JigyosyoCd=3661590137-00&ServiceCd=130&Type=search", "url2": null }, "geometry": { "type": "Point", "coordinates": [ 134.482624499999929, 34.1315193 ] } },
{ "type": "Feature", "properties": { "内容": "アイダック訪問看護ステーション【訪問看護】徳島県板野郡板野町川端字若王寺37-1", "url": "https://www.kaigokensaku.mhlw.go.jp/36/index.php?action_kouhyou_detail_004_kani=true&JigyosyoCd=3661590079-00&ServiceCd=130&Type=search", "url2": null }, "geometry": { "type": "Point", "coordinates": [ 134.4795107, 34.1476601 ] } },
{ "type": "Feature", "properties": { "内容": "あーる訪問看護ステーション【訪問看護】徳島県板野郡上板町鍛冶屋原字妙楽寺25－33", "url": "https://www.kaigokensaku.mhlw.go.jp/36/index.php?action_kouhyou_detail_004_kani=true&JigyosyoCd=3661590111-00&ServiceCd=130&Type=search", "url2": null }, "geometry": { "type": "Point", "coordinates": [ 134.399883, 34.1189819 ] } },
{ "type": "Feature", "properties": { "内容": "天山歯科医院【訪問看護】徳島県板野郡上板町七條字西栗ノ木１３ー３", "url": "https://www.kaigokensaku.mhlw.go.jp/36/index.php?action_kouhyou_detail_004_kani=true&JigyosyoCd=3631531609-00&ServiceCd=130&Type=search", "url2": "tenzanshika.com" }, "geometry": { "type": "Point", "coordinates": [ 134.40113310000001, 34.1200441 ] } },
{ "type": "Feature", "properties": { "内容": "あいざと訪問看護ステーション【訪問看護】徳島県板野郡上板町佐藤塚字東288番地3", "url": "https://www.kaigokensaku.mhlw.go.jp/36/index.php?action_kouhyou_detail_004_kani=true&JigyosyoCd=3661590145-00&ServiceCd=130&Type=search", "url2": "http://www.aizato.or.jp" }, "geometry": { "type": "Point", "coordinates": [ 134.454061700000011, 34.1152336 ] } },
{ "type": "Feature", "properties": { "内容": "訪問看護ステーション　インプロ【訪問看護】徳島県三好郡東みよし町足代１４９８番地１", "url": "https://www.kaigokensaku.mhlw.go.jp/36/index.php?action_kouhyou_detail_004_kani=true&JigyosyoCd=3661990063-00&ServiceCd=130&Type=search", "url2": null }, "geometry": { "type": "Point", "coordinates": [ 133.893900300000013, 34.0424893 ] } }
]
}
