{
"type": "FeatureCollection",
"name": "geo_36_小学校",
"crs": { "type": "name", "properties": { "name": "urn:ogc:def:crs:EPSG::6668" } },
"features": [
{ "type": "Feature", "properties": { "P29_001": "36201", "P29_002": "B136110000019", "P29_003": "16001", "P29_004": "鳴門教育大学附属小学校", "P29_005": "徳島県徳島市南前川町1-1", "P29_006": "1", "P29_007": "1", "P29_008": "00", "P29_009": null }, "geometry": { "type": "Point", "coordinates": [ 134.555597415297029, 34.078319598995975 ] } },
{ "type": "Feature", "properties": { "P29_001": "36201", "P29_002": "B136220100015", "P29_003": "16001", "P29_004": "徳島市内町小学校", "P29_005": "徳島県徳島市徳島町城内1-15", "P29_006": "3", "P29_007": "1", "P29_008": "00", "P29_009": null }, "geometry": { "type": "Point", "coordinates": [ 134.551168924825106, 34.076585533066648 ] } },
{ "type": "Feature", "properties": { "P29_001": "36201", "P29_002": "B136220100024", "P29_003": "16001", "P29_004": "徳島市新町小学校", "P29_005": "徳島県徳島市東山手町2-25", "P29_006": "3", "P29_007": "1", "P29_008": "00", "P29_009": null }, "geometry": { "type": "Point", "coordinates": [ 134.54594378981713, 34.068215174822832 ] } },
{ "type": "Feature", "properties": { "P29_001": "36201", "P29_002": "B136220100033", "P29_003": "16001", "P29_004": "徳島市佐古小学校", "P29_005": "徳島県徳島市南佐古4番町1-32", "P29_006": "3", "P29_007": "1", "P29_008": "00", "P29_009": null }, "geometry": { "type": "Point", "coordinates": [ 134.531179202333988, 34.076866919888218 ] } },
{ "type": "Feature", "properties": { "P29_001": "36201", "P29_002": "B136220100042", "P29_003": "16001", "P29_004": "徳島市富田小学校", "P29_005": "徳島県徳島市中央通3-15", "P29_006": "3", "P29_007": "1", "P29_008": "00", "P29_009": null }, "geometry": { "type": "Point", "coordinates": [ 134.553484379641958, 34.062397352729064 ] } },
{ "type": "Feature", "properties": { "P29_001": "36201", "P29_002": "B136220100051", "P29_003": "16001", "P29_004": "徳島市福島小学校", "P29_005": "徳島県徳島市福島1-7-28", "P29_006": "3", "P29_007": "1", "P29_008": "00", "P29_009": null }, "geometry": { "type": "Point", "coordinates": [ 134.566446075874666, 34.070513532428983 ] } },
{ "type": "Feature", "properties": { "P29_001": "36201", "P29_002": "B136220100060", "P29_003": "16001", "P29_004": "徳島市城東小学校", "P29_005": "徳島県徳島市住吉3-2-5", "P29_006": "3", "P29_007": "1", "P29_008": "00", "P29_009": null }, "geometry": { "type": "Point", "coordinates": [ 134.570474392334546, 34.077370718133444 ] } },
{ "type": "Feature", "properties": { "P29_001": "36201", "P29_002": "B136220100079", "P29_003": "16001", "P29_004": "徳島市助任小学校", "P29_005": "徳島県徳島市下助任町1-1", "P29_006": "3", "P29_007": "1", "P29_008": "00", "P29_009": null }, "geometry": { "type": "Point", "coordinates": [ 134.557032629662274, 34.080874496130129 ] } },
{ "type": "Feature", "properties": { "P29_001": "36201", "P29_002": "B136220100088", "P29_003": "16001", "P29_004": "徳島市津田小学校", "P29_005": "徳島県徳島市津田西町2-5-27", "P29_006": "3", "P29_007": "1", "P29_008": "00", "P29_009": null }, "geometry": { "type": "Point", "coordinates": [ 134.574594000497171, 34.049536000661554 ] } },
{ "type": "Feature", "properties": { "P29_001": "36201", "P29_002": "B136220100097", "P29_003": "16001", "P29_004": "徳島市昭和小学校", "P29_005": "徳島県徳島市中昭和町5-60", "P29_006": "3", "P29_007": "1", "P29_008": "00", "P29_009": null }, "geometry": { "type": "Point", "coordinates": [ 134.563701629039514, 34.059359420884682 ] } },
{ "type": "Feature", "properties": { "P29_001": "36201", "P29_002": "B136220100104", "P29_003": "16001", "P29_004": "徳島市沖洲小学校", "P29_005": "徳島県徳島市南沖洲2-2-4", "P29_006": "3", "P29_007": "1", "P29_008": "00", "P29_009": null }, "geometry": { "type": "Point", "coordinates": [ 134.587119226883686, 34.064702957429063 ] } },
{ "type": "Feature", "properties": { "P29_001": "36201", "P29_002": "B136220100113", "P29_003": "16001", "P29_004": "徳島市加茂名小学校", "P29_005": "徳島県徳島市庄町5-19", "P29_006": "3", "P29_007": "1", "P29_008": "00", "P29_009": null }, "geometry": { "type": "Point", "coordinates": [ 134.506290633038418, 34.073855043599366 ] } },
{ "type": "Feature", "properties": { "P29_001": "36201", "P29_002": "B136220100122", "P29_003": "16001", "P29_004": "徳島市八万小学校", "P29_005": "徳島県徳島市城南町4-1-52", "P29_006": "3", "P29_007": "1", "P29_008": "00", "P29_009": null }, "geometry": { "type": "Point", "coordinates": [ 134.541255044608619, 34.052837148512452 ] } },
{ "type": "Feature", "properties": { "P29_001": "36201", "P29_002": "B136220100131", "P29_003": "16001", "P29_004": "徳島市千松小学校", "P29_005": "徳島県徳島市南田宮4-5-5", "P29_006": "3", "P29_007": "1", "P29_008": "00", "P29_009": null }, "geometry": { "type": "Point", "coordinates": [ 134.533701183037721, 34.08522560513066 ] } },
{ "type": "Feature", "properties": { "P29_001": "36201", "P29_002": "B136220100140", "P29_003": "16001", "P29_004": "徳島市大松小学校", "P29_005": "徳島県徳島市大松町上野神9", "P29_006": "3", "P29_007": "1", "P29_008": "00", "P29_009": null }, "geometry": { "type": "Point", "coordinates": [ 134.55375793452086, 34.023813148713458 ] } },
{ "type": "Feature", "properties": { "P29_001": "36201", "P29_002": "B136220100159", "P29_003": "16001", "P29_004": "徳島市論田小学校", "P29_005": "徳島県徳島市論田町本浦上9", "P29_006": "3", "P29_007": "1", "P29_008": "00", "P29_009": null }, "geometry": { "type": "Point", "coordinates": [ 134.564060923667768, 34.02975528751103 ] } },
{ "type": "Feature", "properties": { "P29_001": "36201", "P29_002": "B136220100168", "P29_003": "16001", "P29_004": "徳島市方上小学校", "P29_005": "徳島県徳島市北山町下地1-3", "P29_006": "3", "P29_007": "1", "P29_008": "00", "P29_009": null }, "geometry": { "type": "Point", "coordinates": [ 134.536226088109714, 34.024941232512532 ] } },
{ "type": "Feature", "properties": { "P29_001": "36201", "P29_002": "B136220100177", "P29_003": "16001", "P29_004": "徳島市宮井小学校", "P29_005": "徳島県徳島市多家良町小路地45", "P29_006": "3", "P29_007": "1", "P29_008": "00", "P29_009": null }, "geometry": { "type": "Point", "coordinates": [ 134.533203353600271, 33.989883127891048 ] } },
{ "type": "Feature", "properties": { "P29_001": "36201", "P29_002": "B136220100186", "P29_003": "16001", "P29_004": "徳島市渋野小学校", "P29_005": "徳島県徳島市渋野町西池35-1", "P29_006": "3", "P29_007": "1", "P29_008": "00", "P29_009": null }, "geometry": { "type": "Point", "coordinates": [ 134.536383346495796, 34.0047535353944 ] } },
{ "type": "Feature", "properties": { "P29_001": "36201", "P29_002": "B136220100195", "P29_003": "16001", "P29_004": "徳島市不動小学校", "P29_005": "徳島県徳島市不動本町2-133", "P29_006": "3", "P29_007": "1", "P29_008": "00", "P29_009": null }, "geometry": { "type": "Point", "coordinates": [ 134.506490610950436, 34.097361629054419 ] } },
{ "type": "Feature", "properties": { "P29_001": "36201", "P29_002": "B136220100202", "P29_003": "16001", "P29_004": "徳島市上八万小学校", "P29_005": "徳島県徳島市上八万町樋口52", "P29_006": "3", "P29_007": "1", "P29_008": "00", "P29_009": null }, "geometry": { "type": "Point", "coordinates": [ 134.50812588198383, 34.036594357552744 ] } },
{ "type": "Feature", "properties": { "P29_001": "36201", "P29_002": "B136220100211", "P29_003": "16001", "P29_004": "徳島市一宮小学校", "P29_005": "徳島県徳島市一宮町東丁224", "P29_006": "3", "P29_007": "1", "P29_008": "00", "P29_009": null }, "geometry": { "type": "Point", "coordinates": [ 134.471273838883832, 34.03864787767764 ] } },
{ "type": "Feature", "properties": { "P29_001": "36201", "P29_002": "B136220100220", "P29_003": "16001", "P29_004": "徳島市入田小学校", "P29_005": "徳島県徳島市入田町春日180-1", "P29_006": "3", "P29_007": "1", "P29_008": "00", "P29_009": null }, "geometry": { "type": "Point", "coordinates": [ 134.441957116477397, 34.042040249312038 ] } },
{ "type": "Feature", "properties": { "P29_001": "36201", "P29_002": "B136220100239", "P29_003": "16001", "P29_004": "徳島市川内北小学校", "P29_005": "徳島県徳島市川内町大松133", "P29_006": "3", "P29_007": "1", "P29_008": "00", "P29_009": null }, "geometry": { "type": "Point", "coordinates": [ 134.574281581569949, 34.113990133474587 ] } },
{ "type": "Feature", "properties": { "P29_001": "36201", "P29_002": "B136220100248", "P29_003": "16001", "P29_004": "徳島市川内南小学校", "P29_005": "徳島県徳島市川内町宮島本浦5-2", "P29_006": "3", "P29_007": "1", "P29_008": "00", "P29_009": null }, "geometry": { "type": "Point", "coordinates": [ 134.583689191081135, 34.094856449077874 ] } },
{ "type": "Feature", "properties": { "P29_001": "36201", "P29_002": "B136220100257", "P29_003": "16001", "P29_004": "徳島市応神小学校", "P29_005": "徳島県徳島市応神町吉成字西吉成91-1", "P29_006": "3", "P29_007": "1", "P29_008": "00", "P29_009": null }, "geometry": { "type": "Point", "coordinates": [ 134.526892803457088, 34.115100107259956 ] } },
{ "type": "Feature", "properties": { "P29_001": "36201", "P29_002": "B136220100266", "P29_003": "16001", "P29_004": "徳島市国府小学校", "P29_005": "徳島県徳島市国府町中61-1", "P29_006": "3", "P29_007": "1", "P29_008": "00", "P29_009": null }, "geometry": { "type": "Point", "coordinates": [ 134.483484317988598, 34.06740396014186 ] } },
{ "type": "Feature", "properties": { "P29_001": "36201", "P29_002": "B136220100275", "P29_003": "16001", "P29_004": "徳島市南井上小学校", "P29_005": "徳島県徳島市国府町日開1007-2", "P29_006": "3", "P29_007": "1", "P29_008": "00", "P29_009": null }, "geometry": { "type": "Point", "coordinates": [ 134.475689179407595, 34.086381935353366 ] } },
{ "type": "Feature", "properties": { "P29_001": "36201", "P29_002": "B136220100284", "P29_003": "16001", "P29_004": "徳島市北井上小学校", "P29_005": "徳島県徳島市国府町西黒田南傍示205-2", "P29_006": "3", "P29_007": "1", "P29_008": "00", "P29_009": null }, "geometry": { "type": "Point", "coordinates": [ 134.465704178962568, 34.098682165276465 ] } },
{ "type": "Feature", "properties": { "P29_001": "36201", "P29_002": "B136220100293", "P29_003": "16001", "P29_004": "徳島市八万南小学校", "P29_005": "徳島県徳島市八万町橋本111", "P29_006": "3", "P29_007": "1", "P29_008": "00", "P29_009": null }, "geometry": { "type": "Point", "coordinates": [ 134.532200043787327, 34.042759415694881 ] } },
{ "type": "Feature", "properties": { "P29_001": "36201", "P29_002": "B136220100300", "P29_003": "16001", "P29_004": "徳島市加茂名南小学校", "P29_005": "徳島県徳島市鮎喰町2-11-88", "P29_006": "3", "P29_007": "1", "P29_008": "00", "P29_009": null }, "geometry": { "type": "Point", "coordinates": [ 134.499434999492706, 34.069226997821204 ] } },
{ "type": "Feature", "properties": { "P29_001": "36202", "P29_002": "B136220200014", "P29_003": "16001", "P29_004": "鳴門市撫養小学校", "P29_005": "徳島県鳴門市撫養町斎田字岩崎72", "P29_006": "3", "P29_007": "1", "P29_008": "00", "P29_009": null }, "geometry": { "type": "Point", "coordinates": [ 134.601919874149161, 34.176879227641045 ] } },
{ "type": "Feature", "properties": { "P29_001": "36202", "P29_002": "B136220200023", "P29_003": "16001", "P29_004": "鳴門市林崎小学校", "P29_005": "徳島県鳴門市撫養町立岩字内田73-1", "P29_006": "3", "P29_007": "1", "P29_008": "00", "P29_009": null }, "geometry": { "type": "Point", "coordinates": [ 134.616791561994006, 34.1766036053966 ] } },
{ "type": "Feature", "properties": { "P29_001": "36202", "P29_002": "B136220200032", "P29_003": "16001", "P29_004": "鳴門市黒崎小学校", "P29_005": "徳島県鳴門市撫養町黒崎字宮津88-1", "P29_006": "3", "P29_007": "1", "P29_008": "00", "P29_009": null }, "geometry": { "type": "Point", "coordinates": [ 134.596632469518681, 34.187527615199521 ] } },
{ "type": "Feature", "properties": { "P29_001": "36202", "P29_002": "B136220200041", "P29_003": "16001", "P29_004": "鳴門市桑島小学校", "P29_005": "徳島県鳴門市撫養町大桑島字与三左谷6", "P29_006": "3", "P29_007": "1", "P29_008": "00", "P29_009": null }, "geometry": { "type": "Point", "coordinates": [ 134.606849257506298, 34.184803274361272 ] } },
{ "type": "Feature", "properties": { "P29_001": "36202", "P29_002": "B136220200050", "P29_003": "16001", "P29_004": "鳴門市第一小学校", "P29_005": "徳島県鳴門市大津町木津野字内田11", "P29_006": "3", "P29_007": "1", "P29_008": "00", "P29_009": null }, "geometry": { "type": "Point", "coordinates": [ 134.593596991714833, 34.16866815096774 ] } },
{ "type": "Feature", "properties": { "P29_001": "36202", "P29_002": "B136220200069", "P29_003": "16001", "P29_004": "鳴門市里浦小学校", "P29_005": "徳島県鳴門市里浦町里浦字西浜401", "P29_006": "3", "P29_007": "1", "P29_008": "00", "P29_009": null }, "geometry": { "type": "Point", "coordinates": [ 134.626402006237669, 34.167073326446044 ] } },
{ "type": "Feature", "properties": { "P29_001": "36202", "P29_002": "B136220200078", "P29_003": "16001", "P29_004": "鳴門市鳴門東小学校", "P29_005": "徳島県鳴門市鳴門町土佐泊浦字高砂65-3", "P29_006": "3", "P29_007": "1", "P29_008": "00", "P29_009": null }, "geometry": { "type": "Point", "coordinates": [ 134.623503003744531, 34.195687004671072 ] } },
{ "type": "Feature", "properties": { "P29_001": "36202", "P29_002": "B136220200087", "P29_003": "16001", "P29_004": "鳴門市鳴門西小学校", "P29_005": "徳島県鳴門市鳴門町高島字北217", "P29_006": "3", "P29_007": "1", "P29_008": "00", "P29_009": null }, "geometry": { "type": "Point", "coordinates": [ 134.596628282346131, 34.203104392080675 ] } },
{ "type": "Feature", "properties": { "P29_001": "36202", "P29_002": "B136220200096", "P29_003": "16001", "P29_004": "鳴門市明神小学校", "P29_005": "徳島県鳴門市瀬戸町明神字越浦70", "P29_006": "3", "P29_007": "1", "P29_008": "00", "P29_009": null }, "geometry": { "type": "Point", "coordinates": [ 134.580398297406816, 34.20224805251398 ] } },
{ "type": "Feature", "properties": { "P29_001": "36202", "P29_002": "B136220200121", "P29_003": "16001", "P29_004": "鳴門市大津西小学校", "P29_005": "徳島県鳴門市大津町大代1210", "P29_006": "3", "P29_007": "1", "P29_008": "00", "P29_009": null }, "geometry": { "type": "Point", "coordinates": [ 134.567439544707895, 34.166647081911869 ] } },
{ "type": "Feature", "properties": { "P29_001": "36202", "P29_002": "B136220200130", "P29_003": "16001", "P29_004": "鳴門市北灘東小学校", "P29_005": "徳島県鳴門市北灘町粟田字西傍示228-1", "P29_006": "3", "P29_007": "9", "P29_008": "00", "P29_009": null }, "geometry": { "type": "Point", "coordinates": [ 134.540814995195802, 34.224339277366369 ] } },
{ "type": "Feature", "properties": { "P29_001": "36202", "P29_002": "B136220200149", "P29_003": "16001", "P29_004": "鳴門市堀江北小学校", "P29_005": "徳島県鳴門市大麻町大谷字中筋41", "P29_006": "3", "P29_007": "1", "P29_008": "00", "P29_009": null }, "geometry": { "type": "Point", "coordinates": [ 134.541428999012851, 34.159911998719238 ] } },
{ "type": "Feature", "properties": { "P29_001": "36202", "P29_002": "B136220200158", "P29_003": "16001", "P29_004": "鳴門市堀江南小学校", "P29_005": "徳島県鳴門市大麻町西馬詰字橋ノ本7", "P29_006": "3", "P29_007": "1", "P29_008": "00", "P29_009": null }, "geometry": { "type": "Point", "coordinates": [ 134.540857000901042, 34.145017361873315 ] } },
{ "type": "Feature", "properties": { "P29_001": "36202", "P29_002": "B136220200167", "P29_003": "16001", "P29_004": "鳴門市板東小学校", "P29_005": "徳島県鳴門市大麻町坂東字宝蔵60", "P29_006": "3", "P29_007": "1", "P29_008": "00", "P29_009": null }, "geometry": { "type": "Point", "coordinates": [ 134.504537930893633, 34.15627739071023 ] } },
{ "type": "Feature", "properties": { "P29_001": "36203", "P29_002": "B136220300013", "P29_003": "16001", "P29_004": "小松島市小松島小学校", "P29_005": "徳島県小松島市神田瀬町2-63", "P29_006": "3", "P29_007": "1", "P29_008": "00", "P29_009": null }, "geometry": { "type": "Point", "coordinates": [ 134.58076237406479, 34.01023179261113 ] } },
{ "type": "Feature", "properties": { "P29_001": "36203", "P29_002": "B136220300022", "P29_003": "16001", "P29_004": "小松島市南小松島小学校", "P29_005": "徳島県小松島市小松島町字高須36", "P29_006": "3", "P29_007": "1", "P29_008": "00", "P29_009": null }, "geometry": { "type": "Point", "coordinates": [ 134.585311865605121, 34.005135878783754 ] } },
{ "type": "Feature", "properties": { "P29_001": "36203", "P29_002": "B136220300031", "P29_003": "16001", "P29_004": "小松島市北小松島小学校", "P29_005": "徳島県小松島市中田町字浜田33", "P29_006": "3", "P29_007": "1", "P29_008": "00", "P29_009": null }, "geometry": { "type": "Point", "coordinates": [ 134.586523157668182, 34.015511716459642 ] } },
{ "type": "Feature", "properties": { "P29_001": "36203", "P29_002": "B136220300040", "P29_003": "16001", "P29_004": "小松島市千代小学校", "P29_005": "徳島県小松島市中田町字奥林29", "P29_006": "3", "P29_007": "1", "P29_008": "00", "P29_009": null }, "geometry": { "type": "Point", "coordinates": [ 134.5750223478897, 34.01491201483411 ] } },
{ "type": "Feature", "properties": { "P29_001": "36203", "P29_002": "B136220300059", "P29_003": "16001", "P29_004": "小松島市児安小学校", "P29_005": "徳島県小松島市田浦町字近里27", "P29_006": "3", "P29_007": "1", "P29_008": "00", "P29_009": null }, "geometry": { "type": "Point", "coordinates": [ 134.564960053517439, 34.00199698100846 ] } },
{ "type": "Feature", "properties": { "P29_001": "36203", "P29_002": "B136220300068", "P29_003": "16001", "P29_004": "小松島市芝田小学校", "P29_005": "徳島県小松島市田野町字中須45", "P29_006": "3", "P29_007": "1", "P29_008": "00", "P29_009": null }, "geometry": { "type": "Point", "coordinates": [ 134.583471634181564, 33.98532042028264 ] } },
{ "type": "Feature", "properties": { "P29_001": "36203", "P29_002": "B136220300077", "P29_003": "16001", "P29_004": "小松島市立江小学校", "P29_005": "徳島県小松島市立江町字松本34-3", "P29_006": "3", "P29_007": "1", "P29_008": "00", "P29_009": null }, "geometry": { "type": "Point", "coordinates": [ 134.604048410152956, 33.968789827631106 ] } },
{ "type": "Feature", "properties": { "P29_001": "36203", "P29_002": "B136220300086", "P29_003": "16001", "P29_004": "小松島市櫛渕小学校", "P29_005": "徳島県小松島市櫛淵町字北佃45", "P29_006": "3", "P29_007": "1", "P29_008": "00", "P29_009": null }, "geometry": { "type": "Point", "coordinates": [ 134.584182189567827, 33.9539767783711 ] } },
{ "type": "Feature", "properties": { "P29_001": "36203", "P29_002": "B136220300095", "P29_003": "16001", "P29_004": "小松島市坂野小学校", "P29_005": "徳島県小松島市坂野町字根上り6-1", "P29_006": "3", "P29_007": "1", "P29_008": "00", "P29_009": null }, "geometry": { "type": "Point", "coordinates": [ 134.633181552037513, 33.981630241515568 ] } },
{ "type": "Feature", "properties": { "P29_001": "36203", "P29_002": "B136220300102", "P29_003": "16001", "P29_004": "小松島市和田島小学校", "P29_005": "徳島県小松島市和田島町字山のはな8", "P29_006": "3", "P29_007": "1", "P29_008": "00", "P29_009": null }, "geometry": { "type": "Point", "coordinates": [ 134.640411709256455, 33.996552532691268 ] } },
{ "type": "Feature", "properties": { "P29_001": "36203", "P29_002": "B136220300111", "P29_003": "16001", "P29_004": "小松島市新開小学校", "P29_005": "徳島県小松島市大林町中津37", "P29_006": "3", "P29_007": "1", "P29_008": "00", "P29_009": null }, "geometry": { "type": "Point", "coordinates": [ 134.617903968337714, 33.978803328751496 ] } },
{ "type": "Feature", "properties": { "P29_001": "36204", "P29_002": "B136220400012", "P29_003": "16001", "P29_004": "阿南市立中野島小学校", "P29_005": "徳島県阿南市上中町中原182-1", "P29_006": "3", "P29_007": "1", "P29_008": "00", "P29_009": null }, "geometry": { "type": "Point", "coordinates": [ 134.6285679482055, 33.932747351100176 ] } },
{ "type": "Feature", "properties": { "P29_001": "36204", "P29_002": "B136220400021", "P29_003": "16001", "P29_004": "阿南市立横見小学校", "P29_005": "徳島県阿南市横見町前長岡67-2", "P29_006": "3", "P29_007": "1", "P29_008": "00", "P29_009": null }, "geometry": { "type": "Point", "coordinates": [ 134.655502487029366, 33.928942830714504 ] } },
{ "type": "Feature", "properties": { "P29_001": "36204", "P29_002": "B136220400030", "P29_003": "16001", "P29_004": "阿南市立富岡小学校", "P29_005": "徳島県阿南市領家町浜田200", "P29_006": "3", "P29_007": "1", "P29_008": "00", "P29_009": null }, "geometry": { "type": "Point", "coordinates": [ 134.667760523929502, 33.923804347111144 ] } },
{ "type": "Feature", "properties": { "P29_001": "36204", "P29_002": "B136220400049", "P29_003": "16001", "P29_004": "阿南市立宝田小学校", "P29_005": "徳島県阿南市宝田町久保田124", "P29_006": "3", "P29_007": "1", "P29_008": "00", "P29_009": null }, "geometry": { "type": "Point", "coordinates": [ 134.635640982639273, 33.9206935366538 ] } },
{ "type": "Feature", "properties": { "P29_001": "36204", "P29_002": "B136220400058", "P29_003": "16001", "P29_004": "阿南市立大野小学校", "P29_005": "徳島県阿南市下大野町三条5", "P29_006": "3", "P29_007": "1", "P29_008": "00", "P29_009": null }, "geometry": { "type": "Point", "coordinates": [ 134.595626955146969, 33.934508463000661 ] } },
{ "type": "Feature", "properties": { "P29_001": "36204", "P29_002": "B136220400067", "P29_003": "16001", "P29_004": "阿南市立長生小学校", "P29_005": "徳島県阿南市長生町五反地25-2", "P29_006": "3", "P29_007": "1", "P29_008": "00", "P29_009": null }, "geometry": { "type": "Point", "coordinates": [ 134.616653786837247, 33.909839497715623 ] } },
{ "type": "Feature", "properties": { "P29_001": "36204", "P29_002": "B136220400076", "P29_003": "16001", "P29_004": "阿南市立見能林小学校", "P29_005": "徳島県阿南市見能林町西内35", "P29_006": "3", "P29_007": "1", "P29_008": "00", "P29_009": null }, "geometry": { "type": "Point", "coordinates": [ 134.670915459445126, 33.900772495003444 ] } },
{ "type": "Feature", "properties": { "P29_001": "36204", "P29_002": "B136220400085", "P29_003": "16001", "P29_004": "阿南市立津乃峰小学校", "P29_005": "徳島県阿南市津乃峰町戎山129-37", "P29_006": "3", "P29_007": "1", "P29_008": "00", "P29_009": null }, "geometry": { "type": "Point", "coordinates": [ 134.650008720884898, 33.884384508888942 ] } },
{ "type": "Feature", "properties": { "P29_001": "36204", "P29_002": "B136220400094", "P29_003": "16001", "P29_004": "阿南市立桑野小学校", "P29_005": "徳島県阿南市桑野町岡元40-1", "P29_006": "3", "P29_007": "1", "P29_008": "00", "P29_009": null }, "geometry": { "type": "Point", "coordinates": [ 134.611728426457205, 33.873507160554588 ] } },
{ "type": "Feature", "properties": { "P29_001": "36204", "P29_002": "B136220400101", "P29_003": "16001", "P29_004": "阿南市立山口小学校", "P29_005": "徳島県阿南市山口町久延69-1", "P29_006": "3", "P29_007": "1", "P29_008": "00", "P29_009": null }, "geometry": { "type": "Point", "coordinates": [ 134.581617553277908, 33.872904918323641 ] } },
{ "type": "Feature", "properties": { "P29_001": "36204", "P29_002": "B136220400110", "P29_003": "16001", "P29_004": "阿南市立吉井小学校", "P29_005": "徳島県阿南市吉井町原18-2", "P29_006": "3", "P29_007": "1", "P29_008": "00", "P29_009": null }, "geometry": { "type": "Point", "coordinates": [ 134.559210617667958, 33.922326116751869 ] } },
{ "type": "Feature", "properties": { "P29_001": "36204", "P29_002": "B136220400129", "P29_003": "16001", "P29_004": "阿南市立大井小学校", "P29_005": "徳島県阿南市大井町東平127-1", "P29_006": "3", "P29_007": "9", "P29_008": "00", "P29_009": null }, "geometry": { "type": "Point", "coordinates": [ 134.517726789640761, 33.908979738808 ] } },
{ "type": "Feature", "properties": { "P29_001": "36204", "P29_002": "B136220400138", "P29_003": "16001", "P29_004": "阿南市立橘小学校", "P29_005": "徳島県阿南市橘町大浦166-1", "P29_006": "3", "P29_007": "1", "P29_008": "00", "P29_009": null }, "geometry": { "type": "Point", "coordinates": [ 134.632943538759548, 33.87102513385075 ] } },
{ "type": "Feature", "properties": { "P29_001": "36204", "P29_002": "B136220400147", "P29_003": "16001", "P29_004": "阿南市立福井小学校", "P29_005": "徳島県阿南市福井町大西192-1", "P29_006": "3", "P29_007": "1", "P29_008": "00", "P29_009": null }, "geometry": { "type": "Point", "coordinates": [ 134.62204803090799, 33.838227471190578 ] } },
{ "type": "Feature", "properties": { "P29_001": "36204", "P29_002": "B136220400156", "P29_003": "16001", "P29_004": "阿南市立福井南小学校", "P29_005": "徳島県阿南市福井町日の地122-1", "P29_006": "3", "P29_007": "9", "P29_008": "00", "P29_009": null }, "geometry": { "type": "Point", "coordinates": [ 134.589788341058323, 33.799006109957091 ] } },
{ "type": "Feature", "properties": { "P29_001": "36204", "P29_002": "B136220400165", "P29_003": "16001", "P29_004": "阿南市立椿小学校", "P29_005": "徳島県阿南市椿町黒田47", "P29_006": "3", "P29_007": "1", "P29_008": "00", "P29_009": null }, "geometry": { "type": "Point", "coordinates": [ 134.666404409066246, 33.828605822329806 ] } },
{ "type": "Feature", "properties": { "P29_001": "36204", "P29_002": "B136220400174", "P29_003": "16001", "P29_004": "阿南市立伊島小学校", "P29_005": "徳島県阿南市伊島町瀬戸3-2", "P29_006": "3", "P29_007": "9", "P29_008": "00", "P29_009": null }, "geometry": { "type": "Point", "coordinates": [ 134.80892225571526, 33.844657613764248 ] } },
{ "type": "Feature", "properties": { "P29_001": "36204", "P29_002": "B136220400183", "P29_003": "16001", "P29_004": "阿南市立蒲生田小学校", "P29_005": "徳島県阿南市椿町蒲生田2", "P29_006": "3", "P29_007": "9", "P29_008": "00", "P29_009": null }, "geometry": { "type": "Point", "coordinates": [ 134.741949205990039, 33.8384877992887 ] } },
{ "type": "Feature", "properties": { "P29_001": "36204", "P29_002": "B136220400192", "P29_003": "16001", "P29_004": "阿南市立椿泊小学校", "P29_005": "徳島県阿南市椿泊町東127", "P29_006": "3", "P29_007": "1", "P29_008": "00", "P29_009": null }, "geometry": { "type": "Point", "coordinates": [ 134.71606705966866, 33.844557023405912 ] } },
{ "type": "Feature", "properties": { "P29_001": "36204", "P29_002": "B136220400209", "P29_003": "16001", "P29_004": "阿南市立新野小学校", "P29_005": "徳島県阿南市新野町南宮ノ久保70-1", "P29_006": "3", "P29_007": "1", "P29_008": "00", "P29_009": null }, "geometry": { "type": "Point", "coordinates": [ 134.580947837890136, 33.847198122833404 ] } },
{ "type": "Feature", "properties": { "P29_001": "36204", "P29_002": "B136220400218", "P29_003": "16001", "P29_004": "阿南市立新野西小学校", "P29_005": "徳島県阿南市新野町友常1", "P29_006": "3", "P29_007": "9", "P29_008": "00", "P29_009": null }, "geometry": { "type": "Point", "coordinates": [ 134.541802657327679, 33.838608449169492 ] } },
{ "type": "Feature", "properties": { "P29_001": "36204", "P29_002": "B136220400227", "P29_003": "16001", "P29_004": "阿南市立新野東小学校", "P29_005": "徳島県阿南市新野町是国37-2", "P29_006": "3", "P29_007": "1", "P29_008": "00", "P29_009": null }, "geometry": { "type": "Point", "coordinates": [ 134.604054379071016, 33.84489597816146 ] } },
{ "type": "Feature", "properties": { "P29_001": "36204", "P29_002": "B136220400236", "P29_003": "16001", "P29_004": "阿南市立今津小学校", "P29_005": "徳島県阿南市那賀川町敷地238", "P29_006": "3", "P29_007": "1", "P29_008": "00", "P29_009": null }, "geometry": { "type": "Point", "coordinates": [ 134.646307545781269, 33.963863899832901 ] } },
{ "type": "Feature", "properties": { "P29_001": "36204", "P29_002": "B136220400245", "P29_003": "16001", "P29_004": "阿南市立平島小学校", "P29_005": "徳島県阿南市那賀川町赤池131-2", "P29_006": "3", "P29_007": "1", "P29_008": "00", "P29_009": null }, "geometry": { "type": "Point", "coordinates": [ 134.662752683571142, 33.943530582306721 ] } },
{ "type": "Feature", "properties": { "P29_001": "36204", "P29_002": "B136220400254", "P29_003": "16001", "P29_004": "阿南市立羽ノ浦小学校", "P29_005": "徳島県阿南市羽ノ浦町中庄原婦知1-1", "P29_006": "3", "P29_007": "1", "P29_008": "00", "P29_009": null }, "geometry": { "type": "Point", "coordinates": [ 134.627859883600536, 33.958368333201044 ] } },
{ "type": "Feature", "properties": { "P29_001": "36204", "P29_002": "B136220400263", "P29_003": "16001", "P29_004": "阿南市立岩脇小学校", "P29_005": "徳島県阿南市羽ノ浦町岩脇町筋87", "P29_006": "3", "P29_007": "1", "P29_008": "00", "P29_009": null }, "geometry": { "type": "Point", "coordinates": [ 134.615633837282218, 33.942489516352154 ] } },
{ "type": "Feature", "properties": { "P29_001": "36205", "P29_002": "B136220500020", "P29_003": "16001", "P29_004": "吉野川市立牛島小学校", "P29_005": "徳島県吉野川市鴨島町牛島865-1", "P29_006": "3", "P29_007": "1", "P29_008": "00", "P29_009": null }, "geometry": { "type": "Point", "coordinates": [ 134.386188166932129, 34.073388549281738 ] } },
{ "type": "Feature", "properties": { "P29_001": "36205", "P29_002": "B136220500039", "P29_003": "16001", "P29_004": "吉野川市立鴨島小学校", "P29_005": "徳島県吉野川市鴨島町鴨島564", "P29_006": "3", "P29_007": "1", "P29_008": "00", "P29_009": null }, "geometry": { "type": "Point", "coordinates": [ 134.354212871162787, 34.073061976750758 ] } },
{ "type": "Feature", "properties": { "P29_001": "36205", "P29_002": "B136220500048", "P29_003": "16001", "P29_004": "吉野川市立飯尾敷地小学校", "P29_005": "徳島県吉野川市鴨島町飯尾7", "P29_006": "3", "P29_007": "1", "P29_008": "00", "P29_009": null }, "geometry": { "type": "Point", "coordinates": [ 134.350470723165188, 34.062625814400178 ] } },
{ "type": "Feature", "properties": { "P29_001": "36205", "P29_002": "B136220500057", "P29_003": "16001", "P29_004": "吉野川市立森山小学校", "P29_005": "徳島県吉野川市鴨島町山路1086", "P29_006": "3", "P29_007": "1", "P29_008": "00", "P29_009": null }, "geometry": { "type": "Point", "coordinates": [ 134.370296288588463, 34.062937809223065 ] } },
{ "type": "Feature", "properties": { "P29_001": "36205", "P29_002": "B136220500066", "P29_003": "16001", "P29_004": "吉野川市立西麻植小学校", "P29_005": "徳島県吉野川市鴨島町西麻植字絵馬堂85-2", "P29_006": "3", "P29_007": "1", "P29_008": "00", "P29_009": null }, "geometry": { "type": "Point", "coordinates": [ 134.339335691831394, 34.068324612455534 ] } },
{ "type": "Feature", "properties": { "P29_001": "36205", "P29_002": "B136220500075", "P29_003": "16001", "P29_004": "吉野川市立知恵島小学校", "P29_005": "徳島県吉野川市鴨島町知恵島781", "P29_006": "3", "P29_007": "1", "P29_008": "00", "P29_009": null }, "geometry": { "type": "Point", "coordinates": [ 134.350210484073529, 34.080031975855221 ] } },
{ "type": "Feature", "properties": { "P29_001": "36205", "P29_002": "B136220500084", "P29_003": "16001", "P29_004": "吉野川市立川島小学校", "P29_005": "徳島県吉野川市川島町桑村2193", "P29_006": "3", "P29_007": "1", "P29_008": "00", "P29_009": null }, "geometry": { "type": "Point", "coordinates": [ 134.313826673528638, 34.056661000524436 ] } },
{ "type": "Feature", "properties": { "P29_001": "36205", "P29_002": "B136220500093", "P29_003": "16001", "P29_004": "吉野川市立学島小学校", "P29_005": "徳島県吉野川市川島町学字辻76", "P29_006": "3", "P29_007": "1", "P29_008": "00", "P29_009": null }, "geometry": { "type": "Point", "coordinates": [ 134.281349628411931, 34.056097002680559 ] } },
{ "type": "Feature", "properties": { "P29_001": "36205", "P29_002": "B136220500100", "P29_003": "16001", "P29_004": "吉野川市立山瀬小学校", "P29_005": "徳島県吉野川市山川町諏訪266-1", "P29_006": "3", "P29_007": "1", "P29_008": "00", "P29_009": null }, "geometry": { "type": "Point", "coordinates": [ 134.250257563130475, 34.061759339745528 ] } },
{ "type": "Feature", "properties": { "P29_001": "36205", "P29_002": "B136220500119", "P29_003": "16001", "P29_004": "吉野川市立高越小学校", "P29_005": "徳島県吉野川市山川町町93", "P29_006": "3", "P29_007": "1", "P29_008": "00", "P29_009": null }, "geometry": { "type": "Point", "coordinates": [ 134.225380997193952, 34.045452001336756 ] } },
{ "type": "Feature", "properties": { "P29_001": "36206", "P29_002": "B136220600010", "P29_003": "16001", "P29_004": "阿波市立一条小学校", "P29_005": "徳島県阿波市吉野町西条字岡ノ川原135", "P29_006": "3", "P29_007": "1", "P29_008": "00", "P29_009": null }, "geometry": { "type": "Point", "coordinates": [ 134.386560066471162, 34.100823000124713 ] } },
{ "type": "Feature", "properties": { "P29_001": "36206", "P29_002": "B136220600029", "P29_003": "16001", "P29_004": "阿波市立柿原小学校", "P29_005": "徳島県阿波市吉野町柿原字ヒロナカ256-1", "P29_006": "3", "P29_007": "1", "P29_008": "00", "P29_009": null }, "geometry": { "type": "Point", "coordinates": [ 134.352887719570816, 34.097232448096456 ] } },
{ "type": "Feature", "properties": { "P29_001": "36206", "P29_002": "B136220600038", "P29_003": "16001", "P29_004": "阿波市立御所小学校", "P29_005": "徳島県阿波市土成町宮川内字広坪89", "P29_006": "3", "P29_007": "1", "P29_008": "00", "P29_009": null }, "geometry": { "type": "Point", "coordinates": [ 134.361552193175129, 34.119225166897401 ] } },
{ "type": "Feature", "properties": { "P29_001": "36206", "P29_002": "B136220600047", "P29_003": "16001", "P29_004": "阿波市立土成小学校", "P29_005": "徳島県阿波市土成町成当1203", "P29_006": "3", "P29_007": "1", "P29_008": "00", "P29_009": null }, "geometry": { "type": "Point", "coordinates": [ 134.324340576111439, 34.108783469335599 ] } },
{ "type": "Feature", "properties": { "P29_001": "36206", "P29_002": "B136220600056", "P29_003": "16001", "P29_004": "阿波市立八幡小学校", "P29_005": "徳島県阿波市市場町大野島稲荷138-1", "P29_006": "3", "P29_007": "1", "P29_008": "00", "P29_009": null }, "geometry": { "type": "Point", "coordinates": [ 134.311472007475032, 34.090900985784018 ] } },
{ "type": "Feature", "properties": { "P29_001": "36206", "P29_002": "B136220600065", "P29_003": "16001", "P29_004": "阿波市立市場小学校", "P29_005": "徳島県阿波市市場町市場字上野段670", "P29_006": "3", "P29_007": "1", "P29_008": "00", "P29_009": null }, "geometry": { "type": "Point", "coordinates": [ 134.287189488084266, 34.087561666972135 ] } },
{ "type": "Feature", "properties": { "P29_001": "36206", "P29_002": "B136220600074", "P29_003": "16001", "P29_004": "阿波市立大俣小学校", "P29_005": "徳島県阿波市市場町上喜来字西原200", "P29_006": "3", "P29_007": "1", "P29_008": "00", "P29_009": null }, "geometry": { "type": "Point", "coordinates": [ 134.262687221052829, 34.103791471717209 ] } },
{ "type": "Feature", "properties": { "P29_001": "36206", "P29_002": "B136220600083", "P29_003": "16001", "P29_004": "阿波市立大影小学校", "P29_005": "徳島県阿波市市場町大影字境目39-1", "P29_006": "3", "P29_007": "9", "P29_008": "00", "P29_009": null }, "geometry": { "type": "Point", "coordinates": [ 134.254080690373684, 34.173290783917508 ] } },
{ "type": "Feature", "properties": { "P29_001": "36206", "P29_002": "B136220600092", "P29_003": "16001", "P29_004": "阿波市立久勝小学校", "P29_005": "徳島県阿波市阿波町森沢28", "P29_006": "3", "P29_007": "1", "P29_008": "00", "P29_009": null }, "geometry": { "type": "Point", "coordinates": [ 134.251365756411133, 34.084579197691021 ] } },
{ "type": "Feature", "properties": { "P29_001": "36206", "P29_002": "B136220600109", "P29_003": "16001", "P29_004": "阿波市立伊沢小学校", "P29_005": "徳島県阿波市阿波町南柴生172", "P29_006": "3", "P29_007": "1", "P29_008": "00", "P29_009": null }, "geometry": { "type": "Point", "coordinates": [ 134.229227581996184, 34.089616155002616 ] } },
{ "type": "Feature", "properties": { "P29_001": "36206", "P29_002": "B136220600118", "P29_003": "16001", "P29_004": "阿波市立林小学校", "P29_005": "徳島県阿波市阿波町東整理155-1", "P29_006": "3", "P29_007": "1", "P29_008": "00", "P29_009": null }, "geometry": { "type": "Point", "coordinates": [ 134.201730881123069, 34.074487440895389 ] } },
{ "type": "Feature", "properties": { "P29_001": "36207", "P29_002": "B136220700019", "P29_003": "16001", "P29_004": "美馬市立江原南小学校", "P29_005": "徳島県美馬市脇町字拝原829", "P29_006": "3", "P29_007": "1", "P29_008": "00", "P29_009": null }, "geometry": { "type": "Point", "coordinates": [ 134.171980196436152, 34.0728441037121 ] } },
{ "type": "Feature", "properties": { "P29_001": "36207", "P29_002": "B136220700028", "P29_003": "16001", "P29_004": "美馬市立江原北小学校", "P29_005": "徳島県美馬市脇町字西赤谷3744-2", "P29_006": "3", "P29_007": "1", "P29_008": "00", "P29_009": null }, "geometry": { "type": "Point", "coordinates": [ 134.171715245285043, 34.111752964742585 ] } },
{ "type": "Feature", "properties": { "P29_001": "36207", "P29_002": "B136220700037", "P29_003": "16001", "P29_004": "美馬市立脇町小学校", "P29_005": "徳島県美馬市脇町大字猪尻字西ノ久保116", "P29_006": "3", "P29_007": "1", "P29_008": "00", "P29_009": null }, "geometry": { "type": "Point", "coordinates": [ 134.151460485310821, 34.071125670553371 ] } },
{ "type": "Feature", "properties": { "P29_001": "36207", "P29_002": "B136220700046", "P29_003": "16001", "P29_004": "美馬市立岩倉小学校", "P29_005": "徳島県美馬市脇町岩倉2879", "P29_006": "3", "P29_007": "1", "P29_008": "00", "P29_009": null }, "geometry": { "type": "Point", "coordinates": [ 134.113428653379202, 34.062302136548197 ] } },
{ "type": "Feature", "properties": { "P29_001": "36207", "P29_002": "B136220700055", "P29_003": "16001", "P29_004": "美馬市立美馬小学校", "P29_005": "徳島県美馬市美馬町字谷ヨリ西68", "P29_006": "3", "P29_007": "1", "P29_008": "00", "P29_009": null }, "geometry": { "type": "Point", "coordinates": [ 134.049456804301627, 34.052977534416385 ] } },
{ "type": "Feature", "properties": { "P29_001": "36207", "P29_002": "B136220700064", "P29_003": "16001", "P29_004": "美馬市立三島小学校", "P29_005": "徳島県美馬市穴吹町三島字三谷374", "P29_006": "3", "P29_007": "1", "P29_008": "00", "P29_009": null }, "geometry": { "type": "Point", "coordinates": [ 134.129143905134555, 34.055509731909957 ] } },
{ "type": "Feature", "properties": { "P29_001": "36207", "P29_002": "B136220700073", "P29_003": "16001", "P29_004": "美馬市立穴吹小学校", "P29_005": "徳島県美馬市穴吹町穴吹字柏40", "P29_006": "3", "P29_007": "1", "P29_008": "00", "P29_009": null }, "geometry": { "type": "Point", "coordinates": [ 134.168508309304201, 34.046270189547336 ] } },
{ "type": "Feature", "properties": { "P29_001": "36207", "P29_002": "B136220700082", "P29_003": "16001", "P29_004": "美馬市立木屋平小学校", "P29_005": "徳島県美馬市木屋平字谷口235-1", "P29_006": "3", "P29_007": "1", "P29_008": "00", "P29_009": null }, "geometry": { "type": "Point", "coordinates": [ 134.175599906928625, 33.914777074816435 ] } },
{ "type": "Feature", "properties": { "P29_001": "36208", "P29_002": "B136220800018", "P29_003": "16001", "P29_004": "三好市立王地小学校", "P29_005": "徳島県三好市三野町加茂野宮1393", "P29_006": "3", "P29_007": "1", "P29_008": "00", "P29_009": null }, "geometry": { "type": "Point", "coordinates": [ 133.989366678327258, 34.051318807516267 ] } },
{ "type": "Feature", "properties": { "P29_001": "36208", "P29_002": "B136220800027", "P29_003": "16001", "P29_004": "三好市立芝生小学校", "P29_005": "徳島県三好市三野町芝生1230", "P29_006": "3", "P29_007": "1", "P29_008": "00", "P29_009": null }, "geometry": { "type": "Point", "coordinates": [ 133.966444193787993, 34.041576097381437 ] } },
{ "type": "Feature", "properties": { "P29_001": "36208", "P29_002": "B136220800036", "P29_003": "16001", "P29_004": "三好市立芝生小学校太刀野分校", "P29_005": "徳島県三好市三野町太刀野970", "P29_006": "3", "P29_007": "1", "P29_008": "00", "P29_009": null }, "geometry": { "type": "Point", "coordinates": [ 133.953181751483498, 34.04803989477476 ] } },
{ "type": "Feature", "properties": { "P29_001": "36208", "P29_002": "B136220800045", "P29_003": "16001", "P29_004": "三好市立箸蔵小学校", "P29_005": "徳島県三好市池田町州津井関1208", "P29_006": "3", "P29_007": "1", "P29_008": "00", "P29_009": null }, "geometry": { "type": "Point", "coordinates": [ 133.837081397581443, 34.037099492273178 ] } },
{ "type": "Feature", "properties": { "P29_001": "36208", "P29_002": "B136220800054", "P29_003": "16001", "P29_004": "三好市立池田小学校", "P29_005": "徳島県三好市池田町ウエノ2379-4", "P29_006": "3", "P29_007": "1", "P29_008": "00", "P29_009": null }, "geometry": { "type": "Point", "coordinates": [ 133.809952830360317, 34.031195740566069 ] } },
{ "type": "Feature", "properties": { "P29_001": "36208", "P29_002": "B136220800063", "P29_003": "16001", "P29_004": "三好市立白地小学校", "P29_005": "徳島県三好市池田町白地本名57", "P29_006": "3", "P29_007": "1", "P29_008": "00", "P29_009": null }, "geometry": { "type": "Point", "coordinates": [ 133.78282719236293, 34.01691535179981 ] } },
{ "type": "Feature", "properties": { "P29_001": "36208", "P29_002": "B136220800072", "P29_003": "16001", "P29_004": "三好市立馬路小学校", "P29_005": "徳島県三好市池田町馬路立石33-1", "P29_006": "3", "P29_007": "1", "P29_008": "00", "P29_009": null }, "geometry": { "type": "Point", "coordinates": [ 133.735052877938671, 34.009728664010368 ] } },
{ "type": "Feature", "properties": { "P29_001": "36208", "P29_002": "B136220800081", "P29_003": "16001", "P29_004": "三好市立三縄小学校", "P29_005": "徳島県三好市池田町中西イバ508-1", "P29_006": "3", "P29_007": "1", "P29_008": "00", "P29_009": null }, "geometry": { "type": "Point", "coordinates": [ 133.791768784257386, 33.996229513307391 ] } },
{ "type": "Feature", "properties": { "P29_001": "36208", "P29_002": "B136220800090", "P29_003": "16001", "P29_004": "三好市立川崎小学校", "P29_005": "徳島県三好市池田町川崎浪会31", "P29_006": "3", "P29_007": "1", "P29_008": "00", "P29_009": null }, "geometry": { "type": "Point", "coordinates": [ 133.774620126948349, 33.968056016077789 ] } },
{ "type": "Feature", "properties": { "P29_001": "36208", "P29_002": "B136220800107", "P29_003": "16001", "P29_004": "三好市立山城小学校", "P29_005": "徳島県三好市山城町大川持30-2", "P29_006": "3", "P29_007": "1", "P29_008": "00", "P29_009": null }, "geometry": { "type": "Point", "coordinates": [ 133.754167936878332, 33.965993162632756 ] } },
{ "type": "Feature", "properties": { "P29_001": "36208", "P29_002": "B136220800116", "P29_003": "16001", "P29_004": "三好市立下名小学校", "P29_005": "徳島県三好市山城町下名1001-1", "P29_006": "3", "P29_007": "1", "P29_008": "00", "P29_009": null }, "geometry": { "type": "Point", "coordinates": [ 133.772677680998783, 33.870530727083 ] } },
{ "type": "Feature", "properties": { "P29_001": "36208", "P29_002": "B136220800125", "P29_003": "16001", "P29_004": "三好市立辻小学校", "P29_005": "徳島県三好市井川町辻53-1", "P29_006": "3", "P29_007": "1", "P29_008": "00", "P29_009": null }, "geometry": { "type": "Point", "coordinates": [ 133.878777554156869, 34.028497045739506 ] } },
{ "type": "Feature", "properties": { "P29_001": "36208", "P29_002": "B136220800134", "P29_003": "16001", "P29_004": "三好市立西井川小学校", "P29_005": "徳島県三好市井川町西井川734-3", "P29_006": "3", "P29_007": "1", "P29_008": "00", "P29_009": null }, "geometry": { "type": "Point", "coordinates": [ 133.84628328332596, 34.032460902492851 ] } },
{ "type": "Feature", "properties": { "P29_001": "36208", "P29_002": "B136220800143", "P29_003": "16001", "P29_004": "三好市立井内小学校", "P29_005": "徳島県三好市井内西4896-1", "P29_006": "3", "P29_007": "1", "P29_008": "00", "P29_009": null }, "geometry": { "type": "Point", "coordinates": [ 133.879622934879535, 33.998409836835677 ] } },
{ "type": "Feature", "properties": { "P29_001": "36208", "P29_002": "B136220800152", "P29_003": "16001", "P29_004": "三好市立東祖谷小学校", "P29_005": "徳島県三好市東祖谷下瀬12-1", "P29_006": "3", "P29_007": "1", "P29_008": "00", "P29_009": null }, "geometry": { "type": "Point", "coordinates": [ 133.921774138573852, 33.875039805348571 ] } },
{ "type": "Feature", "properties": { "P29_001": "36208", "P29_002": "B136220800161", "P29_003": "16001", "P29_004": "三好市立檪生小学校", "P29_005": "徳島県三好市西祖谷山村一宇262-1", "P29_006": "3", "P29_007": "1", "P29_008": "00", "P29_009": null }, "geometry": { "type": "Point", "coordinates": [ 133.815649403951596, 33.89312649525516 ] } },
{ "type": "Feature", "properties": { "P29_001": "36208", "P29_002": "B136220800170", "P29_003": "16001", "P29_004": "三好市立吾橋小学校", "P29_005": "徳島県三好市西祖谷山村下吾橋303-2", "P29_006": "3", "P29_007": "1", "P29_008": "00", "P29_009": null }, "geometry": { "type": "Point", "coordinates": [ 133.786733069889067, 33.866353522352036 ] } },
{ "type": "Feature", "properties": { "P29_001": "36301", "P29_002": "B136230100014", "P29_003": "16001", "P29_004": "勝浦町立生比奈小学校", "P29_005": "徳島県勝浦郡勝浦町大字中角字豊田1-1", "P29_006": "3", "P29_007": "1", "P29_008": "00", "P29_009": null }, "geometry": { "type": "Point", "coordinates": [ 134.535284997607135, 33.940211997191419 ] } },
{ "type": "Feature", "properties": { "P29_001": "36301", "P29_002": "B136230100023", "P29_003": "16001", "P29_004": "勝浦町立横瀬小学校", "P29_005": "徳島県勝浦郡勝浦町大字三渓字上川原13-2", "P29_006": "3", "P29_007": "1", "P29_008": "00", "P29_009": null }, "geometry": { "type": "Point", "coordinates": [ 134.493586396061914, 33.930347414854701 ] } },
{ "type": "Feature", "properties": { "P29_001": "36302", "P29_002": "B136230200013", "P29_003": "16001", "P29_004": "上勝町立上勝小学校", "P29_005": "徳島県勝浦郡上勝町大字正木字平間179", "P29_006": "3", "P29_007": "1", "P29_008": "00", "P29_009": null }, "geometry": { "type": "Point", "coordinates": [ 134.425579547384416, 33.922553921069309 ] } },
{ "type": "Feature", "properties": { "P29_001": "36321", "P29_002": "B136232100010", "P29_003": "16001", "P29_004": "佐那河内村立佐那河内小学校", "P29_005": "徳島県名東郡佐那河内村下字中川原30", "P29_006": "3", "P29_007": "1", "P29_008": "00", "P29_009": null }, "geometry": { "type": "Point", "coordinates": [ 134.455152572605499, 33.992385352048792 ] } },
{ "type": "Feature", "properties": { "P29_001": "36341", "P29_002": "B136234100016", "P29_003": "16001", "P29_004": "石井町石井小学校", "P29_005": "徳島県名西郡石井町石井字石井1184-1", "P29_006": "3", "P29_007": "1", "P29_008": "00", "P29_009": null }, "geometry": { "type": "Point", "coordinates": [ 134.443989976180234, 34.065747529314145 ] } },
{ "type": "Feature", "properties": { "P29_001": "36341", "P29_002": "B136234100025", "P29_003": "16001", "P29_004": "石井町石井小学校尼寺分校", "P29_005": "徳島県名西郡石井町石井字尼寺71", "P29_006": "3", "P29_007": "1", "P29_008": "00", "P29_009": null }, "geometry": { "type": "Point", "coordinates": [ 134.465760525080952, 34.068358898271377 ] } },
{ "type": "Feature", "properties": { "P29_001": "36341", "P29_002": "B136234100034", "P29_003": "16001", "P29_004": "石井町浦庄小学校", "P29_005": "徳島県名西郡石井町浦庄字下浦475-1", "P29_006": "3", "P29_007": "1", "P29_008": "00", "P29_009": null }, "geometry": { "type": "Point", "coordinates": [ 134.416478914013197, 34.066498477863107 ] } },
{ "type": "Feature", "properties": { "P29_001": "36341", "P29_002": "B136234100043", "P29_003": "16001", "P29_004": "石井町高原小学校", "P29_005": "徳島県名西郡石井町高原字東高原250-1", "P29_006": "3", "P29_007": "1", "P29_008": "00", "P29_009": null }, "geometry": { "type": "Point", "coordinates": [ 134.421281599651593, 34.083298593707397 ] } },
{ "type": "Feature", "properties": { "P29_001": "36341", "P29_002": "B136234100052", "P29_003": "16001", "P29_004": "石井町高川原小学校", "P29_005": "徳島県名西郡石井町高川原字高川原1167", "P29_006": "3", "P29_007": "1", "P29_008": "00", "P29_009": null }, "geometry": { "type": "Point", "coordinates": [ 134.448235972035093, 34.077415421023304 ] } },
{ "type": "Feature", "properties": { "P29_001": "36341", "P29_002": "B136234100061", "P29_003": "16001", "P29_004": "石井町藍畑小学校", "P29_005": "徳島県名西郡石井町藍畑字東覚円670", "P29_006": "3", "P29_007": "1", "P29_008": "00", "P29_009": null }, "geometry": { "type": "Point", "coordinates": [ 134.440410553978921, 34.097769161481388 ] } },
{ "type": "Feature", "properties": { "P29_001": "36342", "P29_002": "B136234200015", "P29_003": "16001", "P29_004": "名西郡神山町広野小学校", "P29_005": "徳島県名西郡神山町阿野字広野22", "P29_006": "3", "P29_007": "1", "P29_008": "00", "P29_009": null }, "geometry": { "type": "Point", "coordinates": [ 134.40378337112179, 34.030194318669672 ] } },
{ "type": "Feature", "properties": { "P29_001": "36342", "P29_002": "B136234200024", "P29_003": "16001", "P29_004": "名西郡神山町神領小学校", "P29_005": "徳島県名西郡神山町神領字大埜地411-1", "P29_006": "3", "P29_007": "1", "P29_008": "00", "P29_009": null }, "geometry": { "type": "Point", "coordinates": [ 134.357498384950446, 33.969545801885197 ] } },
{ "type": "Feature", "properties": { "P29_001": "36368", "P29_002": "B136236800014", "P29_003": "16001", "P29_004": "那賀町立鷲敷小学校", "P29_005": "徳島県那賀郡那賀町和食字町117-4", "P29_006": "3", "P29_007": "1", "P29_008": "00", "P29_009": null }, "geometry": { "type": "Point", "coordinates": [ 134.49987857261371, 33.859678605684884 ] } },
{ "type": "Feature", "properties": { "P29_001": "36368", "P29_002": "B136236800023", "P29_003": "16001", "P29_004": "那賀町立相生小学校", "P29_005": "徳島県那賀郡那賀町延野字大原80", "P29_006": "3", "P29_007": "1", "P29_008": "00", "P29_009": null }, "geometry": { "type": "Point", "coordinates": [ 134.483685792601619, 33.821446910652185 ] } },
{ "type": "Feature", "properties": { "P29_001": "36368", "P29_002": "B136236800032", "P29_003": "16001", "P29_004": "那賀町立平谷小学校", "P29_005": "徳島県那賀郡那賀町平谷字北浦9", "P29_006": "3", "P29_007": "9", "P29_008": "00", "P29_009": null }, "geometry": { "type": "Point", "coordinates": [ 134.301439248491988, 33.795018648084437 ] } },
{ "type": "Feature", "properties": { "P29_001": "36368", "P29_002": "B136236800041", "P29_003": "16001", "P29_004": "那賀町立木沢小学校", "P29_005": "徳島県那賀郡那賀町坂州字向エ169-1", "P29_006": "3", "P29_007": "1", "P29_008": "00", "P29_009": null }, "geometry": { "type": "Point", "coordinates": [ 134.299481223427961, 33.828782346393162 ] } },
{ "type": "Feature", "properties": { "P29_001": "36368", "P29_002": "B136236800050", "P29_003": "16001", "P29_004": "那賀町立木頭小学校", "P29_005": "徳島県那賀郡那賀町木頭和無田字ナカスジ1", "P29_006": "3", "P29_007": "1", "P29_008": "00", "P29_009": null }, "geometry": { "type": "Point", "coordinates": [ 134.198240773763189, 33.771941589026518 ] } },
{ "type": "Feature", "properties": { "P29_001": "36368", "P29_002": "B136236800069", "P29_003": "16001", "P29_004": "那賀町立北川小学校", "P29_005": "徳島県那賀郡那賀町木頭折宇字六地蔵89", "P29_006": "3", "P29_007": "1", "P29_008": "00", "P29_009": null }, "geometry": { "type": "Point", "coordinates": [ 134.139009995494376, 33.778370000031572 ] } },
{ "type": "Feature", "properties": { "P29_001": "36383", "P29_002": "B136238300015", "P29_003": "16001", "P29_004": "牟岐町立牟岐小学校", "P29_005": "徳島県海部郡牟岐町大字川長字市宇谷100", "P29_006": "3", "P29_007": "1", "P29_008": "00", "P29_009": null }, "geometry": { "type": "Point", "coordinates": [ 134.426527672577976, 33.671667328434978 ] } },
{ "type": "Feature", "properties": { "P29_001": "36387", "P29_002": "B136238700011", "P29_003": "16001", "P29_004": "美波町立伊座利小学校", "P29_005": "徳島県海部郡美波町伊座利354-2", "P29_006": "3", "P29_007": "1", "P29_008": "00", "P29_009": null }, "geometry": { "type": "Point", "coordinates": [ 134.669585403967943, 33.806011486515985 ] } },
{ "type": "Feature", "properties": { "P29_001": "36387", "P29_002": "B136238700020", "P29_003": "16001", "P29_004": "美波町立阿部小学校", "P29_005": "徳島県海部郡美波町阿部103", "P29_006": "3", "P29_007": "9", "P29_008": "00", "P29_009": null }, "geometry": { "type": "Point", "coordinates": [ 134.639976997112484, 33.79109599613448 ] } },
{ "type": "Feature", "properties": { "P29_001": "36387", "P29_002": "B136238700039", "P29_003": "16001", "P29_004": "美波町立由岐小学校", "P29_005": "徳島県海部郡美波町西ノ地字谷裏90-19", "P29_006": "3", "P29_007": "1", "P29_008": "00", "P29_009": null }, "geometry": { "type": "Point", "coordinates": [ 134.598137274490512, 33.776271351531392 ] } },
{ "type": "Feature", "properties": { "P29_001": "36387", "P29_002": "B136238700048", "P29_003": "16001", "P29_004": "美波町立木岐小学校", "P29_005": "徳島県海部郡美波町木岐72", "P29_006": "3", "P29_007": "9", "P29_008": "00", "P29_009": null }, "geometry": { "type": "Point", "coordinates": [ 134.575409884028716, 33.765396008838749 ] } },
{ "type": "Feature", "properties": { "P29_001": "36387", "P29_002": "B136238700057", "P29_003": "16001", "P29_004": "美波町立日和佐小学校", "P29_005": "徳島県海部郡美波町奥河内字本村34-1", "P29_006": "3", "P29_007": "1", "P29_008": "00", "P29_009": null }, "geometry": { "type": "Point", "coordinates": [ 134.536437996417334, 33.735460000356539 ] } },
{ "type": "Feature", "properties": { "P29_001": "36388", "P29_002": "B136238800010", "P29_003": "16001", "P29_004": "海陽町立海南小学校", "P29_005": "徳島県海部郡海陽町四方原字旭町50", "P29_006": "3", "P29_007": "1", "P29_008": "00", "P29_009": null }, "geometry": { "type": "Point", "coordinates": [ 134.354537077279815, 33.606858643699724 ] } },
{ "type": "Feature", "properties": { "P29_001": "36388", "P29_002": "B136238800029", "P29_003": "16001", "P29_004": "海陽町立海部小学校", "P29_005": "徳島県海部郡海陽町奥浦字堤ノ外44", "P29_006": "3", "P29_007": "1", "P29_008": "00", "P29_009": null }, "geometry": { "type": "Point", "coordinates": [ 134.356950996905852, 33.594177002980473 ] } },
{ "type": "Feature", "properties": { "P29_001": "36388", "P29_002": "B136238800038", "P29_003": "16001", "P29_004": "海陽町立宍喰小学校", "P29_005": "徳島県海部郡海陽町久保字松本88", "P29_006": "3", "P29_007": "1", "P29_008": "00", "P29_009": null }, "geometry": { "type": "Point", "coordinates": [ 134.301722556728578, 33.567232717770018 ] } },
{ "type": "Feature", "properties": { "P29_001": "36401", "P29_002": "B136240100013", "P29_003": "16001", "P29_004": "松茂町立長原小学校", "P29_005": "徳島県板野郡松茂町長原530", "P29_006": "3", "P29_007": "1", "P29_008": "00", "P29_009": null }, "geometry": { "type": "Point", "coordinates": [ 134.602761131224071, 34.117519700030513 ] } },
{ "type": "Feature", "properties": { "P29_001": "36401", "P29_002": "B136240100022", "P29_003": "16001", "P29_004": "松茂町立松茂小学校", "P29_005": "徳島県板野郡松茂町住吉字住吉開拓187", "P29_006": "3", "P29_007": "1", "P29_008": "00", "P29_009": null }, "geometry": { "type": "Point", "coordinates": [ 134.590073588123118, 34.131706137919487 ] } },
{ "type": "Feature", "properties": { "P29_001": "36401", "P29_002": "B136240100031", "P29_003": "16001", "P29_004": "松茂町立喜来小学校", "P29_005": "徳島県板野郡松茂町中喜来字前原西一番越14", "P29_006": "3", "P29_007": "1", "P29_008": "00", "P29_009": null }, "geometry": { "type": "Point", "coordinates": [ 134.573971059605071, 34.142396540534008 ] } },
{ "type": "Feature", "properties": { "P29_001": "36402", "P29_002": "B136240200012", "P29_003": "16001", "P29_004": "北島町立北島北小学校", "P29_005": "徳島県板野郡北島町北村壱町四反地20-1", "P29_006": "3", "P29_007": "1", "P29_008": "00", "P29_009": null }, "geometry": { "type": "Point", "coordinates": [ 134.552928573405296, 34.136717810478977 ] } },
{ "type": "Feature", "properties": { "P29_001": "36402", "P29_002": "B136240200021", "P29_003": "16001", "P29_004": "北島町立北島小学校", "P29_005": "徳島県板野郡北島町中村字長池17-3", "P29_006": "3", "P29_007": "1", "P29_008": "00", "P29_009": null }, "geometry": { "type": "Point", "coordinates": [ 134.550039574569837, 34.125179278178997 ] } },
{ "type": "Feature", "properties": { "P29_001": "36402", "P29_002": "B136240200030", "P29_003": "16001", "P29_004": "北島町立北島南小学校", "P29_005": "徳島県板野郡北島町江尻字宮ノ本40-2", "P29_006": "3", "P29_007": "1", "P29_008": "00", "P29_009": null }, "geometry": { "type": "Point", "coordinates": [ 134.543720302870582, 34.118857405891724 ] } },
{ "type": "Feature", "properties": { "P29_001": "36403", "P29_002": "B136240300011", "P29_003": "16001", "P29_004": "藍住町立藍住北小学校", "P29_005": "徳島県板野郡藍住町住吉字乾1", "P29_006": "3", "P29_007": "1", "P29_008": "00", "P29_009": null }, "geometry": { "type": "Point", "coordinates": [ 134.505711172937481, 34.132762774119144 ] } },
{ "type": "Feature", "properties": { "P29_001": "36403", "P29_002": "B136240300020", "P29_003": "16001", "P29_004": "藍住町立藍住南小学校", "P29_005": "徳島県板野郡藍住町奥野字和田95", "P29_006": "3", "P29_007": "1", "P29_008": "00", "P29_009": null }, "geometry": { "type": "Point", "coordinates": [ 134.491044086875064, 34.121739207041465 ] } },
{ "type": "Feature", "properties": { "P29_001": "36403", "P29_002": "B136240300039", "P29_003": "16001", "P29_004": "藍住町立藍住西小学校", "P29_005": "徳島県板野郡藍住町富吉字豊吉55-1", "P29_006": "3", "P29_007": "1", "P29_008": "00", "P29_009": null }, "geometry": { "type": "Point", "coordinates": [ 134.484725398770991, 34.134947388189367 ] } },
{ "type": "Feature", "properties": { "P29_001": "36403", "P29_002": "B136240300048", "P29_003": "16001", "P29_004": "藍住町立藍住東小学校", "P29_005": "徳島県板野郡藍住町勝瑞字成長155-1", "P29_006": "3", "P29_007": "1", "P29_008": "00", "P29_009": null }, "geometry": { "type": "Point", "coordinates": [ 134.517171458557783, 34.127587072724808 ] } },
{ "type": "Feature", "properties": { "P29_001": "36404", "P29_002": "B136240400010", "P29_003": "16001", "P29_004": "板野町立板野東小学校", "P29_005": "徳島県板野郡板野町吹田字町東2", "P29_006": "3", "P29_007": "1", "P29_008": "00", "P29_009": null }, "geometry": { "type": "Point", "coordinates": [ 134.464113938017647, 34.147526507266747 ] } },
{ "type": "Feature", "properties": { "P29_001": "36404", "P29_002": "B136240400029", "P29_003": "16001", "P29_004": "板野町立板野東小学校大坂分校", "P29_005": "徳島県板野郡板野町大坂字宮東20", "P29_006": "3", "P29_007": "1", "P29_008": "00", "P29_009": null }, "geometry": { "type": "Point", "coordinates": [ 134.448221435250019, 34.177801847878989 ] } },
{ "type": "Feature", "properties": { "P29_001": "36404", "P29_002": "B136240400038", "P29_003": "16001", "P29_004": "板野町立板野西小学校", "P29_005": "徳島県板野郡板野町那東字泉西5", "P29_006": "3", "P29_007": "1", "P29_008": "00", "P29_009": null }, "geometry": { "type": "Point", "coordinates": [ 134.438201045346204, 34.136268845841762 ] } },
{ "type": "Feature", "properties": { "P29_001": "36404", "P29_002": "B136240400047", "P29_003": "16001", "P29_004": "板野町立板野南小学校", "P29_005": "徳島県板野郡板野町下ノ庄字栖養44", "P29_006": "3", "P29_007": "1", "P29_008": "00", "P29_009": null }, "geometry": { "type": "Point", "coordinates": [ 134.456633004406001, 34.123941996765438 ] } },
{ "type": "Feature", "properties": { "P29_001": "36405", "P29_002": "B136240500019", "P29_003": "16001", "P29_004": "上板町立神宅小学校", "P29_005": "徳島県板野郡上板町神宅字喜来135", "P29_006": "3", "P29_007": "1", "P29_008": "00", "P29_009": null }, "geometry": { "type": "Point", "coordinates": [ 134.414784787746214, 34.134422543438191 ] } },
{ "type": "Feature", "properties": { "P29_001": "36405", "P29_002": "B136240500028", "P29_003": "16001", "P29_004": "上板町立東光小学校", "P29_005": "徳島県板野郡上板町西分字東光8", "P29_006": "3", "P29_007": "1", "P29_008": "00", "P29_009": null }, "geometry": { "type": "Point", "coordinates": [ 134.428783751146653, 34.117743751797484 ] } },
{ "type": "Feature", "properties": { "P29_001": "36405", "P29_002": "B136240500037", "P29_003": "16001", "P29_004": "上板町立松島小学校", "P29_005": "徳島県板野郡上板町鍛冶屋原字北原20", "P29_006": "3", "P29_007": "1", "P29_008": "00", "P29_009": null }, "geometry": { "type": "Point", "coordinates": [ 134.399051206703973, 34.120824581316214 ] } },
{ "type": "Feature", "properties": { "P29_001": "36405", "P29_002": "B136240500046", "P29_003": "16001", "P29_004": "上板町立高志小学校", "P29_005": "徳島県板野郡上板町高瀬字天目一1108", "P29_006": "3", "P29_007": "1", "P29_008": "00", "P29_009": null }, "geometry": { "type": "Point", "coordinates": [ 134.418851170936051, 34.104172502145595 ] } },
{ "type": "Feature", "properties": { "P29_001": "36468", "P29_002": "B136246800013", "P29_003": "16001", "P29_004": "つるぎ町立半田小学校", "P29_005": "徳島県美馬郡つるぎ町半田字田井289", "P29_006": "3", "P29_007": "1", "P29_008": "00", "P29_009": null }, "geometry": { "type": "Point", "coordinates": [ 134.029950781787875, 34.032228661081106 ] } },
{ "type": "Feature", "properties": { "P29_001": "36468", "P29_002": "B136246800022", "P29_003": "16001", "P29_004": "つるぎ町立八千代小学校", "P29_005": "徳島県美馬郡つるぎ町半田字下喜来1", "P29_006": "3", "P29_007": "9", "P29_008": "00", "P29_009": null }, "geometry": { "type": "Point", "coordinates": [ 134.025044163388685, 33.995589401897405 ] } },
{ "type": "Feature", "properties": { "P29_001": "36468", "P29_002": "B136246800031", "P29_003": "16001", "P29_004": "つるぎ町立貞光小学校", "P29_005": "徳島県美馬郡つるぎ町貞光字野口87", "P29_006": "3", "P29_007": "1", "P29_008": "00", "P29_009": null }, "geometry": { "type": "Point", "coordinates": [ 134.059725266888705, 34.037389259624625 ] } },
{ "type": "Feature", "properties": { "P29_001": "36468", "P29_002": "B136246800040", "P29_003": "16001", "P29_004": "つるぎ町立太田小学校", "P29_005": "徳島県美馬郡つるぎ町貞光字太田西107", "P29_006": "3", "P29_007": "1", "P29_008": "00", "P29_009": null }, "geometry": { "type": "Point", "coordinates": [ 134.08021882434079, 34.044574088559713 ] } },
{ "type": "Feature", "properties": { "P29_001": "36468", "P29_002": "B136246800059", "P29_003": "16001", "P29_004": "つるぎ町立古見小学校", "P29_005": "徳島県美馬郡つるぎ町一宇字太刀之本5-4", "P29_006": "3", "P29_007": "9", "P29_008": "00", "P29_009": null }, "geometry": { "type": "Point", "coordinates": [ 134.06219565211893, 33.951164321198554 ] } },
{ "type": "Feature", "properties": { "P29_001": "36489", "P29_002": "B136248900018", "P29_003": "16001", "P29_004": "東みよし町立足代小学校", "P29_005": "徳島県三好郡東みよし町足代2708", "P29_006": "3", "P29_007": "1", "P29_008": "00", "P29_009": null }, "geometry": { "type": "Point", "coordinates": [ 133.902434998593236, 34.043695002436415 ] } },
{ "type": "Feature", "properties": { "P29_001": "36489", "P29_002": "B136248900027", "P29_003": "16001", "P29_004": "東みよし町立昼間小学校", "P29_005": "徳島県三好郡東みよし町昼間1637", "P29_006": "3", "P29_007": "1", "P29_008": "00", "P29_009": null }, "geometry": { "type": "Point", "coordinates": [ 133.876638185263516, 34.0415290868266 ] } },
{ "type": "Feature", "properties": { "P29_001": "36489", "P29_002": "B136248900036", "P29_003": "16001", "P29_004": "東みよし町立加茂小学校", "P29_005": "徳島県三好郡東みよし町加茂2688", "P29_006": "3", "P29_007": "1", "P29_008": "00", "P29_009": null }, "geometry": { "type": "Point", "coordinates": [ 133.923348999708708, 34.036557001609886 ] } },
{ "type": "Feature", "properties": { "P29_001": "36489", "P29_002": "B136248900045", "P29_003": "16001", "P29_004": "東みよし町立三庄小学校", "P29_005": "徳島県三好郡東みよし町中庄1130-1", "P29_006": "3", "P29_007": "1", "P29_008": "00", "P29_009": null }, "geometry": { "type": "Point", "coordinates": [ 133.947392254276167, 34.038768313731651 ] } },
{ "type": "Feature", "properties": { "P29_001": "36201", "P29_002": "B136320100013", "P29_003": "16001", "P29_004": "学校法人生光学園生光学園小学校", "P29_005": "徳島県徳島市応神町中原字宮ノ前38", "P29_006": "4", "P29_007": "1", "P29_008": "00", "P29_009": null }, "geometry": { "type": "Point", "coordinates": [ 134.53394550330907, 34.109524890777401 ] } },
{ "type": "Feature", "properties": { "P29_001": "36201", "P29_002": "B136320100022", "P29_003": "16001", "P29_004": "徳島文理小学校", "P29_005": "徳島県徳島市山城町東浜傍示68-10", "P29_006": "4", "P29_007": "1", "P29_008": "00", "P29_009": null }, "geometry": { "type": "Point", "coordinates": [ 134.558672615829778, 34.047668967265388 ] } }
]
}
