{
"type": "FeatureCollection",
"name": "geo_36_高校",
"crs": { "type": "name", "properties": { "name": "urn:ogc:def:crs:EPSG::6668" } },
"features": [
{ "type": "Feature", "properties": { "P29_001": "36201", "P29_002": "D136220100011", "P29_003": "16004", "P29_004": "徳島県立城東高等学校", "P29_005": "徳島県徳島市中徳島町1-5", "P29_006": "2", "P29_007": "0", "P29_008": "00", "P29_009": null }, "geometry": { "type": "Point", "coordinates": [ 134.559165885926603, 34.072803638622005 ] } },
{ "type": "Feature", "properties": { "P29_001": "36201", "P29_002": "D136220100020", "P29_003": "16004", "P29_004": "徳島県立城南高等学校", "P29_005": "徳島県徳島市城南町2-2-88", "P29_006": "2", "P29_007": "0", "P29_008": "00", "P29_009": null }, "geometry": { "type": "Point", "coordinates": [ 134.542506613155524, 34.055088384808009 ] } },
{ "type": "Feature", "properties": { "P29_001": "36201", "P29_002": "D136220100039", "P29_003": "16004", "P29_004": "徳島県立城北高等学校", "P29_005": "徳島県徳島市北田宮4-13-6", "P29_006": "2", "P29_007": "0", "P29_008": "00", "P29_009": null }, "geometry": { "type": "Point", "coordinates": [ 134.530796557252103, 34.089303039431854 ] } },
{ "type": "Feature", "properties": { "P29_001": "36402", "P29_002": "D136220100057", "P29_003": "16004", "P29_004": "徳島県立徳島北高等学校", "P29_005": "徳島県徳島市応神町吉成字中ノ瀬40-6", "P29_006": "2", "P29_007": "0", "P29_008": "00", "P29_009": null }, "geometry": { "type": "Point", "coordinates": [ 134.529405718644028, 34.125985776491937 ] } },
{ "type": "Feature", "properties": { "P29_001": "36201", "P29_002": "D136220100066", "P29_003": "16004", "P29_004": "徳島県立城西高等学校", "P29_005": "徳島県徳島市鮎喰町2-1", "P29_006": "2", "P29_007": "0", "P29_008": "00", "P29_009": null }, "geometry": { "type": "Point", "coordinates": [ 134.502142633445203, 34.070298584729571 ] } },
{ "type": "Feature", "properties": { "P29_001": "36201", "P29_002": "D136220100075", "P29_003": "16004", "P29_004": "徳島県立徳島科学技術高等学校", "P29_005": "徳島県徳島市北矢三町2-1-1", "P29_006": "2", "P29_007": "0", "P29_008": "00", "P29_009": null }, "geometry": { "type": "Point", "coordinates": [ 134.525059374152278, 34.085998359744572 ] } },
{ "type": "Feature", "properties": { "P29_001": "36201", "P29_002": "D136220100084", "P29_003": "16004", "P29_004": "徳島県立徳島商業高等学校", "P29_005": "徳島県徳島市城東町1-4-1", "P29_006": "2", "P29_007": "0", "P29_008": "00", "P29_009": null }, "geometry": { "type": "Point", "coordinates": [ 134.573178525026236, 34.074481144873197 ] } },
{ "type": "Feature", "properties": { "P29_001": "36201", "P29_002": "D136220100093", "P29_003": "16004", "P29_004": "徳島県立徳島中央高等学校", "P29_005": "徳島県徳島市北矢三町1-3-8", "P29_006": "2", "P29_007": "0", "P29_008": "00", "P29_009": null }, "geometry": { "type": "Point", "coordinates": [ 134.52669426527018, 34.087968976944104 ] } },
{ "type": "Feature", "properties": { "P29_001": "36201", "P29_002": "D136220100100", "P29_003": "16004", "P29_004": "徳島市立高等学校", "P29_005": "徳島県徳島市北沖洲1-15-60", "P29_006": "3", "P29_007": "0", "P29_008": "00", "P29_009": null }, "geometry": { "type": "Point", "coordinates": [ 134.579195023447312, 34.072077802452611 ] } },
{ "type": "Feature", "properties": { "P29_001": "36202", "P29_002": "D136220200010", "P29_003": "16004", "P29_004": "徳島県立鳴門高等学校", "P29_005": "徳島県鳴門市撫養町斎田字岩崎135-1", "P29_006": "2", "P29_007": "0", "P29_008": "00", "P29_009": null }, "geometry": { "type": "Point", "coordinates": [ 134.600974568017818, 34.17849276561266 ] } },
{ "type": "Feature", "properties": { "P29_001": "36202", "P29_002": "D136220200029", "P29_003": "16004", "P29_004": "徳島県立鳴門渦潮高等学校", "P29_005": "徳島県鳴門市大津町吉永595", "P29_006": "2", "P29_007": "0", "P29_008": "01", "P29_009": null }, "geometry": { "type": "Point", "coordinates": [ 134.602469971703613, 34.165698353673918 ] } },
{ "type": "Feature", "properties": { "P29_001": "36203", "P29_002": "D136220300019", "P29_003": "16004", "P29_004": "徳島県立小松島高等学校", "P29_005": "徳島県小松島市日開野町字高須47-1", "P29_006": "2", "P29_007": "0", "P29_008": "00", "P29_009": null }, "geometry": { "type": "Point", "coordinates": [ 134.587136717862194, 34.004368142882555 ] } },
{ "type": "Feature", "properties": { "P29_001": "36203", "P29_002": "D136220300028", "P29_003": "16004", "P29_004": "徳島県立小松島西高等学校", "P29_005": "徳島県小松島市中田町字原ノ下28-1", "P29_006": "2", "P29_007": "0", "P29_008": "00", "P29_009": null }, "geometry": { "type": "Point", "coordinates": [ 134.577751461335879, 34.015455112879067 ] } },
{ "type": "Feature", "properties": { "P29_001": "36204", "P29_002": "D136220300046", "P29_003": "16004", "P29_004": "徳島県立富岡西高等学校", "P29_005": "徳島県阿南市富岡町小山18-3", "P29_006": "2", "P29_007": "0", "P29_008": "00", "P29_009": null }, "geometry": { "type": "Point", "coordinates": [ 134.650150362757415, 33.919416064701245 ] } },
{ "type": "Feature", "properties": { "P29_001": "36204", "P29_002": "D136220400018", "P29_003": "16004", "P29_004": "徳島県立阿南光高等学校", "P29_005": "徳島県阿南市宝田町今市中新開10-6", "P29_006": "2", "P29_007": "0", "P29_008": "01", "P29_009": null }, "geometry": { "type": "Point", "coordinates": [ 134.639262407767603, 33.925291807365973 ] } },
{ "type": "Feature", "properties": { "P29_001": "36204", "P29_002": "D136220400027", "P29_003": "16004", "P29_004": "徳島県立富岡東高等学校", "P29_005": "徳島県阿南市領家町走寄102-2", "P29_006": "2", "P29_007": "0", "P29_008": "00", "P29_009": null }, "geometry": { "type": "Point", "coordinates": [ 134.664920985618409, 33.921447507101874 ] } },
{ "type": "Feature", "properties": { "P29_001": "36204", "P29_002": "D136220400036", "P29_003": "16004", "P29_004": "徳島県立富岡東高等学校羽ノ浦校", "P29_005": "徳島県阿南市羽ノ浦町中庄市50-1", "P29_006": "2", "P29_007": "0", "P29_008": "00", "P29_009": null }, "geometry": { "type": "Point", "coordinates": [ 134.628024723557331, 33.959770452323639 ] } },
{ "type": "Feature", "properties": { "P29_001": "36205", "P29_002": "D136220500017", "P29_003": "16004", "P29_004": "徳島県立吉野川高等学校", "P29_005": "徳島県吉野川市鴨島町喜来681-9", "P29_006": "2", "P29_007": "0", "P29_008": "00", "P29_009": null }, "geometry": { "type": "Point", "coordinates": [ 134.363736963841973, 34.07836577709606 ] } },
{ "type": "Feature", "properties": { "P29_001": "36205", "P29_002": "D136220500026", "P29_003": "16004", "P29_004": "徳島県立川島高等学校", "P29_005": "徳島県吉野川市川島町桑村367-3", "P29_006": "2", "P29_007": "0", "P29_008": "00", "P29_009": null }, "geometry": { "type": "Point", "coordinates": [ 134.324699307738683, 34.059271666626863 ] } },
{ "type": "Feature", "properties": { "P29_001": "36206", "P29_002": "D136220600016", "P29_003": "16004", "P29_004": "徳島県立阿波高等学校", "P29_005": "徳島県阿波市吉野町柿原字ヒロナカ180", "P29_006": "2", "P29_007": "0", "P29_008": "00", "P29_009": null }, "geometry": { "type": "Point", "coordinates": [ 134.351584102028937, 34.09908561240681 ] } },
{ "type": "Feature", "properties": { "P29_001": "36206", "P29_002": "D136220600025", "P29_003": "16004", "P29_004": "徳島県立阿波西高等学校", "P29_005": "徳島県阿波市阿波町下喜来南228-1", "P29_006": "2", "P29_007": "0", "P29_008": "00", "P29_009": null }, "geometry": { "type": "Point", "coordinates": [ 134.264946305909234, 34.088252771539153 ] } },
{ "type": "Feature", "properties": { "P29_001": "36207", "P29_002": "D136220700015", "P29_003": "16004", "P29_004": "徳島県立穴吹高等学校", "P29_005": "徳島県美馬市穴吹町穴吹字岡33", "P29_006": "2", "P29_007": "0", "P29_008": "00", "P29_009": null }, "geometry": { "type": "Point", "coordinates": [ 134.167389866596778, 34.052715364900592 ] } },
{ "type": "Feature", "properties": { "P29_001": "36207", "P29_002": "D136220700024", "P29_003": "16004", "P29_004": "徳島県立脇町高等学校", "P29_005": "徳島県美馬市脇町大字脇町1270-2", "P29_006": "2", "P29_007": "0", "P29_008": "00", "P29_009": null }, "geometry": { "type": "Point", "coordinates": [ 134.148530058738032, 34.070999102369818 ] } },
{ "type": "Feature", "properties": { "P29_001": "36208", "P29_002": "D136220800014", "P29_003": "16004", "P29_004": "徳島県立池田高等学校", "P29_005": "徳島県三好市池田町ウエノ2834", "P29_006": "2", "P29_007": "0", "P29_008": "00", "P29_009": null }, "geometry": { "type": "Point", "coordinates": [ 133.803945977272463, 34.030597191550754 ] } },
{ "type": "Feature", "properties": { "P29_001": "36208", "P29_002": "D136220800023", "P29_003": "16004", "P29_004": "徳島県立池田高等学校辻校", "P29_005": "徳島県三好市井川町御領田61-1", "P29_006": "2", "P29_007": "0", "P29_008": "00", "P29_009": null }, "geometry": { "type": "Point", "coordinates": [ 133.874794594866557, 34.028865250801914 ] } },
{ "type": "Feature", "properties": { "P29_001": "36208", "P29_002": "D136220800032", "P29_003": "16004", "P29_004": "徳島県立池田高等学校三好校", "P29_005": "徳島県三好市池田町州津大深田720", "P29_006": "2", "P29_007": "0", "P29_008": "00", "P29_009": null }, "geometry": { "type": "Point", "coordinates": [ 133.849469900439601, 34.038048104474043 ] } },
{ "type": "Feature", "properties": { "P29_001": "36301", "P29_002": "D136230100010", "P29_003": "16004", "P29_004": "徳島県立小松島西高等学校勝浦校", "P29_005": "徳島県勝浦郡勝浦町大字久国字屋原1", "P29_006": "2", "P29_007": "0", "P29_008": "00", "P29_009": null }, "geometry": { "type": "Point", "coordinates": [ 134.513336657315932, 33.931713608520774 ] } },
{ "type": "Feature", "properties": { "P29_001": "36341", "P29_002": "D136234100012", "P29_003": "16004", "P29_004": "徳島県立名西高等学校", "P29_005": "徳島県名西郡石井町石井字石井21-11", "P29_006": "2", "P29_007": "0", "P29_008": "00", "P29_009": null }, "geometry": { "type": "Point", "coordinates": [ 134.440718719334143, 34.072598687700392 ] } },
{ "type": "Feature", "properties": { "P29_001": "36342", "P29_002": "D136234200011", "P29_003": "16004", "P29_004": "徳島県立城西高等学校神山校", "P29_005": "徳島県名西郡神山町神領字北399", "P29_006": "2", "P29_007": "0", "P29_008": "00", "P29_009": null }, "geometry": { "type": "Point", "coordinates": [ 134.342982761964237, 33.968849247231276 ] } },
{ "type": "Feature", "properties": { "P29_001": "36368", "P29_002": "D136236800010", "P29_003": "16004", "P29_004": "徳島県立那賀高等学校", "P29_005": "徳島県那賀郡那賀町小仁宇字大坪179-1", "P29_006": "2", "P29_007": "0", "P29_008": "00", "P29_009": null }, "geometry": { "type": "Point", "coordinates": [ 134.481587596305644, 33.857492191437437 ] } },
{ "type": "Feature", "properties": { "P29_001": "36388", "P29_002": "D136238800016", "P29_003": "16004", "P29_004": "徳島県立海部高等学校", "P29_005": "徳島県海部郡海陽町大里字古畑58-2", "P29_006": "2", "P29_007": "0", "P29_008": "00", "P29_009": null }, "geometry": { "type": "Point", "coordinates": [ 134.357767820795857, 33.607718650255627 ] } },
{ "type": "Feature", "properties": { "P29_001": "36404", "P29_002": "D136240400016", "P29_003": "16004", "P29_004": "徳島県立板野高等学校", "P29_005": "徳島県板野郡板野町川端字関ノ本47", "P29_006": "2", "P29_007": "0", "P29_008": "00", "P29_009": null }, "geometry": { "type": "Point", "coordinates": [ 134.469739009573289, 34.141237016396218 ] } },
{ "type": "Feature", "properties": { "P29_001": "36468", "P29_002": "D136246800019", "P29_003": "16004", "P29_004": "徳島県立つるぎ高等学校", "P29_005": "徳島県美馬郡つるぎ町貞光字馬出63-2", "P29_006": "2", "P29_007": "0", "P29_008": "00", "P29_009": null }, "geometry": { "type": "Point", "coordinates": [ 134.056803086792371, 34.041031784281309 ] } },
{ "type": "Feature", "properties": { "P29_001": "36201", "P29_002": "D136320100019", "P29_003": "16004", "P29_004": "香蘭高等学校", "P29_005": "徳島県徳島市北前川町2-8", "P29_006": "4", "P29_007": "0", "P29_008": "00", "P29_009": null }, "geometry": { "type": "Point", "coordinates": [ 134.554452803925813, 34.08090446993743 ] } },
{ "type": "Feature", "properties": { "P29_001": "36201", "P29_002": "D136320100028", "P29_003": "16004", "P29_004": "徳島文理高等学校", "P29_005": "徳島県徳島市山城西4-20", "P29_006": "4", "P29_007": "0", "P29_008": "00", "P29_009": null }, "geometry": { "type": "Point", "coordinates": [ 134.556030715445701, 34.048345734775182 ] } },
{ "type": "Feature", "properties": { "P29_001": "36201", "P29_002": "D136320100037", "P29_003": "16004", "P29_004": "学校法人生光学園生光学園高等学校", "P29_005": "徳島県徳島市応神町中原字宮ノ前38", "P29_006": "4", "P29_007": "0", "P29_008": "00", "P29_009": null }, "geometry": { "type": "Point", "coordinates": [ 134.533955380297158, 34.109411506626941 ] } },
{ "type": "Feature", "properties": { "P29_001": "36202", "P29_002": "D136220200029", "P29_003": "16004", "P29_004": "徳島県立鳴門渦潮高等学校", "P29_005": "徳島県鳴門市撫養町南浜馬目木58", "P29_006": "2", "P29_007": "0", "P29_008": "02", "P29_009": "撫養キャンパス" }, "geometry": { "type": "Point", "coordinates": [ 134.59505590971699, 34.172430946530454 ] } },
{ "type": "Feature", "properties": { "P29_001": "36204", "P29_002": "D136220400018", "P29_003": "16004", "P29_004": "徳島県立阿南光高等学校", "P29_005": "徳島県阿南市新野町室ノ久保12", "P29_006": "2", "P29_007": "0", "P29_008": "02", "P29_009": "新野キャンパス" }, "geometry": { "type": "Point", "coordinates": [ 134.596052240120144, 33.850373441339393 ] } }
]
}
