{
"type": "FeatureCollection",
"name": "geo_36_幼稚園",
"crs": { "type": "name", "properties": { "name": "urn:ogc:def:crs:EPSG::6668" } },
"features": [
{ "type": "Feature", "properties": { "P29_001": "36201", "P29_002": "A136110000011", "P29_003": "16011", "P29_004": "鳴門教育大学附属幼稚園", "P29_005": "徳島県徳島市南前川町2-11-1", "P29_006": "1", "P29_007": "0", "P29_008": "00", "P29_009": null }, "geometry": { "type": "Point", "coordinates": [ 134.554650994276017, 34.077898998450273 ] } },
{ "type": "Feature", "properties": { "P29_001": "36201", "P29_002": "A136220100026", "P29_003": "16011", "P29_004": "徳島市立富田幼稚園", "P29_005": "徳島県徳島市富田橋2-28", "P29_006": "3", "P29_007": "0", "P29_008": "00", "P29_009": null }, "geometry": { "type": "Point", "coordinates": [ 134.553715300226202, 34.062316161979865 ] } },
{ "type": "Feature", "properties": { "P29_001": "36201", "P29_002": "A136220100035", "P29_003": "16011", "P29_004": "徳島市立福島幼稚園", "P29_005": "徳島県徳島市福島1-7-53", "P29_006": "3", "P29_007": "0", "P29_008": "00", "P29_009": null }, "geometry": { "type": "Point", "coordinates": [ 134.565659252436802, 34.070048306162882 ] } },
{ "type": "Feature", "properties": { "P29_001": "36201", "P29_002": "A136220100044", "P29_003": "16011", "P29_004": "徳島市立助任幼稚園", "P29_005": "徳島県徳島市北前川町2-10", "P29_006": "3", "P29_007": "0", "P29_008": "00", "P29_009": null }, "geometry": { "type": "Point", "coordinates": [ 134.555163804534061, 34.080730001155707 ] } },
{ "type": "Feature", "properties": { "P29_001": "36201", "P29_002": "A136220100053", "P29_003": "16011", "P29_004": "徳島市立津田幼稚園", "P29_005": "徳島県徳島市津田西町2-5-34", "P29_006": "3", "P29_007": "0", "P29_008": "00", "P29_009": null }, "geometry": { "type": "Point", "coordinates": [ 134.574000205667858, 34.04878296138402 ] } },
{ "type": "Feature", "properties": { "P29_001": "36201", "P29_002": "A136220100062", "P29_003": "16011", "P29_004": "徳島市立加茂名幼稚園", "P29_005": "徳島県徳島市庄町5-14-8", "P29_006": "3", "P29_007": "0", "P29_008": "00", "P29_009": null }, "geometry": { "type": "Point", "coordinates": [ 134.500271195686111, 34.070142607791595 ] } },
{ "type": "Feature", "properties": { "P29_001": "36201", "P29_002": "A136220100099", "P29_003": "16011", "P29_004": "徳島市立八万幼稚園", "P29_005": "徳島県徳島市城南町4-1-56", "P29_006": "3", "P29_007": "0", "P29_008": "00", "P29_009": null }, "geometry": { "type": "Point", "coordinates": [ 134.542138996256057, 34.052921001096173 ] } },
{ "type": "Feature", "properties": { "P29_001": "36201", "P29_002": "A136220100106", "P29_003": "16011", "P29_004": "徳島市立千松幼稚園", "P29_005": "徳島県徳島市南矢三町1-7-68", "P29_006": "3", "P29_007": "0", "P29_008": "00", "P29_009": null }, "geometry": { "type": "Point", "coordinates": [ 134.531122996950756, 34.084254002516019 ] } },
{ "type": "Feature", "properties": { "P29_001": "36201", "P29_002": "A136220100124", "P29_003": "16011", "P29_004": "徳島市立上八万幼稚園", "P29_005": "徳島県徳島市上八万町樋口151-1", "P29_006": "3", "P29_007": "0", "P29_008": "00", "P29_009": null }, "geometry": { "type": "Point", "coordinates": [ 134.508295001305299, 34.035472996758415 ] } },
{ "type": "Feature", "properties": { "P29_001": "36201", "P29_002": "A136220100133", "P29_003": "16011", "P29_004": "徳島市立入田幼稚園", "P29_005": "徳島県徳島市入田町笠木11", "P29_006": "3", "P29_007": "0", "P29_008": "00", "P29_009": null }, "geometry": { "type": "Point", "coordinates": [ 134.441426862908287, 34.038738536477155 ] } },
{ "type": "Feature", "properties": { "P29_001": "36201", "P29_002": "A136220100151", "P29_003": "16011", "P29_004": "徳島市立川内北幼稚園", "P29_005": "徳島県徳島市川内町大松21-3", "P29_006": "3", "P29_007": "0", "P29_008": "00", "P29_009": null }, "geometry": { "type": "Point", "coordinates": [ 134.573200713894806, 34.114335977947839 ] } },
{ "type": "Feature", "properties": { "P29_001": "36201", "P29_002": "A136220100160", "P29_003": "16011", "P29_004": "徳島市立応神幼稚園", "P29_005": "徳島県徳島市応神町吉成字長田93-1", "P29_006": "3", "P29_007": "0", "P29_008": "00", "P29_009": null }, "geometry": { "type": "Point", "coordinates": [ 134.528141997238265, 34.115466999546911 ] } },
{ "type": "Feature", "properties": { "P29_001": "36201", "P29_002": "A136220100179", "P29_003": "16011", "P29_004": "徳島市立国府幼稚園", "P29_005": "徳島県徳島市国府町中62-2", "P29_006": "3", "P29_007": "0", "P29_008": "00", "P29_009": null }, "geometry": { "type": "Point", "coordinates": [ 134.483645000579685, 34.06767900101736 ] } },
{ "type": "Feature", "properties": { "P29_001": "36201", "P29_002": "A136220100204", "P29_003": "16011", "P29_004": "徳島市立八万南幼稚園", "P29_005": "徳島県徳島市八万町橋本93-3", "P29_006": "3", "P29_007": "0", "P29_008": "00", "P29_009": null }, "geometry": { "type": "Point", "coordinates": [ 134.531230988411949, 34.04255301696297 ] } },
{ "type": "Feature", "properties": { "P29_001": "36202", "P29_002": "A136220200016", "P29_003": "16011", "P29_004": "鳴門市撫養幼稚園", "P29_005": "徳島県鳴門市撫養町斎田字岩崎135-3", "P29_006": "3", "P29_007": "0", "P29_008": "00", "P29_009": null }, "geometry": { "type": "Point", "coordinates": [ 134.60124500501891, 34.17774700027185 ] } },
{ "type": "Feature", "properties": { "P29_001": "36202", "P29_002": "A136220200025", "P29_003": "16011", "P29_004": "鳴門市精華幼稚園", "P29_005": "徳島県鳴門市撫養町立岩字内田73", "P29_006": "3", "P29_007": "0", "P29_008": "00", "P29_009": null }, "geometry": { "type": "Point", "coordinates": [ 134.616778999604065, 34.175777997172148 ] } },
{ "type": "Feature", "properties": { "P29_001": "36202", "P29_002": "A136220200043", "P29_003": "16011", "P29_004": "鳴門市桑島幼稚園", "P29_005": "徳島県鳴門市撫養町大桑島字与三左谷32", "P29_006": "3", "P29_007": "0", "P29_008": "00", "P29_009": null }, "geometry": { "type": "Point", "coordinates": [ 134.60767800489603, 34.183922001400497 ] } },
{ "type": "Feature", "properties": { "P29_001": "36202", "P29_002": "A136220200052", "P29_003": "16011", "P29_004": "鳴門市第一幼稚園", "P29_005": "徳島県鳴門市大津町木津野字薮の内55-2", "P29_006": "3", "P29_007": "0", "P29_008": "00", "P29_009": null }, "geometry": { "type": "Point", "coordinates": [ 134.592616000600401, 34.16902000325701 ] } },
{ "type": "Feature", "properties": { "P29_001": "36202", "P29_002": "A136220200098", "P29_003": "16011", "P29_004": "鳴門市明神幼稚園", "P29_005": "徳島県鳴門市瀬戸町明神字越浦70", "P29_006": "3", "P29_007": "0", "P29_008": "00", "P29_009": null }, "geometry": { "type": "Point", "coordinates": [ 134.580451983937451, 34.201532518756501 ] } },
{ "type": "Feature", "properties": { "P29_001": "36202", "P29_002": "A136220200141", "P29_003": "16011", "P29_004": "鳴門市堀江北幼稚園", "P29_005": "徳島県鳴門市大麻町大谷字中筋53", "P29_006": "3", "P29_007": "0", "P29_008": "00", "P29_009": null }, "geometry": { "type": "Point", "coordinates": [ 134.539948003442646, 34.158807004018186 ] } },
{ "type": "Feature", "properties": { "P29_001": "36202", "P29_002": "A136220200169", "P29_003": "16011", "P29_004": "鳴門市板東幼稚園", "P29_005": "徳島県鳴門市大麻町板東字采女34", "P29_006": "3", "P29_007": "0", "P29_008": "00", "P29_009": null }, "geometry": { "type": "Point", "coordinates": [ 134.503037998556522, 34.15593699707474 ] } },
{ "type": "Feature", "properties": { "P29_001": "36203", "P29_002": "A136220300015", "P29_003": "16011", "P29_004": "小松島市南小松島幼稚園", "P29_005": "徳島県小松島市小松島町字高須36", "P29_006": "3", "P29_007": "0", "P29_008": "00", "P29_009": null }, "geometry": { "type": "Point", "coordinates": [ 134.585846996001692, 34.005402003849326 ] } },
{ "type": "Feature", "properties": { "P29_001": "36204", "P29_002": "A136220400014", "P29_003": "16011", "P29_004": "阿南市立横見幼稚園", "P29_005": "徳島県阿南市横見町上木戸49-1", "P29_006": "3", "P29_007": "0", "P29_008": "00", "P29_009": null }, "geometry": { "type": "Point", "coordinates": [ 134.656013004607217, 33.928999003898753 ] } },
{ "type": "Feature", "properties": { "P29_001": "36204", "P29_002": "A136220400023", "P29_003": "16011", "P29_004": "阿南市立加茂谷幼稚園", "P29_005": "徳島県阿南市吉井町原33", "P29_006": "3", "P29_007": "0", "P29_008": "00", "P29_009": null }, "geometry": { "type": "Point", "coordinates": [ 134.558554287262496, 33.921980256937857 ] } },
{ "type": "Feature", "properties": { "P29_001": "36204", "P29_002": "A136220400032", "P29_003": "16011", "P29_004": "阿南市立大野幼稚園", "P29_005": "徳島県阿南市下大野町三条15-5", "P29_006": "3", "P29_007": "0", "P29_008": "00", "P29_009": null }, "geometry": { "type": "Point", "coordinates": [ 134.595043996670597, 33.934348999961983 ] } },
{ "type": "Feature", "properties": { "P29_001": "36204", "P29_002": "A136220400041", "P29_003": "16011", "P29_004": "阿南市立富岡幼稚園", "P29_005": "徳島県阿南市領家町浜田182-1", "P29_006": "3", "P29_007": "0", "P29_008": "00", "P29_009": null }, "geometry": { "type": "Point", "coordinates": [ 134.668719998631957, 33.922941003460593 ] } },
{ "type": "Feature", "properties": { "P29_001": "36204", "P29_002": "A136220400050", "P29_003": "16011", "P29_004": "阿南市立新野東幼稚園", "P29_005": "徳島県阿南市新野町名光120-2", "P29_006": "3", "P29_007": "0", "P29_008": "00", "P29_009": null }, "geometry": { "type": "Point", "coordinates": [ 134.603308998187998, 33.844464998117338 ] } },
{ "type": "Feature", "properties": { "P29_001": "36204", "P29_002": "A136220400069", "P29_003": "16011", "P29_004": "阿南市立新野西幼稚園", "P29_005": "徳島県阿南市新野町友常1", "P29_006": "3", "P29_007": "0", "P29_008": "00", "P29_009": null }, "geometry": { "type": "Point", "coordinates": [ 134.541464998331151, 33.838490003539654 ] } },
{ "type": "Feature", "properties": { "P29_001": "36204", "P29_002": "A136220400078", "P29_003": "16011", "P29_004": "阿南市立大井幼稚園", "P29_005": "徳島県阿南市大井町東平125", "P29_006": "3", "P29_007": "0", "P29_008": "00", "P29_009": null }, "geometry": { "type": "Point", "coordinates": [ 134.517940001909551, 33.909797998691992 ] } },
{ "type": "Feature", "properties": { "P29_001": "36204", "P29_002": "A136220400087", "P29_003": "16011", "P29_004": "阿南市立見能林幼稚園", "P29_005": "徳島県阿南市見能林町東野10-2", "P29_006": "3", "P29_007": "0", "P29_008": "00", "P29_009": null }, "geometry": { "type": "Point", "coordinates": [ 134.673127668367727, 33.899359490229813 ] } },
{ "type": "Feature", "properties": { "P29_001": "36207", "P29_002": "A136220700011", "P29_003": "16011", "P29_004": "美馬市立脇町幼稚園", "P29_005": "徳島県美馬市脇町大字猪尻字西ノ久保116", "P29_006": "3", "P29_007": "0", "P29_008": "00", "P29_009": null }, "geometry": { "type": "Point", "coordinates": [ 134.151266997241464, 34.070421003906191 ] } },
{ "type": "Feature", "properties": { "P29_001": "36207", "P29_002": "A136220700020", "P29_003": "16011", "P29_004": "美馬市立江原北幼稚園", "P29_005": "徳島県美馬市脇町字西赤谷3744-2", "P29_006": "3", "P29_007": "0", "P29_008": "00", "P29_009": null }, "geometry": { "type": "Point", "coordinates": [ 134.171078002411633, 34.111745997114362 ] } },
{ "type": "Feature", "properties": { "P29_001": "36207", "P29_002": "A136220700048", "P29_003": "16011", "P29_004": "美馬市立木屋平幼稚園", "P29_005": "徳島県美馬市木屋平字谷口235-1", "P29_006": "3", "P29_007": "0", "P29_008": "00", "P29_009": null }, "geometry": { "type": "Point", "coordinates": [ 134.175714337451495, 33.915001006330471 ] } },
{ "type": "Feature", "properties": { "P29_001": "36208", "P29_002": "A136220800010", "P29_003": "16011", "P29_004": "三好市立三野幼稚園", "P29_005": "徳島県三好市三野町太刀野970", "P29_006": "3", "P29_007": "0", "P29_008": "00", "P29_009": null }, "geometry": { "type": "Point", "coordinates": [ 133.953164516961152, 34.048102092035762 ] } },
{ "type": "Feature", "properties": { "P29_001": "36208", "P29_002": "A136220800029", "P29_003": "16011", "P29_004": "三好市立白地幼稚園", "P29_005": "徳島県三好市池田町白地本名155", "P29_006": "3", "P29_007": "0", "P29_008": "00", "P29_009": null }, "geometry": { "type": "Point", "coordinates": [ 133.781738893709445, 34.016897409605825 ] } },
{ "type": "Feature", "properties": { "P29_001": "36208", "P29_002": "A136220800038", "P29_003": "16011", "P29_004": "三好市立馬路幼稚園", "P29_005": "徳島県三好市池田町馬路立石33-1", "P29_006": "3", "P29_007": "0", "P29_008": "00", "P29_009": null }, "geometry": { "type": "Point", "coordinates": [ 133.735052998834846, 34.009783000913593 ] } },
{ "type": "Feature", "properties": { "P29_001": "36208", "P29_002": "A136220800047", "P29_003": "16011", "P29_004": "三好市立三繩幼稚園", "P29_005": "徳島県三好市池田町中西イバ504-11", "P29_006": "3", "P29_007": "0", "P29_008": "00", "P29_009": null }, "geometry": { "type": "Point", "coordinates": [ 133.791231001676834, 33.996977002062209 ] } },
{ "type": "Feature", "properties": { "P29_001": "36208", "P29_002": "A136220800056", "P29_003": "16011", "P29_004": "三好市立川崎幼稚園", "P29_005": "徳島県三好市池田町川崎浪会31", "P29_006": "3", "P29_007": "0", "P29_008": "00", "P29_009": null }, "geometry": { "type": "Point", "coordinates": [ 133.774295455791759, 33.968070051177904 ] } },
{ "type": "Feature", "properties": { "P29_001": "36208", "P29_002": "A136220800065", "P29_003": "16011", "P29_004": "三好市立池田幼稚園", "P29_005": "徳島県三好市池田町ウエノ2869-2", "P29_006": "3", "P29_007": "0", "P29_008": "00", "P29_009": null }, "geometry": { "type": "Point", "coordinates": [ 133.808816267768066, 34.030857738222615 ] } },
{ "type": "Feature", "properties": { "P29_001": "36208", "P29_002": "A136220800083", "P29_003": "16011", "P29_004": "三好市立山城幼稚園", "P29_005": "徳島県三好市山城町大川持30-2", "P29_006": "3", "P29_007": "0", "P29_008": "00", "P29_009": null }, "geometry": { "type": "Point", "coordinates": [ 133.754169003798552, 33.966045004094191 ] } },
{ "type": "Feature", "properties": { "P29_001": "36208", "P29_002": "A136220800092", "P29_003": "16011", "P29_004": "三好市立下名幼稚園", "P29_005": "徳島県三好市山城町下名1001-1", "P29_006": "3", "P29_007": "0", "P29_008": "00", "P29_009": null }, "geometry": { "type": "Point", "coordinates": [ 133.772585923197909, 33.86992876419891 ] } },
{ "type": "Feature", "properties": { "P29_001": "36208", "P29_002": "A136220800109", "P29_003": "16011", "P29_004": "三好市立辻幼稚園", "P29_005": "徳島県三好市井川町辻39", "P29_006": "3", "P29_007": "0", "P29_008": "00", "P29_009": null }, "geometry": { "type": "Point", "coordinates": [ 133.878189995916728, 34.028019001901498 ] } },
{ "type": "Feature", "properties": { "P29_001": "36208", "P29_002": "A136220800118", "P29_003": "16011", "P29_004": "三好市立西井川幼稚園", "P29_005": "徳島県三好市井川町西井川610-1", "P29_006": "3", "P29_007": "0", "P29_008": "00", "P29_009": null }, "geometry": { "type": "Point", "coordinates": [ 133.843829329311518, 34.03236797218382 ] } },
{ "type": "Feature", "properties": { "P29_001": "36208", "P29_002": "A136220800127", "P29_003": "16011", "P29_004": "三好市立吾橋幼稚園", "P29_005": "徳島県三好市西祖谷山村下吾橋303-2", "P29_006": "3", "P29_007": "0", "P29_008": "00", "P29_009": null }, "geometry": { "type": "Point", "coordinates": [ 133.786706001592989, 33.866270001764605 ] } },
{ "type": "Feature", "properties": { "P29_001": "36341", "P29_002": "A136234100018", "P29_003": "16011", "P29_004": "石井町立石井幼稚園", "P29_005": "徳島県名西郡石井町石井字石井1165-2", "P29_006": "3", "P29_007": "0", "P29_008": "00", "P29_009": null }, "geometry": { "type": "Point", "coordinates": [ 134.444392771133238, 34.064565899182014 ] } },
{ "type": "Feature", "properties": { "P29_001": "36341", "P29_002": "A136234100027", "P29_003": "16011", "P29_004": "石井町立石井幼稚園尼寺分園", "P29_005": "徳島県名西郡石井町石井字尼寺71-2", "P29_006": "3", "P29_007": "0", "P29_008": "00", "P29_009": null }, "geometry": { "type": "Point", "coordinates": [ 134.465714615115928, 34.068500793609047 ] } },
{ "type": "Feature", "properties": { "P29_001": "36341", "P29_002": "A136234100036", "P29_003": "16011", "P29_004": "石井町立浦庄幼稚園", "P29_005": "徳島県名西郡石井町浦庄字下浦481-1", "P29_006": "3", "P29_007": "0", "P29_008": "00", "P29_009": null }, "geometry": { "type": "Point", "coordinates": [ 134.415753997896388, 34.065626004875107 ] } },
{ "type": "Feature", "properties": { "P29_001": "36341", "P29_002": "A136234100045", "P29_003": "16011", "P29_004": "石井町立高原幼稚園", "P29_005": "徳島県名西郡石井町高原字西高原214-1", "P29_006": "3", "P29_007": "0", "P29_008": "00", "P29_009": null }, "geometry": { "type": "Point", "coordinates": [ 134.421246674174625, 34.083596397340152 ] } },
{ "type": "Feature", "properties": { "P29_001": "36341", "P29_002": "A136234100054", "P29_003": "16011", "P29_004": "石井町立高川原幼稚園", "P29_005": "徳島県名西郡石井町高川原字高川原1258", "P29_006": "3", "P29_007": "0", "P29_008": "00", "P29_009": null }, "geometry": { "type": "Point", "coordinates": [ 134.44875000210277, 34.076489000321587 ] } },
{ "type": "Feature", "properties": { "P29_001": "36341", "P29_002": "A136234100063", "P29_003": "16011", "P29_004": "石井町立藍畑幼稚園", "P29_005": "徳島県名西郡石井町藍畑字東覚円670", "P29_006": "3", "P29_007": "0", "P29_008": "00", "P29_009": null }, "geometry": { "type": "Point", "coordinates": [ 134.441145241769249, 34.097891816911229 ] } },
{ "type": "Feature", "properties": { "P29_001": "36388", "P29_002": "A136238800012", "P29_003": "16011", "P29_004": "海陽町立海陽幼稚園", "P29_005": "徳島県海部郡海陽町四方原字広谷18", "P29_006": "3", "P29_007": "0", "P29_008": "00", "P29_009": null }, "geometry": { "type": "Point", "coordinates": [ 134.357340675008516, 33.614711541012554 ] } },
{ "type": "Feature", "properties": { "P29_001": "36401", "P29_002": "A136240100015", "P29_003": "16011", "P29_004": "松茂町立松茂幼稚園", "P29_005": "徳島県板野郡松茂町住吉字住吉開拓187", "P29_006": "3", "P29_007": "0", "P29_008": "00", "P29_009": null }, "geometry": { "type": "Point", "coordinates": [ 134.590038098766854, 34.132599009965311 ] } },
{ "type": "Feature", "properties": { "P29_001": "36401", "P29_002": "A136240100024", "P29_003": "16011", "P29_004": "松茂町立長原幼稚園", "P29_005": "徳島県板野郡松茂町長原535", "P29_006": "3", "P29_007": "0", "P29_008": "00", "P29_009": null }, "geometry": { "type": "Point", "coordinates": [ 134.603015528414375, 34.118134768119887 ] } },
{ "type": "Feature", "properties": { "P29_001": "36401", "P29_002": "A136240100033", "P29_003": "16011", "P29_004": "松茂町立喜来幼稚園", "P29_005": "徳島県板野郡松茂町中喜来字前原西一番越14", "P29_006": "3", "P29_007": "0", "P29_008": "00", "P29_009": null }, "geometry": { "type": "Point", "coordinates": [ 134.574189822514654, 34.142867492793037 ] } },
{ "type": "Feature", "properties": { "P29_001": "36402", "P29_002": "A136240200014", "P29_003": "16011", "P29_004": "北島町立北島幼稚園", "P29_005": "徳島県板野郡北島町中村字長池34-1", "P29_006": "3", "P29_007": "0", "P29_008": "00", "P29_009": null }, "geometry": { "type": "Point", "coordinates": [ 134.548969995243596, 34.124866001285703 ] } },
{ "type": "Feature", "properties": { "P29_001": "36402", "P29_002": "A136240200023", "P29_003": "16011", "P29_004": "北島町立北島北幼稚園", "P29_005": "徳島県板野郡北島町北村字壱町四反地24-3", "P29_006": "3", "P29_007": "0", "P29_008": "00", "P29_009": null }, "geometry": { "type": "Point", "coordinates": [ 134.552418701361688, 34.135962312235378 ] } },
{ "type": "Feature", "properties": { "P29_001": "36402", "P29_002": "A136240200032", "P29_003": "16011", "P29_004": "北島町立北島南幼稚園", "P29_005": "徳島県板野郡北島町鯛浜字向42", "P29_006": "3", "P29_007": "0", "P29_008": "00", "P29_009": null }, "geometry": { "type": "Point", "coordinates": [ 134.543032040210534, 34.118621901118701 ] } },
{ "type": "Feature", "properties": { "P29_001": "36403", "P29_002": "A136240300013", "P29_003": "16011", "P29_004": "藍住町立藍住北幼稚園", "P29_005": "徳島県板野郡藍住町住吉字乾1", "P29_006": "3", "P29_007": "0", "P29_008": "00", "P29_009": null }, "geometry": { "type": "Point", "coordinates": [ 134.505873996492852, 34.131819004642175 ] } },
{ "type": "Feature", "properties": { "P29_001": "36403", "P29_002": "A136240300022", "P29_003": "16011", "P29_004": "藍住町立藍住南幼稚園", "P29_005": "徳島県板野郡藍住町奥野字猪熊89-1", "P29_006": "3", "P29_007": "0", "P29_008": "00", "P29_009": null }, "geometry": { "type": "Point", "coordinates": [ 134.491912005341504, 34.123413004103504 ] } },
{ "type": "Feature", "properties": { "P29_001": "36403", "P29_002": "A136240300031", "P29_003": "16011", "P29_004": "藍住町立藍住西幼稚園", "P29_005": "徳島県板野郡藍住町富吉字地神79", "P29_006": "3", "P29_007": "0", "P29_008": "00", "P29_009": null }, "geometry": { "type": "Point", "coordinates": [ 134.488675997058664, 34.137658002035991 ] } },
{ "type": "Feature", "properties": { "P29_001": "36403", "P29_002": "A136240300040", "P29_003": "16011", "P29_004": "藍住町立藍住東幼稚園", "P29_005": "徳島県板野郡藍住町勝瑞字成長65", "P29_006": "3", "P29_007": "0", "P29_008": "00", "P29_009": null }, "geometry": { "type": "Point", "coordinates": [ 134.518923003702866, 34.128574001296485 ] } },
{ "type": "Feature", "properties": { "P29_001": "36404", "P29_002": "A136240400012", "P29_003": "16011", "P29_004": "板野町立板野東幼稚園", "P29_005": "徳島県板野郡板野町吹田字町東8-1", "P29_006": "3", "P29_007": "0", "P29_008": "00", "P29_009": null }, "geometry": { "type": "Point", "coordinates": [ 134.463524199732518, 34.147370641732088 ] } },
{ "type": "Feature", "properties": { "P29_001": "36404", "P29_002": "A136240400021", "P29_003": "16011", "P29_004": "板野町立板野東幼稚園大坂分園", "P29_005": "徳島県板野郡板野町大坂字宮東20", "P29_006": "3", "P29_007": "0", "P29_008": "00", "P29_009": null }, "geometry": { "type": "Point", "coordinates": [ 134.448152995876342, 34.178086001775256 ] } },
{ "type": "Feature", "properties": { "P29_001": "36404", "P29_002": "A136240400030", "P29_003": "16011", "P29_004": "板野町立板野西幼稚園", "P29_005": "徳島県板野郡板野町那東字楠木15", "P29_006": "3", "P29_007": "0", "P29_008": "00", "P29_009": null }, "geometry": { "type": "Point", "coordinates": [ 134.438147997631376, 34.135691004399945 ] } },
{ "type": "Feature", "properties": { "P29_001": "36404", "P29_002": "A136240400049", "P29_003": "16011", "P29_004": "板野町立板野南幼稚園", "P29_005": "徳島県板野郡板野町下庄字真弓71", "P29_006": "3", "P29_007": "0", "P29_008": "00", "P29_009": null }, "geometry": { "type": "Point", "coordinates": [ 134.457423502989997, 34.123697176517027 ] } },
{ "type": "Feature", "properties": { "P29_001": "36405", "P29_002": "A136240500011", "P29_003": "16011", "P29_004": "上板町立神宅幼稚園", "P29_005": "徳島県板野郡上板町神宅字喜来135", "P29_006": "3", "P29_007": "0", "P29_008": "00", "P29_009": null }, "geometry": { "type": "Point", "coordinates": [ 134.414002994584621, 34.133807001597333 ] } },
{ "type": "Feature", "properties": { "P29_001": "36405", "P29_002": "A136240500020", "P29_003": "16011", "P29_004": "上板町立東光幼稚園", "P29_005": "徳島県板野郡上板町西分字東光8", "P29_006": "3", "P29_007": "0", "P29_008": "00", "P29_009": null }, "geometry": { "type": "Point", "coordinates": [ 134.428473871419243, 34.117167747810214 ] } },
{ "type": "Feature", "properties": { "P29_001": "36405", "P29_002": "A136240500039", "P29_003": "16011", "P29_004": "上板町立高志幼稚園", "P29_005": "徳島県板野郡上板町高瀬字天目一1108", "P29_006": "3", "P29_007": "0", "P29_008": "00", "P29_009": null }, "geometry": { "type": "Point", "coordinates": [ 134.419185358178822, 34.104039463121843 ] } },
{ "type": "Feature", "properties": { "P29_001": "36405", "P29_002": "A136240500048", "P29_003": "16011", "P29_004": "上板町立松島幼稚園", "P29_005": "徳島県板野郡上板町鍛冶屋原字北原20", "P29_006": "3", "P29_007": "0", "P29_008": "00", "P29_009": null }, "geometry": { "type": "Point", "coordinates": [ 134.39965291264275, 34.120643588927784 ] } },
{ "type": "Feature", "properties": { "P29_001": "36468", "P29_002": "A136246800015", "P29_003": "16011", "P29_004": "つるぎ町立半田幼稚園", "P29_005": "徳島県美馬郡つるぎ町半田字田井289", "P29_006": "3", "P29_007": "0", "P29_008": "00", "P29_009": null }, "geometry": { "type": "Point", "coordinates": [ 134.030736229825663, 34.032334645433444 ] } },
{ "type": "Feature", "properties": { "P29_001": "36468", "P29_002": "A136246800024", "P29_003": "16011", "P29_004": "つるぎ町立八千代幼稚園", "P29_005": "徳島県美馬郡つるぎ町半田字下喜来1", "P29_006": "3", "P29_007": "0", "P29_008": "00", "P29_009": null }, "geometry": { "type": "Point", "coordinates": [ 134.025139293554901, 33.995665338976927 ] } },
{ "type": "Feature", "properties": { "P29_001": "36468", "P29_002": "A136246800033", "P29_003": "16011", "P29_004": "つるぎ町立貞光幼稚園", "P29_005": "徳島県美馬郡つるぎ町貞光字野口63-1", "P29_006": "3", "P29_007": "0", "P29_008": "00", "P29_009": null }, "geometry": { "type": "Point", "coordinates": [ 134.060452432151465, 34.035639588874965 ] } },
{ "type": "Feature", "properties": { "P29_001": "36468", "P29_002": "A136246800042", "P29_003": "16011", "P29_004": "つるぎ町立太田幼稚園", "P29_005": "徳島県美馬郡つるぎ町貞光字太田西107", "P29_006": "3", "P29_007": "0", "P29_008": "00", "P29_009": null }, "geometry": { "type": "Point", "coordinates": [ 134.079846999656837, 34.044611001268393 ] } },
{ "type": "Feature", "properties": { "P29_001": "36468", "P29_002": "A136246800051", "P29_003": "16011", "P29_004": "つるぎ町立古見幼稚園", "P29_005": "徳島県美馬郡つるぎ町一宇字太刀之本5-4", "P29_006": "3", "P29_007": "0", "P29_008": "00", "P29_009": null }, "geometry": { "type": "Point", "coordinates": [ 134.06222495404154, 33.951106129053109 ] } },
{ "type": "Feature", "properties": { "P29_001": "36489", "P29_002": "A136248900038", "P29_003": "16011", "P29_004": "東みよし町立加茂幼稚園", "P29_005": "徳島県三好郡東みよし町加茂2688", "P29_006": "3", "P29_007": "0", "P29_008": "00", "P29_009": null }, "geometry": { "type": "Point", "coordinates": [ 133.923196586720252, 34.036290844707501 ] } },
{ "type": "Feature", "properties": { "P29_001": "36489", "P29_002": "A136248900047", "P29_003": "16011", "P29_004": "東みよし町立三庄幼稚園", "P29_005": "徳島県三好郡東みよし町中庄1130-1", "P29_006": "3", "P29_007": "0", "P29_008": "00", "P29_009": null }, "geometry": { "type": "Point", "coordinates": [ 133.946117996628828, 34.038218003081937 ] } },
{ "type": "Feature", "properties": { "P29_001": "36201", "P29_002": "A136320100015", "P29_003": "16011", "P29_004": "わかくさ幼稚園", "P29_005": "徳島県徳島市津田本町4-2-48", "P29_006": "4", "P29_007": "0", "P29_008": "00", "P29_009": null }, "geometry": { "type": "Point", "coordinates": [ 134.576107997593738, 34.045364001414775 ] } },
{ "type": "Feature", "properties": { "P29_001": "36201", "P29_002": "A136320100024", "P29_003": "16011", "P29_004": "白うめ幼稚園", "P29_005": "徳島県徳島市国府町矢野字原地65", "P29_006": "4", "P29_007": "0", "P29_008": "00", "P29_009": null }, "geometry": { "type": "Point", "coordinates": [ 134.479745177003309, 34.056417359872327 ] } },
{ "type": "Feature", "properties": { "P29_001": "36201", "P29_002": "A136320100033", "P29_003": "16011", "P29_004": "学校法人生光学園生光学園幼稚園", "P29_005": "徳島県徳島市応神町中原字宮ノ前38", "P29_006": "4", "P29_007": "0", "P29_008": "00", "P29_009": null }, "geometry": { "type": "Point", "coordinates": [ 134.533052514019289, 34.109512850724165 ] } },
{ "type": "Feature", "properties": { "P29_001": "36201", "P29_002": "A136320100042", "P29_003": "16011", "P29_004": "徳島文理大学附属幼稚園", "P29_005": "徳島県徳島市山城町東浜傍示2", "P29_006": "4", "P29_007": "0", "P29_008": "00", "P29_009": null }, "geometry": { "type": "Point", "coordinates": [ 134.559985898832025, 34.052582820850255 ] } },
{ "type": "Feature", "properties": { "P29_001": "36202", "P29_002": "A136320200014", "P29_003": "16011", "P29_004": "鳴門聖母幼稚園", "P29_005": "徳島県鳴門市撫養町黒崎字松島208", "P29_006": "4", "P29_007": "0", "P29_008": "00", "P29_009": null }, "geometry": { "type": "Point", "coordinates": [ 134.600364996397673, 34.188364997538208 ] } },
{ "type": "Feature", "properties": { "P29_001": "36204", "P29_002": "A136320400012", "P29_003": "16011", "P29_004": "学校法人暁の星学園阿南聖母幼稚園", "P29_005": "徳島県阿南市富岡町あ石19-1", "P29_006": "4", "P29_007": "0", "P29_008": "00", "P29_009": null }, "geometry": { "type": "Point", "coordinates": [ 134.663741701020598, 33.917870183620678 ] } },
{ "type": "Feature", "properties": { "P29_001": "36204", "P29_002": "A136320400021", "P29_003": "16011", "P29_004": "神崎幼稚園", "P29_005": "徳島県阿南市畭町新はり1", "P29_006": "4", "P29_007": "0", "P29_008": "00", "P29_009": null }, "geometry": { "type": "Point", "coordinates": [ 134.692360654369821, 33.922039064854587 ] } },
{ "type": "Feature", "properties": { "P29_001": "36204", "P29_002": "A136320400030", "P29_003": "16011", "P29_004": "認定こども園はのうら幼稚園", "P29_005": "徳島県阿南市羽ノ浦町宮倉太田40-3", "P29_006": "4", "P29_007": "0", "P29_008": "00", "P29_009": null }, "geometry": { "type": "Point", "coordinates": [ 134.616968997718118, 33.963217004883376 ] } },
{ "type": "Feature", "properties": { "P29_001": "36401", "P29_002": "A136340100013", "P29_003": "16011", "P29_004": "さゆり幼稚園", "P29_005": "徳島県板野郡松茂町中喜来字稲本175-1", "P29_006": "4", "P29_007": "0", "P29_008": "00", "P29_009": null }, "geometry": { "type": "Point", "coordinates": [ 134.591136641077298, 34.144193984843632 ] } }
]
}
