{
"type": "FeatureCollection",
"name": "geo_36_高等専門学校",
"crs": { "type": "name", "properties": { "name": "urn:ogc:def:crs:EPSG::6668" } },
"features": [
{ "type": "Feature", "properties": { "P29_001": "36204", "P29_002": "G136110110300", "P29_003": "16005", "P29_004": "阿南工業高等専門学校", "P29_005": "徳島県阿南市見能林町青木265", "P29_006": "1", "P29_007": "0", "P29_008": "00", "P29_009": null }, "geometry": { "type": "Point", "coordinates": [ 134.667487233811414, 33.898643820870646 ] } },
{ "type": "Feature", "properties": { "P29_001": "36342", "P29_002": "G136310000014", "P29_003": "16005", "P29_004": "神山まるごと高等専門学校", "P29_005": "徳島県名西郡神山町神領大埜地343", "P29_006": "4", "P29_007": "0", "P29_008": "00", "P29_009": null }, "geometry": { "type": "Point", "coordinates": [ 134.360213992148061, 33.973781585686474 ] } }
]
}
