{
"type": "FeatureCollection",
"name": "geo_36_地域密着型介護老人福祉施設入所者生活介護",
"crs": { "type": "name", "properties": { "name": "urn:ogc:def:crs:OGC:1.3:CRS84" } },
"features": [
{ "type": "Feature", "properties": { "内容": "介護老人福祉施設　令陽【地域密着型介護老人福祉施設入所者生活介護】徳島県徳島市川内町北原40番地", "url": "https://www.kaigokensaku.mhlw.go.jp/36/index.php?action_kouhyou_detail_004_kani=true&JigyosyoCd=3690168194-00&ServiceCd=540&Type=search", "url2": "https://www.lemon.or.jp/lime/reiyo/index.html" }, "geometry": { "type": "Point", "coordinates": [ 134.561615498811364, 34.102171474629877 ] } },
{ "type": "Feature", "properties": { "内容": "地域密着型特別養護老人ホーム陽香【地域密着型介護老人福祉施設入所者生活介護】徳島県徳島市川内町平石住吉183番地地域密着型特別養護老人ホーム陽香", "url": "https://www.kaigokensaku.mhlw.go.jp/36/index.php?action_kouhyou_detail_004_kani=true&JigyosyoCd=3690100270-00&ServiceCd=540&Type=search", "url2": "www.seikahukushikai.jp" }, "geometry": { "type": "Point", "coordinates": [ 134.585984199999984, 34.11399 ] } },
{ "type": "Feature", "properties": { "内容": "KAGOYALIFE【地域密着型介護老人福祉施設入所者生活介護】徳島市大原町外籠１９番地１", "url": "https://www.kaigokensaku.mhlw.go.jp/36/index.php?action_kouhyou_detail_004_kani=true&JigyosyoCd=3690168228-00&ServiceCd=540&Type=search", "url2": "https://asagao-gr.jp/service/kagoya-life/" }, "geometry": { "type": "Point", "coordinates": [ 134.568627667866451, 34.032714480722611 ] } },
{ "type": "Feature", "properties": { "内容": "地域密着型介護老人福祉施設とみだの家【地域密着型介護老人福祉施設入所者生活介護】徳島県徳島市中昭和町2丁目103番地", "url": "https://www.kaigokensaku.mhlw.go.jp/36/index.php?action_kouhyou_detail_004_kani=true&JigyosyoCd=3690167915-00&ServiceCd=540&Type=search", "url2": "http://tomida.or.jp" }, "geometry": { "type": "Point", "coordinates": [ 134.5582707, 34.0615633 ] } },
{ "type": "Feature", "properties": { "内容": "特別養護老人ホームヒルズ【地域密着型介護老人福祉施設入所者生活介護】徳島市八万町大野7-16", "url": "https://www.kaigokensaku.mhlw.go.jp/36/index.php?action_kouhyou_detail_004_kani=true&JigyosyoCd=3690167907-00&ServiceCd=540&Type=search", "url2": "http://keirou-group.jp" }, "geometry": { "type": "Point", "coordinates": [ 134.550267814680439, 34.044033724989816 ] } },
{ "type": "Feature", "properties": { "内容": "特別養護老人ホーム笑顔【地域密着型介護老人福祉施設入所者生活介護】徳島県徳島市国府町東高輪字天満353番地13", "url": "https://www.kaigokensaku.mhlw.go.jp/36/index.php?action_kouhyou_detail_004_kani=true&JigyosyoCd=3690100288-00&ServiceCd=540&Type=search", "url2": "https://www.kenshokai.group/" }, "geometry": { "type": "Point", "coordinates": [ 134.482173402418312, 34.089419979518034 ] } },
{ "type": "Feature", "properties": { "内容": "地域密着型特別養護老人ホームあおぞら【地域密着型介護老人福祉施設入所者生活介護】徳島県徳島市国府町和田字居内１０５番地", "url": "https://www.kaigokensaku.mhlw.go.jp/36/index.php?action_kouhyou_detail_004_kani=true&JigyosyoCd=3690168210-00&ServiceCd=540&Type=search", "url2": "https://tamaki-aozora.ne.jp/tokuyou-aozora/" }, "geometry": { "type": "Point", "coordinates": [ 134.490656904048052, 34.074250915653401 ] } },
{ "type": "Feature", "properties": { "内容": "地域密着型介護老人福祉施設ケアホームミリカ【地域密着型介護老人福祉施設入所者生活介護】徳島県徳島市下町本丁59-30", "url": "https://www.kaigokensaku.mhlw.go.jp/36/index.php?action_kouhyou_detail_004_kani=true&JigyosyoCd=3690168202-00&ServiceCd=540&Type=search", "url2": "https://www.tk2.nmt.ne.jp/~kouhuukai/index.html" }, "geometry": { "type": "Point", "coordinates": [ 134.486644899999988, 34.0371997 ] } },
{ "type": "Feature", "properties": { "内容": "地域密着型介護老人福祉施設おおあさ杜樹の音【地域密着型介護老人福祉施設入所者生活介護】徳島県鳴門市大麻町桧字東山田57-5おおあさ杜樹の音", "url": "https://www.kaigokensaku.mhlw.go.jp/36/index.php?action_kouhyou_detail_004_kani=true&JigyosyoCd=3690200120-00&ServiceCd=540&Type=search", "url2": "ryokujyukai.com" }, "geometry": { "type": "Point", "coordinates": [ 134.500326300000012, 34.1670641 ] } },
{ "type": "Feature", "properties": { "内容": "地域密着型特別養護老人ホーム花宝【地域密着型介護老人福祉施設入所者生活介護】阿南市中林町蟹田1-2", "url": "https://www.kaigokensaku.mhlw.go.jp/36/index.php?action_kouhyou_detail_004_kani=true&JigyosyoCd=3690400183-00&ServiceCd=540&Type=search", "url2": null }, "geometry": { "type": "Point", "coordinates": [ 134.683467910975651, 33.905825072139365 ] } },
{ "type": "Feature", "properties": { "内容": "地域密着型特別養護老人ホーム双葉の丘【地域密着型介護老人福祉施設入所者生活介護】見能林町南林30-1", "url": "https://www.kaigokensaku.mhlw.go.jp/36/index.php?action_kouhyou_detail_004_kani=true&JigyosyoCd=3690400134-00&ServiceCd=540&Type=search", "url2": "http://www.futabakai.info" }, "geometry": { "type": "Point", "coordinates": [ 134.681339693917863, 33.895771408721075 ] } },
{ "type": "Feature", "properties": { "内容": "特別養護老人ホーム　美山苑【地域密着型介護老人福祉施設入所者生活介護】山川町祇園51番地", "url": "https://www.kaigokensaku.mhlw.go.jp/36/index.php?action_kouhyou_detail_004_kani=true&JigyosyoCd=3691700045-00&ServiceCd=540&Type=search", "url2": "http://www.hakuyuu.com" }, "geometry": { "type": "Point", "coordinates": [ 134.248933800000032, 34.0578954 ] } },
{ "type": "Feature", "properties": { "内容": "特別養護老人ホームひかり【地域密着型介護老人福祉施設入所者生活介護】徳島県三好市池田町白地本名194番地8", "url": "https://www.kaigokensaku.mhlw.go.jp/36/index.php?action_kouhyou_detail_004_kani=true&JigyosyoCd=3690600063-00&ServiceCd=540&Type=search", "url2": "https://www.kenshokai.group/" }, "geometry": { "type": "Point", "coordinates": [ 133.781097400000021, 34.0172304 ] } },
{ "type": "Feature", "properties": { "内容": "特別養護老人ホーム喜楽苑【地域密着型介護老人福祉施設入所者生活介護】徳島県勝浦郡勝浦町大字棚野字竹国１３番地の１", "url": "https://www.kaigokensaku.mhlw.go.jp/36/index.php?action_kouhyou_detail_004_kani=true&JigyosyoCd=3691000016-00&ServiceCd=540&Type=search", "url2": "http://syoujukai.or.jp" }, "geometry": { "type": "Point", "coordinates": [ 134.504896, 33.9326887 ] } },
{ "type": "Feature", "properties": { "内容": "特別養護老人ホーム水の花荘【地域密着型介護老人福祉施設入所者生活介護】徳島県那賀郡那賀町延野字大原４０番地１", "url": "https://www.kaigokensaku.mhlw.go.jp/36/index.php?action_kouhyou_detail_004_kani=true&JigyosyoCd=3691300036-00&ServiceCd=540&Type=search", "url2": "http://care-net.biz/36/suinohana/" }, "geometry": { "type": "Point", "coordinates": [ 134.483643, 33.8195273 ] } },
{ "type": "Feature", "properties": { "内容": "介護老人福祉施設ふるさと那賀【地域密着型介護老人福祉施設入所者生活介護】徳島県那賀郡那賀町中山字とふめん18番地7", "url": "https://www.kaigokensaku.mhlw.go.jp/36/index.php?action_kouhyou_detail_004_kani=true&JigyosyoCd=3691300028-00&ServiceCd=540&Type=search", "url2": "http://www.ryokufu1984.or.jp/" }, "geometry": { "type": "Point", "coordinates": [ 134.52916289999996, 33.8597911 ] } },
{ "type": "Feature", "properties": { "内容": "特別養護老人ホーム緑風会チロル【地域密着型介護老人福祉施設入所者生活介護】徳島県那賀郡那賀町成瀬字小谷口２番地", "url": "https://www.kaigokensaku.mhlw.go.jp/36/index.php?action_kouhyou_detail_004_kani=true&JigyosyoCd=3691300044-00&ServiceCd=540&Type=search", "url2": "http://www.ryokufu1984.or.jp/" }, "geometry": { "type": "Point", "coordinates": [ 134.284983499999953, 33.7828668 ] } },
{ "type": "Feature", "properties": { "内容": "特別養護老人ホーム　健祥会ライデン【地域密着型介護老人福祉施設入所者生活介護】徳島県板野郡北島町太郎八須字備後江家10番地1", "url": "https://www.kaigokensaku.mhlw.go.jp/36/index.php?action_kouhyou_detail_004_kani=true&JigyosyoCd=3691500056-00&ServiceCd=540&Type=search", "url2": "https://www.kenshokai.group/" }, "geometry": { "type": "Point", "coordinates": [ 134.561716299999944, 34.1334655 ] } },
{ "type": "Feature", "properties": { "内容": "地域密着型特別養護老人ホーム花どけい【地域密着型介護老人福祉施設入所者生活介護】徳島県板野郡藍住町矢上字原127-1", "url": "https://www.kaigokensaku.mhlw.go.jp/36/index.php?action_kouhyou_detail_004_kani=true&JigyosyoCd=3691500106-00&ServiceCd=540&Type=search", "url2": "http://yakami.or.jp/" }, "geometry": { "type": "Point", "coordinates": [ 134.501232, 34.1295174 ] } }
]
}
