{
"type": "FeatureCollection",
"name": "geo_36_訪問リハビリテーション",
"crs": { "type": "name", "properties": { "name": "urn:ogc:def:crs:OGC:1.3:CRS84" } },
"features": [
{ "type": "Feature", "properties": { "内容": "医療法人　徳松会　松永病院【訪問リハビリテーション】徳島県徳島市南庄町４丁目６３番地１", "url": "https://www.kaigokensaku.mhlw.go.jp/36/index.php?action_kouhyou_detail_004_kani=true&JigyosyoCd=3610125423-00&ServiceCd=140&Type=search", "url2": "http://www.matsunaga-hp.jp/facility/hospital/" }, "geometry": { "type": "Point", "coordinates": [ 138.252924, 36.204824 ] } },
{ "type": "Feature", "properties": { "内容": "介護老人保健施設国府リハビリテーションフェニックス【訪問リハビリテーション】徳島県徳s摩市国府町井戸字左ケ池39番地1", "url": "https://www.kaigokensaku.mhlw.go.jp/36/index.php?action_kouhyou_detail_004_kani=true&JigyosyoCd=3650180296-00&ServiceCd=140&Type=search", "url2": "https://tamaki-aozora.ne.jp/phoenix/" }, "geometry": { "type": "Point", "coordinates": [ 134.483680099999987, 34.0881994 ] } },
{ "type": "Feature", "properties": { "内容": "ちよがまる歯科医院【訪問リハビリテーション】大原町千代ヶ丸73-1", "url": "https://www.kaigokensaku.mhlw.go.jp/36/index.php?action_kouhyou_detail_004_kani=true&JigyosyoCd=3630134876-00&ServiceCd=140&Type=search", "url2": null }, "geometry": { "type": "Point", "coordinates": [ 134.5671523, 34.0249891 ] } },
{ "type": "Feature", "properties": { "内容": "水の都記念病院【訪問リハビリテーション】徳島県徳島市北島田町1丁目46番11", "url": "https://www.kaigokensaku.mhlw.go.jp/36/index.php?action_kouhyou_detail_004_kani=true&JigyosyoCd=3610123717-00&ServiceCd=140&Type=search", "url2": "http://www.mizunomiyako.net/" }, "geometry": { "type": "Point", "coordinates": [ 134.517969, 34.083101 ] } },
{ "type": "Feature", "properties": { "内容": "愛日病院【訪問リハビリテーション】徳島県徳島市佐古五番町４番３号", "url": "https://www.kaigokensaku.mhlw.go.jp/36/index.php?action_kouhyou_detail_004_kani=true&JigyosyoCd=3610124350-00&ServiceCd=140&Type=search", "url2": "http://youaijitsu.com/" }, "geometry": { "type": "Point", "coordinates": [ 134.530618, 34.0779325 ] } },
{ "type": "Feature", "properties": { "内容": "川内内科訪問リハビリ【訪問リハビリテーション】徳島県徳島市国府町和田字原淵67-1", "url": "https://www.kaigokensaku.mhlw.go.jp/36/index.php?action_kouhyou_detail_004_kani=true&JigyosyoCd=3610127791-00&ServiceCd=140&Type=search", "url2": "https://kawauchi-clinic.jp/" }, "geometry": { "type": "Point", "coordinates": [ 134.4935506, 34.0713431 ] } },
{ "type": "Feature", "properties": { "内容": "新田整形外科【訪問リハビリテーション】徳島県徳島市八万町二条１０６－５４", "url": "https://www.kaigokensaku.mhlw.go.jp/36/index.php?action_kouhyou_detail_004_kani=true&JigyosyoCd=3610125027-00&ServiceCd=140&Type=search", "url2": null }, "geometry": { "type": "Point", "coordinates": [ 134.542952048548841, 34.047714473654366 ] } },
{ "type": "Feature", "properties": { "内容": "おかがわ内科・小児科【訪問リハビリテーション】徳島県徳島市住吉1丁目10-19", "url": "https://www.kaigokensaku.mhlw.go.jp/36/index.php?action_kouhyou_detail_004_kani=true&JigyosyoCd=3610126363-00&ServiceCd=140&Type=search", "url2": "http://okagawa-g.com/okagawanaika/" }, "geometry": { "type": "Point", "coordinates": [ 134.5633946, 34.0729672 ] } },
{ "type": "Feature", "properties": { "内容": "医療法人　なぎさ会　沖の洲病院訪問リハビリテーション事業所【訪問リハビリテーション】徳島県徳島市城東町1丁目8-8", "url": "https://www.kaigokensaku.mhlw.go.jp/36/index.php?action_kouhyou_detail_004_kani=true&JigyosyoCd=3610124830-00&ServiceCd=140&Type=search", "url2": "http://www.nmt.ne.jp/~nagioo/" }, "geometry": { "type": "Point", "coordinates": [ 134.572846199999958, 34.0719353 ] } },
{ "type": "Feature", "properties": { "内容": "医療法人　成美会　鈴江病院【訪問リハビリテーション】徳島県徳島市佐古八番町４－２２医療法人　成美会　鈴江病院", "url": "https://www.kaigokensaku.mhlw.go.jp/36/index.php?action_kouhyou_detail_004_kani=true&JigyosyoCd=3610123568-00&ServiceCd=140&Type=search", "url2": "http：//www.suzue.jp" }, "geometry": { "type": "Point", "coordinates": [ 134.522407599999951, 34.0772907 ] } },
{ "type": "Feature", "properties": { "内容": "近藤内科病院【訪問リハビリテーション】西新浜町1-6-25近藤内科病院", "url": "https://www.kaigokensaku.mhlw.go.jp/36/index.php?action_kouhyou_detail_004_kani=true&JigyosyoCd=3610125399-00&ServiceCd=140&Type=search", "url2": "http://www.kondo-hp.com/" }, "geometry": { "type": "Point", "coordinates": [ 134.557721300000026, 34.043736600000024 ] } },
{ "type": "Feature", "properties": { "内容": "ライフケア応神訪問リハビリテーション【訪問リハビリテーション】徳島県徳島市応神町古川字日ノ上3２-1", "url": "https://www.kaigokensaku.mhlw.go.jp/36/index.php?action_kouhyou_detail_004_kani=true&JigyosyoCd=3650180023-00&ServiceCd=140&Type=search", "url2": "http://rouken-oujin.jp/" }, "geometry": { "type": "Point", "coordinates": [ 134.556246534115644, 34.101039623027894 ] } },
{ "type": "Feature", "properties": { "内容": "医療法人いちえ会　伊月病院【訪問リハビリテーション】徳島県徳島市徳島町二丁目54番地", "url": "https://www.kaigokensaku.mhlw.go.jp/36/index.php?action_kouhyou_detail_004_kani=true&JigyosyoCd=3610124699-00&ServiceCd=140&Type=search", "url2": "http://ichie-kizuna.or.jp/" }, "geometry": { "type": "Point", "coordinates": [ 134.557901799999968, 34.0740365 ] } },
{ "type": "Feature", "properties": { "内容": "リバーサイドのぞみ病院　訪問リハビリテーション【訪問リハビリテーション】徳島市中徳島町2丁目97-1", "url": "https://www.kaigokensaku.mhlw.go.jp/36/index.php?action_kouhyou_detail_004_kani=true&JigyosyoCd=3610125407-00&ServiceCd=140&Type=search", "url2": "http://www.nozomihp.com/" }, "geometry": { "type": "Point", "coordinates": [ 134.558907200000021, 34.0760363 ] } },
{ "type": "Feature", "properties": { "内容": "医療法人　橋本病院【訪問リハビリテーション】徳島県徳島市中常三島町3丁目22-1", "url": "https://www.kaigokensaku.mhlw.go.jp/36/index.php?action_kouhyou_detail_004_kani=true&JigyosyoCd=3610124053-00&ServiceCd=140&Type=search", "url2": "http://www.hp-hashimoto.com/" }, "geometry": { "type": "Point", "coordinates": [ 134.5646118, 34.0785758 ] } },
{ "type": "Feature", "properties": { "内容": "医療法人清家医院【訪問リハビリテーション】徳島県徳島市上八万町下中筋９０番地１", "url": "https://www.kaigokensaku.mhlw.go.jp/36/index.php?action_kouhyou_detail_004_kani=true&JigyosyoCd=3610124749-00&ServiceCd=140&Type=search", "url2": "https//www.seike-cl.com" }, "geometry": { "type": "Point", "coordinates": [ 134.512856, 34.0373924 ] } },
{ "type": "Feature", "properties": { "内容": "介護老人保健施設カサ・デ・エスペランサ　訪問リハビリテーション【訪問リハビリテーション】徳島県徳島市名東町２丁目６５０番地の35", "url": "https://www.kaigokensaku.mhlw.go.jp/36/index.php?action_kouhyou_detail_004_kani=true&JigyosyoCd=3650180114-00&ServiceCd=140&Type=search", "url2": "https://sei-ryu-kai.or.jp/casadeesperanz/" }, "geometry": { "type": "Point", "coordinates": [ 134.492078578358559, 34.0623067249307 ] } },
{ "type": "Feature", "properties": { "内容": "八木クリニック【訪問リハビリテーション】徳島県徳島市大松町絵の久原外50-1八木クリニック", "url": "https://www.kaigokensaku.mhlw.go.jp/36/index.php?action_kouhyou_detail_004_kani=true&JigyosyoCd=3610127122-00&ServiceCd=140&Type=search", "url2": "https://www.himawari-gi.com/" }, "geometry": { "type": "Point", "coordinates": [ 134.55592870000001, 34.0245254 ] } },
{ "type": "Feature", "properties": { "内容": "中洲八木病院【訪問リハビリテーション】徳島市中洲町1丁目31中洲八木病院", "url": "https://www.kaigokensaku.mhlw.go.jp/36/index.php?action_kouhyou_detail_004_kani=true&JigyosyoCd=3610123998-00&ServiceCd=140&Type=search", "url2": "http://www.yagihospital.com" }, "geometry": { "type": "Point", "coordinates": [ 134.557728249073733, 34.068168856268194 ] } },
{ "type": "Feature", "properties": { "内容": "保岡クリニック論田病院【訪問リハビリテーション】徳島県徳島市論田町大江6番地の１", "url": "https://www.kaigokensaku.mhlw.go.jp/36/index.php?action_kouhyou_detail_004_kani=true&JigyosyoCd=3610125324-00&ServiceCd=140&Type=search", "url2": "http://www.asagao-gr.jp" }, "geometry": { "type": "Point", "coordinates": [ 134.568228938877013, 34.037007787975703 ] } },
{ "type": "Feature", "properties": { "内容": "林内科【訪問リハビリテーション】徳島県徳島市中昭和町2丁目94", "url": "https://www.kaigokensaku.mhlw.go.jp/36/index.php?action_kouhyou_detail_004_kani=true&JigyosyoCd=3610124772-00&ServiceCd=140&Type=search", "url2": "http://hayashikai.or.jp/visit/" }, "geometry": { "type": "Point", "coordinates": [ 134.558607400000028, 34.0617405 ] } },
{ "type": "Feature", "properties": { "内容": "佐古あいじつクリニック【訪問リハビリテーション】徳島県徳島市佐古四番町6番11号愛日ビル１F", "url": "https://www.kaigokensaku.mhlw.go.jp/36/index.php?action_kouhyou_detail_004_kani=true&JigyosyoCd=3610126975-00&ServiceCd=140&Type=search", "url2": "https://youaijitsu.com" }, "geometry": { "type": "Point", "coordinates": [ 134.532317764418025, 34.078047720422155 ] } },
{ "type": "Feature", "properties": { "内容": "徳島さくらクリニック【訪問リハビリテーション】徳島県徳島市下町本丁５９－１", "url": "https://www.kaigokensaku.mhlw.go.jp/36/index.php?action_kouhyou_detail_004_kani=true&JigyosyoCd=3610126033-00&ServiceCd=140&Type=search", "url2": "http://ichiyou-kai.com/" }, "geometry": { "type": "Point", "coordinates": [ 134.487680400000045, 34.0368195 ] } },
{ "type": "Feature", "properties": { "内容": "天満病院　訪問リハビリテーション【訪問リハビリテーション】徳島県徳島市蔵本町1丁目5番地1", "url": "https://www.kaigokensaku.mhlw.go.jp/36/index.php?action_kouhyou_detail_004_kani=true&JigyosyoCd=3610125472-00&ServiceCd=140&Type=search", "url2": "http://www.eijyukai.com/" }, "geometry": { "type": "Point", "coordinates": [ 134.520196700000042, 34.0777128 ] } },
{ "type": "Feature", "properties": { "内容": "木下病院【訪問リハビリテーション】徳島市南末広町4番70号", "url": "https://www.kaigokensaku.mhlw.go.jp/36/index.php?action_kouhyou_detail_004_kani=true&JigyosyoCd=3610123865-00&ServiceCd=140&Type=search", "url2": "http://www.kinoshita-hp.com/index.html" }, "geometry": { "type": "Point", "coordinates": [ 134.5759445, 34.060313 ] } },
{ "type": "Feature", "properties": { "内容": "寺沢病院　訪問リハビリテーション【訪問リハビリテーション】徳島市津田西町１丁目２番３０号", "url": "https://www.kaigokensaku.mhlw.go.jp/36/index.php?action_kouhyou_detail_004_kani=true&JigyosyoCd=3610123675-00&ServiceCd=140&Type=search", "url2": "http/www/terasawa.ne.jp" }, "geometry": { "type": "Point", "coordinates": [ 134.5766582, 34.0516834 ] } },
{ "type": "Feature", "properties": { "内容": "東洋病院【訪問リハビリテーション】徳島県徳島市北島田町1丁目160-2", "url": "https://www.kaigokensaku.mhlw.go.jp/36/index.php?action_kouhyou_detail_004_kani=true&JigyosyoCd=3610125340-00&ServiceCd=140&Type=search", "url2": "http://toyohosp.jp/" }, "geometry": { "type": "Point", "coordinates": [ 134.515755200000058, 34.0896084 ] } },
{ "type": "Feature", "properties": { "内容": "徳島平成病院【訪問リハビリテーション】徳島県徳島市伊賀町３丁目19番地2", "url": "https://www.kaigokensaku.mhlw.go.jp/36/index.php?action_kouhyou_detail_004_kani=true&JigyosyoCd=3610125498-00&ServiceCd=140&Type=search", "url2": "https://tokushimahp.jp/" }, "geometry": { "type": "Point", "coordinates": [ 134.544130699999982, 34.0635361 ] } },
{ "type": "Feature", "properties": { "内容": "リハビリセンターグリーンTAOKA【訪問リハビリテーション】徳島県徳島市川内町北原31-3", "url": "https://www.kaigokensaku.mhlw.go.jp/36/index.php?action_kouhyou_detail_004_kani=true&JigyosyoCd=3650180205-00&ServiceCd=140&Type=search", "url2": "https://green-taoka.jp" }, "geometry": { "type": "Point", "coordinates": [ 134.561005487666051, 34.101443595190425 ] } },
{ "type": "Feature", "properties": { "内容": "訪問リハビリテーションロイヤルヘルスケア【訪問リハビリテーション】徳島県徳島市西新浜2丁目3-33", "url": "https://www.kaigokensaku.mhlw.go.jp/36/index.php?action_kouhyou_detail_004_kani=true&JigyosyoCd=3650180015-00&ServiceCd=140&Type=search", "url2": "https://www.royal-hc.com/" }, "geometry": { "type": "Point", "coordinates": [ 134.559175372548708, 34.042059725109084 ] } },
{ "type": "Feature", "properties": { "内容": "かもな桜公園クリニック訪問リハビリ【訪問リハビリテーション】徳島県徳島市鮎喰町2丁目95番1", "url": "https://www.kaigokensaku.mhlw.go.jp/36/index.php?action_kouhyou_detail_004_kani=true&JigyosyoCd=3610127965-00&ServiceCd=140&Type=search", "url2": "https://kamona-sakurakouen-clinic.jp/" }, "geometry": { "type": "Point", "coordinates": [ 134.5018025, 34.0723663 ] } },
{ "type": "Feature", "properties": { "内容": "医療法人　すこやか【訪問リハビリテーション】徳島県徳島市大原町千代ヶ丸山30番20", "url": "https://www.kaigokensaku.mhlw.go.jp/36/index.php?action_kouhyou_detail_004_kani=true&JigyosyoCd=3610127502-00&ServiceCd=140&Type=search", "url2": "http://hayashi-hosp.com" }, "geometry": { "type": "Point", "coordinates": [ 134.5670926, 34.0224256 ] } },
{ "type": "Feature", "properties": { "内容": "老人保健施設ユート【訪問リハビリテーション】徳島県徳島市八万町大野5-1", "url": "https://www.kaigokensaku.mhlw.go.jp/36/index.php?action_kouhyou_detail_004_kani=true&JigyosyoCd=3650180189-00&ServiceCd=140&Type=search", "url2": "http://www.keirou-medical.jp/youto/" }, "geometry": { "type": "Point", "coordinates": [ 134.549713699999984, 34.0434282 ] } },
{ "type": "Feature", "properties": { "内容": "虹の橋病院訪問リハビリテーション【訪問リハビリテーション】徳島県徳島市中島田町3丁目60番地1", "url": "https://www.kaigokensaku.mhlw.go.jp/36/index.php?action_kouhyou_detail_004_kani=true&JigyosyoCd=3610125480-00&ServiceCd=140&Type=search", "url2": "http://www.nijinohashi.net/" }, "geometry": { "type": "Point", "coordinates": [ 134.51027013240207, 34.084035627093066 ] } },
{ "type": "Feature", "properties": { "内容": "清寿園【訪問リハビリテーション】徳島県徳島市八万町橋本92-1", "url": "https://www.kaigokensaku.mhlw.go.jp/36/index.php?action_kouhyou_detail_004_kani=true&JigyosyoCd=3650180080-00&ServiceCd=140&Type=search", "url2": "https://kyourituhp.or.jp" }, "geometry": { "type": "Point", "coordinates": [ 134.531262758317951, 34.043181890875175 ] } },
{ "type": "Feature", "properties": { "内容": "すだちの園指定訪問リハビリテーション【訪問リハビリテーション】徳島県徳島市丈六町行正２７番地１", "url": "https://www.kaigokensaku.mhlw.go.jp/36/index.php?action_kouhyou_detail_004_kani=true&JigyosyoCd=3650180197-00&ServiceCd=140&Type=search", "url2": "http://www.jonanh.com/sudachi/" }, "geometry": { "type": "Point", "coordinates": [ 134.548417200000017, 34.011463 ] } },
{ "type": "Feature", "properties": { "内容": "むくの木クリニック【訪問リハビリテーション】徳島県徳島市国府町東高輪353番地の1", "url": "https://www.kaigokensaku.mhlw.go.jp/36/index.php?action_kouhyou_detail_004_kani=true&JigyosyoCd=3610127072-00&ServiceCd=140&Type=search", "url2": "http://mukunoki.or.jp" }, "geometry": { "type": "Point", "coordinates": [ 134.48249480000004, 34.0898604 ] } },
{ "type": "Feature", "properties": { "内容": "リハビリテーション大神子病院【訪問リハビリテーション】徳島県徳島市大原町余慶1番1", "url": "https://www.kaigokensaku.mhlw.go.jp/36/index.php?action_kouhyou_detail_004_kani=true&JigyosyoCd=3610127734-00&ServiceCd=140&Type=search", "url2": "https://www.doushisya.jp/oomiko/" }, "geometry": { "type": "Point", "coordinates": [ 134.5721686, 34.0273085 ] } },
{ "type": "Feature", "properties": { "内容": "リハビリテーション大神子病院付属大原クリニック【訪問リハビリテーション】徳島県徳島市大原町余慶１番１", "url": "https://www.kaigokensaku.mhlw.go.jp/36/index.php?action_kouhyou_detail_004_kani=true&JigyosyoCd=3610127510-00&ServiceCd=140&Type=search", "url2": "https://www.doushisya.jp/oomiko/clinic/" }, "geometry": { "type": "Point", "coordinates": [ 134.571606617650417, 34.026142826792857 ] } },
{ "type": "Feature", "properties": { "内容": "眉山病院【訪問リハビリテーション】西二軒屋町２丁目３９－２", "url": "https://www.kaigokensaku.mhlw.go.jp/36/index.php?action_kouhyou_detail_004_kani=true&JigyosyoCd=3610124392-00&ServiceCd=140&Type=search", "url2": "http://www.bizan-hp.jp" }, "geometry": { "type": "Point", "coordinates": [ 134.547753699999987, 34.0586231 ] } },
{ "type": "Feature", "properties": { "内容": "博愛記念病院【訪問リハビリテーション】徳島県徳島市勝占町惣田9", "url": "https://www.kaigokensaku.mhlw.go.jp/36/index.php?action_kouhyou_detail_004_kani=true&JigyosyoCd=3610124152-00&ServiceCd=140&Type=search", "url2": "http://www.hakuaihp.jp" }, "geometry": { "type": "Point", "coordinates": [ 134.5508807, 34.0213006 ] } },
{ "type": "Feature", "properties": { "内容": "医療法人　明和会　たまき青空病院【訪問リハビリテーション】徳島市国府町早淵字北カシヤ５６番地１", "url": "https://www.kaigokensaku.mhlw.go.jp/36/index.php?action_kouhyou_detail_004_kani=true&JigyosyoCd=3610125456-00&ServiceCd=140&Type=search", "url2": "https://tamaki-aozora.ne.jp/" }, "geometry": { "type": "Point", "coordinates": [ 134.485795936492849, 34.072078026444473 ] } },
{ "type": "Feature", "properties": { "内容": "徳島健生病院訪問リハビリテーション【訪問リハビリテーション】徳島県徳島市下助任町4丁目9", "url": "https://www.kaigokensaku.mhlw.go.jp/36/index.php?action_kouhyou_detail_004_kani=true&JigyosyoCd=3610123808-00&ServiceCd=140&Type=search", "url2": "https://kenkou-seikyou.com/" }, "geometry": { "type": "Point", "coordinates": [ 134.549761100000012, 34.0828967 ] } },
{ "type": "Feature", "properties": { "内容": "医療法人　善成会　善成病院【訪問リハビリテーション】佐古三番町７番３号", "url": "https://www.kaigokensaku.mhlw.go.jp/36/index.php?action_kouhyou_detail_004_kani=true&JigyosyoCd=3610123709-00&ServiceCd=140&Type=search", "url2": "https://www.yoshinari-hospital.com/" }, "geometry": { "type": "Point", "coordinates": [ 134.5354729, 34.0783855 ] } },
{ "type": "Feature", "properties": { "内容": "TAOKA訪問リハビリセンター万代【訪問リハビリテーション】徳島県徳島市万代町4丁目2番地2", "url": "https://www.kaigokensaku.mhlw.go.jp/36/index.php?action_kouhyou_detail_004_kani=true&JigyosyoCd=3610125449-00&ServiceCd=140&Type=search", "url2": "http://www.taoka.or.jp/taoka/" }, "geometry": { "type": "Point", "coordinates": [ 134.563584699999979, 34.0656763 ] } },
{ "type": "Feature", "properties": { "内容": "兼松病院　訪問リハビリテーション【訪問リハビリテーション】徳島県鳴門市撫養町斎田字大堤５４番地", "url": "https://www.kaigokensaku.mhlw.go.jp/36/index.php?action_kouhyou_detail_004_kani=true&JigyosyoCd=3610210043-00&ServiceCd=140&Type=search", "url2": "http://kanematsu-hp.jp/" }, "geometry": { "type": "Point", "coordinates": [ 134.6048336, 34.1769422 ] } },
{ "type": "Feature", "properties": { "内容": "橋本医院訪問リハビリテーション【訪問リハビリテーション】徳島県鳴門市大津町吉永字四番越４７１番地６", "url": "https://www.kaigokensaku.mhlw.go.jp/36/index.php?action_kouhyou_detail_004_kani=true&JigyosyoCd=3670201106-00&ServiceCd=140&Type=search", "url2": "http://www2s.biglobe.ne.jp/~hasimoto/" }, "geometry": { "type": "Point", "coordinates": [ 134.5996035, 34.1632944 ] } },
{ "type": "Feature", "properties": { "内容": "徳島県鳴門病院【訪問リハビリテーション】徳島県鳴門市撫養町黒崎字小谷32番", "url": "https://www.kaigokensaku.mhlw.go.jp/36/index.php?action_kouhyou_detail_004_kani=true&JigyosyoCd=3610210118-00&ServiceCd=140&Type=search", "url2": "http://naruto-hsp.jp" }, "geometry": { "type": "Point", "coordinates": [ 134.59421020000002, 34.1826996 ] } },
{ "type": "Feature", "properties": { "内容": "小川病院【訪問リハビリテーション】徳島県鳴門市撫養町斎田字北浜99", "url": "https://www.kaigokensaku.mhlw.go.jp/36/index.php?action_kouhyou_detail_004_kani=true&JigyosyoCd=3610210126-00&ServiceCd=140&Type=search", "url2": "http://www.ogawa-hp.jp" }, "geometry": { "type": "Point", "coordinates": [ 134.605278, 34.1787503 ] } },
{ "type": "Feature", "properties": { "内容": "陽だまり苑　訪問リハビリテーション事業所【訪問リハビリテーション】徳島県鳴門市大津町矢倉字四ノ越５番", "url": "https://www.kaigokensaku.mhlw.go.jp/36/index.php?action_kouhyou_detail_004_kani=true&JigyosyoCd=3650280211-00&ServiceCd=140&Type=search", "url2": "https://shinsei-kai.com/hidamarien/" }, "geometry": { "type": "Point", "coordinates": [ 134.592897599999986, 34.1540008 ] } },
{ "type": "Feature", "properties": { "内容": "原田内科訪問リハビリテーション【訪問リハビリテーション】徳島県鳴門市大津町矢倉字六ノ越5番地９", "url": "https://www.kaigokensaku.mhlw.go.jp/36/index.php?action_kouhyou_detail_004_kani=true&JigyosyoCd=3610210464-00&ServiceCd=140&Type=search", "url2": "http://www.harada-cl.or.jp/" }, "geometry": { "type": "Point", "coordinates": [ 134.59256060000007, 34.152211 ] } },
{ "type": "Feature", "properties": { "内容": "佐藤整形外科訪問リハビリテーション事業所【訪問リハビリテーション】徳島県鳴門市撫養町南浜字東浜265佐藤整形外科医院", "url": "https://www.kaigokensaku.mhlw.go.jp/36/index.php?action_kouhyou_detail_004_kani=true&JigyosyoCd=3610210472-00&ServiceCd=140&Type=search", "url2": null }, "geometry": { "type": "Point", "coordinates": [ 134.608938500000022, 34.1749065 ] } },
{ "type": "Feature", "properties": { "内容": "鳴門山上病院【訪問リハビリテーション】徳島県鳴門市鳴門町土佐泊浦字高砂205番地29", "url": "https://www.kaigokensaku.mhlw.go.jp/36/index.php?action_kouhyou_detail_004_kani=true&JigyosyoCd=3630230039-00&ServiceCd=140&Type=search", "url2": "https://kyujinkai-mc.or.jp" }, "geometry": { "type": "Point", "coordinates": [ 134.625550100000027, 34.2056747 ] } },
{ "type": "Feature", "properties": { "内容": "ふじのクリニック【訪問リハビリテーション】徳島県小松島市坂野町字平田18番地の4", "url": "https://www.kaigokensaku.mhlw.go.jp/36/index.php?action_kouhyou_detail_004_kani=true&JigyosyoCd=3610310504-00&ServiceCd=140&Type=search", "url2": "http://fujino.ezdns.jp/" }, "geometry": { "type": "Point", "coordinates": [ 134.6330763, 33.9808015 ] } },
{ "type": "Feature", "properties": { "内容": "徳島ロイヤル病院指定訪問リハビリテーション【訪問リハビリテーション】徳島県小松島市中田町字新開48番地", "url": "https://www.kaigokensaku.mhlw.go.jp/36/index.php?action_kouhyou_detail_004_kani=true&JigyosyoCd=3610311296-00&ServiceCd=140&Type=search", "url2": "http://www13.plala.or.jp/royal-hp/" }, "geometry": { "type": "Point", "coordinates": [ 134.583545799999968, 34.0132618 ] } },
{ "type": "Feature", "properties": { "内容": "訪問リハビリテーション　ライフ【訪問リハビリテーション】徳島県小松島市赤石町14番地27", "url": "https://www.kaigokensaku.mhlw.go.jp/36/index.php?action_kouhyou_detail_004_kani=true&JigyosyoCd=3610310629-00&ServiceCd=140&Type=search", "url2": "http://www.jiyukai.jp/" }, "geometry": { "type": "Point", "coordinates": [ 134.611222358301148, 33.980018481591564 ] } },
{ "type": "Feature", "properties": { "内容": "医療法人栄寿会　介護老人保健施設　小松島名月苑　訪問リハビリステーション【訪問リハビリテーション】徳島県小松島市中田町字狭間48", "url": "https://www.kaigokensaku.mhlw.go.jp/36/index.php?action_kouhyou_detail_004_kani=true&JigyosyoCd=3650380011-00&ServiceCd=140&Type=search", "url2": "https://tenma-hpg.com" }, "geometry": { "type": "Point", "coordinates": [ 134.5707162, 34.0152528 ] } },
{ "type": "Feature", "properties": { "内容": "医療法人　道志社　小松島病院【訪問リハビリテーション】徳島県小松島市田浦町近里83-11", "url": "https://www.kaigokensaku.mhlw.go.jp/36/index.php?action_kouhyou_detail_004_kani=true&JigyosyoCd=3610310108-00&ServiceCd=140&Type=search", "url2": "https://komatsushimahp.jp/" }, "geometry": { "type": "Point", "coordinates": [ 134.568661, 34.003244 ] } },
{ "type": "Feature", "properties": { "内容": "小松島リハビリテーションクリニック【訪問リハビリテーション】徳島県小松島市日開野町字宮免2-1", "url": "https://www.kaigokensaku.mhlw.go.jp/36/index.php?action_kouhyou_detail_004_kani=true&JigyosyoCd=3610310553-00&ServiceCd=140&Type=search", "url2": "https://komatsushimahp.jp/小松島リハビリテーションクリニック" }, "geometry": { "type": "Point", "coordinates": [ 134.571023500000024, 34.0020785 ] } },
{ "type": "Feature", "properties": { "内容": "碩心館病院訪問リハビリテーション【訪問リハビリテーション】徳島県小松島市江田町大江田４４−１", "url": "https://www.kaigokensaku.mhlw.go.jp/36/index.php?action_kouhyou_detail_004_kani=true&JigyosyoCd=3670300544-00&ServiceCd=140&Type=search", "url2": "https://www.sekishinkan.or.jp/" }, "geometry": { "type": "Point", "coordinates": [ 134.5636891, 34.0143076 ] } },
{ "type": "Feature", "properties": { "内容": "阿南医療センター【訪問リハビリテーション】徳島県阿南市宝田町川原6番地1", "url": "https://www.kaigokensaku.mhlw.go.jp/36/index.php?action_kouhyou_detail_004_kani=true&JigyosyoCd=3610413332-00&ServiceCd=140&Type=search", "url2": "http://www.anan-medc.jp" }, "geometry": { "type": "Point", "coordinates": [ 134.6457419, 33.9241476 ] } },
{ "type": "Feature", "properties": { "内容": "原田病院【訪問リハビリテーション】富岡町あ石14-1", "url": "https://www.kaigokensaku.mhlw.go.jp/36/index.php?action_kouhyou_detail_004_kani=true&JigyosyoCd=3610410015-00&ServiceCd=140&Type=search", "url2": null }, "geometry": { "type": "Point", "coordinates": [ 134.662509799999953, 33.9179235 ] } },
{ "type": "Feature", "properties": { "内容": "阿南天満クリニック訪問リハビリテーションセンター【訪問リハビリテーション】徳島県阿南市上中町南島325-1", "url": "https://www.kaigokensaku.mhlw.go.jp/36/index.php?action_kouhyou_detail_004_kani=true&JigyosyoCd=3610413308-00&ServiceCd=140&Type=search", "url2": "http://tenma-hpg.com/clinic/anantenma/" }, "geometry": { "type": "Point", "coordinates": [ 134.624001, 33.9369818 ] } },
{ "type": "Feature", "properties": { "内容": "指定訪問リハビリテーションロイヤルケアセンター【訪問リハビリテーション】徳島県阿南市羽ノ浦町中庄池ノ上55-1", "url": "https://www.kaigokensaku.mhlw.go.jp/36/index.php?action_kouhyou_detail_004_kani=true&JigyosyoCd=3651380440-00&ServiceCd=140&Type=search", "url2": "http://royal-carecenter.main.jp/" }, "geometry": { "type": "Point", "coordinates": [ 134.635629621182943, 33.957901444707417 ] } },
{ "type": "Feature", "properties": { "内容": "介護老人保健施設リハビリセンターのぞみ【訪問リハビリテーション】徳島県吉野川市山川町祇園41-5", "url": "https://www.kaigokensaku.mhlw.go.jp/36/index.php?action_kouhyou_detail_004_kani=true&JigyosyoCd=3651780151-00&ServiceCd=140&Type=search", "url2": "https://miki-rehabili.jp" }, "geometry": { "type": "Point", "coordinates": [ 134.249028299999964, 34.05664 ] } },
{ "type": "Feature", "properties": { "内容": "鈴木内科訪問リハビリテーション【訪問リハビリテーション】徳島県吉野川市鴨島町敷地14番地1鈴木内科", "url": "https://www.kaigokensaku.mhlw.go.jp/36/index.php?action_kouhyou_detail_004_kani=true&JigyosyoCd=3611710389-00&ServiceCd=140&Type=search", "url2": "http://suzukinaika.net/" }, "geometry": { "type": "Point", "coordinates": [ 134.3481458, 34.0615858 ] } },
{ "type": "Feature", "properties": { "内容": "老人保健施設　健祥会ウェル【訪問リハビリテーション】徳島県吉野川市川島町川島114番地3", "url": "https://www.kaigokensaku.mhlw.go.jp/36/index.php?action_kouhyou_detail_004_kani=true&JigyosyoCd=3651780052-00&ServiceCd=140&Type=search", "url2": "https://www.kenshokai.proup/" }, "geometry": { "type": "Point", "coordinates": [ 134.321092599999986, 34.0669173 ] } },
{ "type": "Feature", "properties": { "内容": "さくら診療所訪問リハビリ【訪問リハビリテーション】徳島県吉野川市山川町前川２１２－６", "url": "https://www.kaigokensaku.mhlw.go.jp/36/index.php?action_kouhyou_detail_004_kani=true&JigyosyoCd=3611713136-00&ServiceCd=140&Type=search", "url2": "https://www.sakura-sakura.or.jp" }, "geometry": { "type": "Point", "coordinates": [ 134.239104200000043, 34.0571092 ] } },
{ "type": "Feature", "properties": { "内容": "よしのがわ往診診療所【訪問リハビリテーション】徳島県吉野川市山川町湯立277-1", "url": "https://www.kaigokensaku.mhlw.go.jp/36/index.php?action_kouhyou_detail_004_kani=true&JigyosyoCd=3611713284-00&ServiceCd=140&Type=search", "url2": "https://www.yoshinogawaclinic.com/" }, "geometry": { "type": "Point", "coordinates": [ 134.2311121, 34.0570598 ] } },
{ "type": "Feature", "properties": { "内容": "美摩病院【訪問リハビリテーション】徳島県吉野川市鴨島町上下島421番地1", "url": "https://www.kaigokensaku.mhlw.go.jp/36/index.php?action_kouhyou_detail_004_kani=true&JigyosyoCd=3611710033-00&ServiceCd=140&Type=search", "url2": "http://www.mima-gr.jp/" }, "geometry": { "type": "Point", "coordinates": [ 134.3497595, 34.0712652 ] } },
{ "type": "Feature", "properties": { "内容": "鴨島病院【訪問リハビリテーション】徳島県吉野川市鴨島町内原432", "url": "https://www.kaigokensaku.mhlw.go.jp/36/index.php?action_kouhyou_detail_004_kani=true&JigyosyoCd=3611710116-00&ServiceCd=140&Type=search", "url2": "http://kamojima.t-group.net/" }, "geometry": { "type": "Point", "coordinates": [ 134.367577666270421, 34.070209963654818 ] } },
{ "type": "Feature", "properties": { "内容": "笠井病院訪問リハビリ事業所【訪問リハビリテーション】徳島県阿波市阿波町元町１４", "url": "https://www.kaigokensaku.mhlw.go.jp/36/index.php?action_kouhyou_detail_004_kani=true&JigyosyoCd=3611610035-00&ServiceCd=140&Type=search", "url2": "http://homepage2.nifty.com/dcken/kasai_hospital" }, "geometry": { "type": "Point", "coordinates": [ 134.238748100000066, 34.0762792 ] } },
{ "type": "Feature", "properties": { "内容": "介護老人保健施設しょうか苑【訪問リハビリテーション】徳島県阿波市土成町吉田字原田市ノ三６０番地１", "url": "https://www.kaigokensaku.mhlw.go.jp/36/index.php?action_kouhyou_detail_004_kani=true&JigyosyoCd=3651580361-00&ServiceCd=140&Type=search", "url2": "https://youaijitsu.com" }, "geometry": { "type": "Point", "coordinates": [ 134.346043099999946, 34.1089304 ] } },
{ "type": "Feature", "properties": { "内容": "岡内科病院【訪問リハビリテーション】徳島県美馬市脇町字拝原１４９６番地５", "url": "https://www.kaigokensaku.mhlw.go.jp/36/index.php?action_kouhyou_detail_004_kani=true&JigyosyoCd=3610510053-00&ServiceCd=140&Type=search", "url2": "okanaikahp@yahoo.co.jp" }, "geometry": { "type": "Point", "coordinates": [ 134.1661494, 34.0666655 ] } },
{ "type": "Feature", "properties": { "内容": "成田病院【訪問リハビリテーション】徳島県美馬市脇町字拝原2576番地", "url": "https://www.kaigokensaku.mhlw.go.jp/36/index.php?action_kouhyou_detail_004_kani=true&JigyosyoCd=3610510087-00&ServiceCd=140&Type=search", "url2": "http://www.fujinokai.net" }, "geometry": { "type": "Point", "coordinates": [ 134.175362700000051, 34.0650076 ] } },
{ "type": "Feature", "properties": { "内容": "介護老人保健施設　センターヴィレッジ【訪問リハビリテーション】徳島県美馬市脇町字拝原1354番地5", "url": "https://www.kaigokensaku.mhlw.go.jp/36/index.php?action_kouhyou_detail_004_kani=true&JigyosyoCd=3650580016-00&ServiceCd=140&Type=search", "url2": "https:www.kenshokai.group/" }, "geometry": { "type": "Point", "coordinates": [ 134.1656117, 34.0709599 ] } },
{ "type": "Feature", "properties": { "内容": "林クリニック【訪問リハビリテーション】徳島県美馬市脇町大字脇町340", "url": "https://www.kaigokensaku.mhlw.go.jp/36/index.php?action_kouhyou_detail_004_kani=true&JigyosyoCd=3610510624-00&ServiceCd=140&Type=search", "url2": null }, "geometry": { "type": "Point", "coordinates": [ 134.147852100000023, 34.0699792 ] } },
{ "type": "Feature", "properties": { "内容": "美馬リハビリテーション病院【訪問リハビリテーション】徳島県美馬市美馬町字沼田75番地", "url": "https://www.kaigokensaku.mhlw.go.jp/36/index.php?action_kouhyou_detail_004_kani=true&JigyosyoCd=3610510095-00&ServiceCd=140&Type=search", "url2": null }, "geometry": { "type": "Point", "coordinates": [ 134.0367525, 34.0495227 ] } },
{ "type": "Feature", "properties": { "内容": "社会医療法人　芳越会　ホウエツ病院【訪問リハビリテーション】徳島県美馬市脇町大字猪尻字八幡神社下南130-3", "url": "https://www.kaigokensaku.mhlw.go.jp/36/index.php?action_kouhyou_detail_004_kani=true&JigyosyoCd=3610510061-00&ServiceCd=140&Type=search", "url2": "www.houetsu.com" }, "geometry": { "type": "Point", "coordinates": [ 134.156006299999945, 34.0653595 ] } },
{ "type": "Feature", "properties": { "内容": "老人保健施設　健祥会ヘルス【訪問リハビリテーション】穴吹町三島字舞中島2021番地", "url": "https://www.kaigokensaku.mhlw.go.jp/36/index.php?action_kouhyou_detail_004_kani=true&JigyosyoCd=3651880258-00&ServiceCd=140&Type=search", "url2": "http://www.kenshokai.grpoup/" }, "geometry": { "type": "Point", "coordinates": [ 134.1393947, 34.0559326 ] } },
{ "type": "Feature", "properties": { "内容": "サンクリニック【訪問リハビリテーション】徳島県美馬市美馬町字南荒川71番地", "url": "https://www.kaigokensaku.mhlw.go.jp/36/index.php?action_kouhyou_detail_004_kani=true&JigyosyoCd=3610510665-00&ServiceCd=140&Type=search", "url2": "shishinkai.or.jp" }, "geometry": { "type": "Point", "coordinates": [ 134.0393273, 34.0494879 ] } },
{ "type": "Feature", "properties": { "内容": "内田医院【訪問リハビリテーション】徳島県三好市池田町中西ナガウチ254-3", "url": "https://www.kaigokensaku.mhlw.go.jp/36/index.php?action_kouhyou_detail_004_kani=true&JigyosyoCd=3610610531-00&ServiceCd=140&Type=search", "url2": "https://uchida-kai.jp/clinics/uchida-iin/" }, "geometry": { "type": "Point", "coordinates": [ 133.787302399999987, 34.0079873 ] } },
{ "type": "Feature", "properties": { "内容": "医療法人　三野田中病院【訪問リハビリテーション】徳島県三好市三野町芝生1242番地6", "url": "https://www.kaigokensaku.mhlw.go.jp/36/index.php?action_kouhyou_detail_004_kani=true&JigyosyoCd=3610610069-00&ServiceCd=140&Type=search", "url2": "http://www.tanakahospital.or.jp" }, "geometry": { "type": "Point", "coordinates": [ 133.96647669999993, 34.0425132 ] } },
{ "type": "Feature", "properties": { "内容": "健生西部診療所【訪問リハビリテーション】徳島県三好市井川町吉岡127-2", "url": "https://www.kaigokensaku.mhlw.go.jp/36/index.php?action_kouhyou_detail_004_kani=true&JigyosyoCd=3610610523-00&ServiceCd=140&Type=search", "url2": "https://kensei-seibu.com" }, "geometry": { "type": "Point", "coordinates": [ 133.8642251, 34.0306094 ] } },
{ "type": "Feature", "properties": { "内容": "国民健康保険勝浦病院【訪問リハビリテーション】徳島県勝浦郡勝浦町大字棚野字鴻畑13番地2", "url": "https://www.kaigokensaku.mhlw.go.jp/36/index.php?action_kouhyou_detail_004_kani=true&JigyosyoCd=3611010012-00&ServiceCd=140&Type=search", "url2": "http://www.town.katsuura.lg.jp/hospital/" }, "geometry": { "type": "Point", "coordinates": [ 138.252924, 36.204824 ] } },
{ "type": "Feature", "properties": { "内容": "医療法人石岡整形外科【訪問リハビリテーション】徳島県名西郡石井町高川原字桜間215", "url": "https://www.kaigokensaku.mhlw.go.jp/36/index.php?action_kouhyou_detail_004_kani=true&JigyosyoCd=3611213053-00&ServiceCd=140&Type=search", "url2": "http://ishioka-seikei-ishii.or.jp/" }, "geometry": { "type": "Point", "coordinates": [ 134.460921, 34.085002 ] } },
{ "type": "Feature", "properties": { "内容": "石井虹の橋クリニック訪問リハビリテーション【訪問リハビリテーション】徳島県名西郡石井町石井字石井231-1", "url": "https://www.kaigokensaku.mhlw.go.jp/36/index.php?action_kouhyou_detail_004_kani=true&JigyosyoCd=3611213061-00&ServiceCd=140&Type=search", "url2": "https://ishii-nijinohashi.net/" }, "geometry": { "type": "Point", "coordinates": [ 134.4380319, 34.0670222 ] } },
{ "type": "Feature", "properties": { "内容": "中谷医院【訪問リハビリテーション】徳島県名西郡神山町神領字西野間23-1", "url": "https://www.kaigokensaku.mhlw.go.jp/36/index.php?action_kouhyou_detail_004_kani=true&JigyosyoCd=3611210539-00&ServiceCd=140&Type=search", "url2": null }, "geometry": { "type": "Point", "coordinates": [ 134.348172, 33.966877 ] } },
{ "type": "Feature", "properties": { "内容": "那賀町国民健康保険日野谷診療所【訪問リハビリテーション】徳島県那賀郡那賀町大久保字大西3-2", "url": "https://www.kaigokensaku.mhlw.go.jp/36/index.php?action_kouhyou_detail_004_kani=true&JigyosyoCd=3611312574-00&ServiceCd=140&Type=search", "url2": "http://www.whk.ne.jp/~aioih/" }, "geometry": { "type": "Point", "coordinates": [ 134.443800799999963, 33.7915458 ] } },
{ "type": "Feature", "properties": { "内容": "介護老人保健施設　ケアホーム鷲敷【訪問リハビリテーション】徳島県那賀郡那賀町和食郷字八幡原444介護老人保健施設　ケアホーム鷲敷", "url": "https://www.kaigokensaku.mhlw.go.jp/36/index.php?action_kouhyou_detail_004_kani=true&JigyosyoCd=3651380408-00&ServiceCd=140&Type=search", "url2": "http://wajiki.rouken.jp/" }, "geometry": { "type": "Point", "coordinates": [ 134.503388299999983, 33.8560164 ] } },
{ "type": "Feature", "properties": { "内容": "ヒワサクリニック【訪問リハビリテーション】徳島県海部郡美波町西河内字丹前102番地2", "url": "https://www.kaigokensaku.mhlw.go.jp/36/index.php?action_kouhyou_detail_004_kani=true&JigyosyoCd=3611410501-00&ServiceCd=140&Type=search", "url2": null }, "geometry": { "type": "Point", "coordinates": [ 134.518070399999942, 33.7331561 ] } },
{ "type": "Feature", "properties": { "内容": "海陽町国民健康保険海南病院【訪問リハビリテーション】徳島県海部郡海陽町四方原字広谷16-1", "url": "https://www.kaigokensaku.mhlw.go.jp/36/index.php?action_kouhyou_detail_004_kani=true&JigyosyoCd=3611410089-00&ServiceCd=140&Type=search", "url2": "http://kainanhp.jp" }, "geometry": { "type": "Point", "coordinates": [ 134.35520120000001, 33.6145352 ] } },
{ "type": "Feature", "properties": { "内容": "医療法人折野胃腸科内科【訪問リハビリテーション】徳島県海部郡海陽町宍喰町字松原５８番地５", "url": "https://www.kaigokensaku.mhlw.go.jp/36/index.php?action_kouhyou_detail_004_kani=true&JigyosyoCd=3611410485-00&ServiceCd=140&Type=search", "url2": null }, "geometry": { "type": "Point", "coordinates": [ 134.30059, 33.566734 ] } },
{ "type": "Feature", "properties": { "内容": "老人保健施設　ジャンボ緑風会【訪問リハビリテーション】徳島県海部郡海陽町久保字板取243番310", "url": "https://www.kaigokensaku.mhlw.go.jp/36/index.php?action_kouhyou_detail_004_kani=true&JigyosyoCd=3651480372-00&ServiceCd=140&Type=search", "url2": "https://www.kenshokai.group/" }, "geometry": { "type": "Point", "coordinates": [ 134.306665773767008, 33.57635322323604 ] } },
{ "type": "Feature", "properties": { "内容": "芳川病院【訪問リハビリテーション】徳島県板野郡松茂町中喜来字群恵278番地8", "url": "https://www.kaigokensaku.mhlw.go.jp/36/index.php?action_kouhyou_detail_004_kani=true&JigyosyoCd=3611510235-00&ServiceCd=140&Type=search", "url2": "http://www.yujoukai.jp" }, "geometry": { "type": "Point", "coordinates": [ 138.252924, 36.204824 ] } },
{ "type": "Feature", "properties": { "内容": "うらた訪問リハビリテーション事業所【訪問リハビリテーション】徳島県板野郡松茂町広島字南ハリ１３", "url": "https://www.kaigokensaku.mhlw.go.jp/36/index.php?action_kouhyou_detail_004_kani=true&JigyosyoCd=3611510037-00&ServiceCd=140&Type=search", "url2": "www.uratahp.com" }, "geometry": { "type": "Point", "coordinates": [ 134.577426, 34.1330128 ] } },
{ "type": "Feature", "properties": { "内容": "介護老人保健施設　縁樹【訪問リハビリテーション】徳島県板野郡松茂町広島字四番越1番地５", "url": "https://www.kaigokensaku.mhlw.go.jp/36/index.php?action_kouhyou_detail_004_kani=true&JigyosyoCd=3651580171-00&ServiceCd=140&Type=search", "url2": "https://yujoukai.jp/kh_enju.html" }, "geometry": { "type": "Point", "coordinates": [ 134.5841103, 34.1375386 ] } },
{ "type": "Feature", "properties": { "内容": "介護老人保健施設　敬愛の家【訪問リハビリテーション】徳島県板野郡北島町中村字八丁野２２番地の1", "url": "https://www.kaigokensaku.mhlw.go.jp/36/index.php?action_kouhyou_detail_004_kani=true&JigyosyoCd=3651580064-00&ServiceCd=140&Type=search", "url2": "https://syuseikai-group.net/medical" }, "geometry": { "type": "Point", "coordinates": [ 134.537974100000042, 34.1302713 ] } },
{ "type": "Feature", "properties": { "内容": "TAOKA訪問リハビリセンター北島【訪問リハビリテーション】徳島県板野郡北島町鯛浜字川久保30番地1", "url": "https://www.kaigokensaku.mhlw.go.jp/36/index.php?action_kouhyou_detail_004_kani=true&JigyosyoCd=3611510243-00&ServiceCd=140&Type=search", "url2": "http://www.kitajima-taoka.or.jp/" }, "geometry": { "type": "Point", "coordinates": [ 134.553042799999957, 34.1111042 ] } },
{ "type": "Feature", "properties": { "内容": "内科クリニック・オクムラ　訪問リハビリテーション【訪問リハビリテーション】徳島県板野郡藍住町奥野字長江口70-7", "url": "https://www.kaigokensaku.mhlw.go.jp/36/index.php?action_kouhyou_detail_004_kani=true&JigyosyoCd=3611513403-00&ServiceCd=140&Type=search", "url2": "http://clinic-okumura.com/" }, "geometry": { "type": "Point", "coordinates": [ 134.482855299999983, 34.1238818 ] } },
{ "type": "Feature", "properties": { "内容": "清水内科【訪問リハビリテーション】徳島県板野郡藍住町奥野字和田71-13", "url": "https://www.kaigokensaku.mhlw.go.jp/36/index.php?action_kouhyou_detail_004_kani=true&JigyosyoCd=3611510417-00&ServiceCd=140&Type=search", "url2": "http://www.seijyukai-med.jp/" }, "geometry": { "type": "Point", "coordinates": [ 134.494126177057751, 34.121087776704826 ] } },
{ "type": "Feature", "properties": { "内容": "介護老人保健施設　昴【訪問リハビリテーション】徳島県板野郡藍住町矢上字安任137-1", "url": "https://www.kaigokensaku.mhlw.go.jp/36/index.php?action_kouhyou_detail_004_kani=true&JigyosyoCd=3651580338-00&ServiceCd=140&Type=search", "url2": "www.ryoun.com/" }, "geometry": { "type": "Point", "coordinates": [ 134.497295, 34.1365255 ] } },
{ "type": "Feature", "properties": { "内容": "老人保健施設　健祥会ハート【訪問リハビリテーション】徳島県板野郡上板町下六條字中西50番地1", "url": "https://www.kaigokensaku.mhlw.go.jp/36/index.php?action_kouhyou_detail_004_kani=true&JigyosyoCd=3651580353-00&ServiceCd=140&Type=search", "url2": "http://www.kenshokai.group" }, "geometry": { "type": "Point", "coordinates": [ 134.433932300000038, 34.1113134 ] } },
{ "type": "Feature", "properties": { "内容": "老人保健施設　健祥会シェーンブルン【訪問リハビリテーション】徳島県三好郡東みよし町中庄1369番地1", "url": "https://www.kaigokensaku.mhlw.go.jp/36/index.php?action_kouhyou_detail_004_kani=true&JigyosyoCd=3651980454-00&ServiceCd=140&Type=search", "url2": "http://www.kenshokai.group/" }, "geometry": { "type": "Point", "coordinates": [ 133.972667699999988, 34.0369474 ] } }
]
}
