{
"type": "FeatureCollection",
"name": "geo_36_認知症対応型共同生活介護",
"crs": { "type": "name", "properties": { "name": "urn:ogc:def:crs:OGC:1.3:CRS84" } },
"features": [
{ "type": "Feature", "properties": { "内容": "ハートインライフ住吉【認知症対応型共同生活介護】徳島県徳島市住吉2丁目9番8号", "url": "https://www.kaigokensaku.mhlw.go.jp/36/index.php?action_kouhyou_detail_004_kani=true&JigyosyoCd=3670101611-00&ServiceCd=320&Type=search", "url2": "http://heartfulcare.jp/" }, "geometry": { "type": "Point", "coordinates": [ 134.567809099999977, 34.0763687 ] } },
{ "type": "Feature", "properties": { "内容": "グループホーム太陽【認知症対応型共同生活介護】徳島県徳島市山城西四丁目34", "url": "https://www.kaigokensaku.mhlw.go.jp/36/index.php?action_kouhyou_detail_004_kani=true&JigyosyoCd=3690167972-00&ServiceCd=320&Type=search", "url2": "http://g-home-taiyou.com/" }, "geometry": { "type": "Point", "coordinates": [ 134.55264, 34.0485112 ] } },
{ "type": "Feature", "properties": { "内容": "グループホームハタ【認知症対応型共同生活介護】徳島県徳島市八多町小倉76番地", "url": "https://www.kaigokensaku.mhlw.go.jp/36/index.php?action_kouhyou_detail_004_kani=true&JigyosyoCd=3670100951-00&ServiceCd=320&Type=search", "url2": "http://www.hatah.or.jp" }, "geometry": { "type": "Point", "coordinates": [ 134.518834345368987, 33.995744148515072 ] } },
{ "type": "Feature", "properties": { "内容": "グループホーム野バラ【認知症対応型共同生活介護】徳島県徳島市名東町2丁目456", "url": "https://www.kaigokensaku.mhlw.go.jp/36/index.php?action_kouhyou_detail_004_kani=true&JigyosyoCd=3670100035-00&ServiceCd=320&Type=search", "url2": "http://www.sawarabikai.or.jp/" }, "geometry": { "type": "Point", "coordinates": [ 134.495810300000016, 34.0592393 ] } },
{ "type": "Feature", "properties": { "内容": "グループホーム　菜の花【認知症対応型共同生活介護】徳島県徳島市安宅一丁目8番10号", "url": "https://www.kaigokensaku.mhlw.go.jp/36/index.php?action_kouhyou_detail_004_kani=true&JigyosyoCd=3670101876-00&ServiceCd=320&Type=search", "url2": "http://joto-geka.jp" }, "geometry": { "type": "Point", "coordinates": [ 134.571837880351012, 34.071056293068949 ] } },
{ "type": "Feature", "properties": { "内容": "グループホーム蜂須賀荘【認知症対応型共同生活介護】徳島県徳島市応神町古川字日ノ上３２－１", "url": "https://www.kaigokensaku.mhlw.go.jp/36/index.php?action_kouhyou_detail_004_kani=true&JigyosyoCd=3650180023-00&ServiceCd=320&Type=search", "url2": "http://rouken-oujin.jp/" }, "geometry": { "type": "Point", "coordinates": [ 134.55633790859838, 34.100772823497202 ] } },
{ "type": "Feature", "properties": { "内容": "グループホーム春日苑川内【認知症対応型共同生活介護】徳島県徳島市川内町沖島273", "url": "https://www.kaigokensaku.mhlw.go.jp/36/index.php?action_kouhyou_detail_004_kani=true&JigyosyoCd=3670101363-00&ServiceCd=320&Type=search", "url2": "http://kasugaen.jp/" }, "geometry": { "type": "Point", "coordinates": [ 134.572386060928324, 34.108358374357636 ] } },
{ "type": "Feature", "properties": { "内容": "医療法人いちえ会　グループホームいちごの家徳島町【認知症対応型共同生活介護】徳島県徳島市徳島町二丁目44－1", "url": "https://www.kaigokensaku.mhlw.go.jp/36/index.php?action_kouhyou_detail_004_kani=true&JigyosyoCd=3690168103-00&ServiceCd=320&Type=search", "url2": "http://ichie-kizuna.or.jp" }, "geometry": { "type": "Point", "coordinates": [ 134.558025500000014, 34.073519 ] } },
{ "type": "Feature", "properties": { "内容": "グループホーム藍香【認知症対応型共同生活介護】徳島市川内町平石住吉183番地の1", "url": "https://www.kaigokensaku.mhlw.go.jp/36/index.php?action_kouhyou_detail_004_kani=true&JigyosyoCd=3670100209-00&ServiceCd=320&Type=search", "url2": "http://seikahukushikai.jp" }, "geometry": { "type": "Point", "coordinates": [ 134.586211651291705, 34.113734179201174 ] } },
{ "type": "Feature", "properties": { "内容": "社会福祉法人　愛心会グループホーム　福寿【認知症対応型共同生活介護】徳島県徳島市津田町３丁目１番１３号", "url": "https://www.kaigokensaku.mhlw.go.jp/36/index.php?action_kouhyou_detail_004_kani=true&JigyosyoCd=3690168111-00&ServiceCd=320&Type=search", "url2": null }, "geometry": { "type": "Point", "coordinates": [ 134.580553694581596, 34.047851508295786 ] } },
{ "type": "Feature", "properties": { "内容": "グループホーム徳島いちご苑【認知症対応型共同生活介護】徳島県徳島市徳島町２丁目55-3", "url": "https://www.kaigokensaku.mhlw.go.jp/36/index.php?action_kouhyou_detail_004_kani=true&JigyosyoCd=3670102239-00&ServiceCd=320&Type=search", "url2": "http://ichie-kizuna.or.jp/" }, "geometry": { "type": "Point", "coordinates": [ 134.55747139999994, 34.0594852 ] } },
{ "type": "Feature", "properties": { "内容": "グループホーム勝占【認知症対応型共同生活介護】徳島県徳島市勝占町松成４３－１", "url": "https://www.kaigokensaku.mhlw.go.jp/36/index.php?action_kouhyou_detail_004_kani=true&JigyosyoCd=3670101066-00&ServiceCd=320&Type=search", "url2": "https://katsura.tokuyou.jp" }, "geometry": { "type": "Point", "coordinates": [ 134.5514809, 34.0204447 ] } },
{ "type": "Feature", "properties": { "内容": "グループホームわかくさ【認知症対応型共同生活介護】徳島市川内町小松西９３", "url": "https://www.kaigokensaku.mhlw.go.jp/36/index.php?action_kouhyou_detail_004_kani=true&JigyosyoCd=3650180320-00&ServiceCd=320&Type=search", "url2": "http://www.wakakusakai.com/group.html" }, "geometry": { "type": "Point", "coordinates": [ 134.591967699999941, 34.0893958 ] } },
{ "type": "Feature", "properties": { "内容": "グループホームえくせれんと国府【認知症対応型共同生活介護】徳島県徳島市国府町中493-1", "url": "https://www.kaigokensaku.mhlw.go.jp/36/index.php?action_kouhyou_detail_004_kani=true&JigyosyoCd=3690100213-00&ServiceCd=320&Type=search", "url2": "http://www.excare.co.jp/" }, "geometry": { "type": "Point", "coordinates": [ 134.47877120000004, 34.0633782 ] } },
{ "type": "Feature", "properties": { "内容": "グループホームサムデイワルツ【認知症対応型共同生活介護】徳島県徳島市川内町平石若松９５番地", "url": "https://www.kaigokensaku.mhlw.go.jp/36/index.php?action_kouhyou_detail_004_kani=true&JigyosyoCd=3690168269-00&ServiceCd=320&Type=search", "url2": "http://www.someday-w.com" }, "geometry": { "type": "Point", "coordinates": [ 134.5823699, 34.111944 ] } },
{ "type": "Feature", "properties": { "内容": "グループホームほほえみ【認知症対応型共同生活介護】徳島県徳島市津田西町１丁目9-5", "url": "https://www.kaigokensaku.mhlw.go.jp/36/index.php?action_kouhyou_detail_004_kani=true&JigyosyoCd=3670101819-00&ServiceCd=320&Type=search", "url2": "http://www.terasawa.or.jp" }, "geometry": { "type": "Point", "coordinates": [ 134.57553889999997, 34.051614 ] } },
{ "type": "Feature", "properties": { "内容": "ふくしすてーしょんそのせ【認知症対応型共同生活介護】八万町下長谷２５９－１", "url": "https://www.kaigokensaku.mhlw.go.jp/36/index.php?action_kouhyou_detail_004_kani=true&JigyosyoCd=3690100247-00&ServiceCd=320&Type=search", "url2": "https://www.shikoku.shizenha.net/sonose/" }, "geometry": { "type": "Point", "coordinates": [ 134.5176083, 34.0447805 ] } },
{ "type": "Feature", "properties": { "内容": "グループホーム恵【認知症対応型共同生活介護】徳島県徳島市春日１丁目４－１２", "url": "https://www.kaigokensaku.mhlw.go.jp/36/index.php?action_kouhyou_detail_004_kani=true&JigyosyoCd=3690167964-00&ServiceCd=320&Type=search", "url2": "http://itsumosmile.jp/" }, "geometry": { "type": "Point", "coordinates": [ 134.5331701, 34.0916087 ] } },
{ "type": "Feature", "properties": { "内容": "グループホームグランスウィート・マリー【認知症対応型共同生活介護】川内町富久102-2", "url": "https://www.kaigokensaku.mhlw.go.jp/36/index.php?action_kouhyou_detail_004_kani=true&JigyosyoCd=3670101777-00&ServiceCd=320&Type=search", "url2": "https://mary.nozomihp.com" }, "geometry": { "type": "Point", "coordinates": [ 134.592172900000037, 34.104374600000021 ] } },
{ "type": "Feature", "properties": { "内容": "グループホームさくら【認知症対応型共同生活介護】徳島県徳島市下町本丁61-1グループホームさくら", "url": "https://www.kaigokensaku.mhlw.go.jp/36/index.php?action_kouhyou_detail_004_kani=true&JigyosyoCd=3670101793-00&ServiceCd=320&Type=search", "url2": null }, "geometry": { "type": "Point", "coordinates": [ 134.485364, 34.035928 ] } },
{ "type": "Feature", "properties": { "内容": "グループホームわかば【認知症対応型共同生活介護】徳島県徳島市新浜本町3丁目2-17", "url": "https://www.kaigokensaku.mhlw.go.jp/36/index.php?action_kouhyou_detail_004_kani=true&JigyosyoCd=3670101967-00&ServiceCd=320&Type=search", "url2": "http:/www.kondo-hp.com" }, "geometry": { "type": "Point", "coordinates": [ 134.567953499999931, 34.0444896 ] } },
{ "type": "Feature", "properties": { "内容": "グループホームあさがお【認知症対応型共同生活介護】徳島県徳島市大原町外籠４７番地の１", "url": "https://www.kaigokensaku.mhlw.go.jp/36/index.php?action_kouhyou_detail_004_kani=true&JigyosyoCd=3670101496-00&ServiceCd=320&Type=search", "url2": "http://www.asagao-fukushikai.jp/" }, "geometry": { "type": "Point", "coordinates": [ 134.568177926983708, 34.033848553642841 ] } },
{ "type": "Feature", "properties": { "内容": "グループホーム松の実【認知症対応型共同生活介護】徳島県徳島市名東町3丁目15グループホーム松の実", "url": "https://www.kaigokensaku.mhlw.go.jp/36/index.php?action_kouhyou_detail_004_kani=true&JigyosyoCd=3670101512-00&ServiceCd=320&Type=search", "url2": "https://kamona-sakurakouen-clinic.jp/related-facility/" }, "geometry": { "type": "Point", "coordinates": [ 134.495412357672052, 34.058816876245885 ] } },
{ "type": "Feature", "properties": { "内容": "グループホームひかる【認知症対応型共同生活介護】徳島県徳島市名東町一丁目91番地", "url": "https://www.kaigokensaku.mhlw.go.jp/36/index.php?action_kouhyou_detail_004_kani=true&JigyosyoCd=3610125381-00&ServiceCd=320&Type=search", "url2": "http://tenma-hpg.com/" }, "geometry": { "type": "Point", "coordinates": [ 134.5050678, 34.0660193 ] } },
{ "type": "Feature", "properties": { "内容": "グループホーム　クローバー【認知症対応型共同生活介護】徳島県徳島市南末広町４-７６", "url": "https://www.kaigokensaku.mhlw.go.jp/36/index.php?action_kouhyou_detail_004_kani=true&JigyosyoCd=3670101835-00&ServiceCd=320&Type=search", "url2": "http://www.kinoshita-hp.com/" }, "geometry": { "type": "Point", "coordinates": [ 134.575036299999965, 34.0601408 ] } },
{ "type": "Feature", "properties": { "内容": "グループホーム　かがやき2号館【認知症対応型共同生活介護】徳島市八万町橋本92-1", "url": "https://www.kaigokensaku.mhlw.go.jp/36/index.php?action_kouhyou_detail_004_kani=true&JigyosyoCd=3670101884-00&ServiceCd=320&Type=search", "url2": "http://www.kyoritsuhp.or.jp" }, "geometry": { "type": "Point", "coordinates": [ 134.5312465, 34.04317240000001 ] } },
{ "type": "Feature", "properties": { "内容": "グループホーム　南矢三【認知症対応型共同生活介護】徳島県徳島市南矢三町2丁目6-7", "url": "https://www.kaigokensaku.mhlw.go.jp/36/index.php?action_kouhyou_detail_004_kani=true&JigyosyoCd=3690100056-00&ServiceCd=320&Type=search", "url2": null }, "geometry": { "type": "Point", "coordinates": [ 134.524902542327908, 34.081724070939359 ] } },
{ "type": "Feature", "properties": { "内容": "グループホームたんぽぽ【認知症対応型共同生活介護】徳島県徳島市西新浜町2丁目3-33", "url": "https://www.kaigokensaku.mhlw.go.jp/36/index.php?action_kouhyou_detail_004_kani=true&JigyosyoCd=3650180015-00&ServiceCd=320&Type=search", "url2": "https://www.royal-hc.com/" }, "geometry": { "type": "Point", "coordinates": [ 134.5596627, 34.0419007 ] } },
{ "type": "Feature", "properties": { "内容": "社会福祉法人光風会グループホームやまもも【認知症対応型共同生活介護】徳島県徳島市下町本丁59-26", "url": "https://www.kaigokensaku.mhlw.go.jp/36/index.php?action_kouhyou_detail_004_kani=true&JigyosyoCd=3670100027-00&ServiceCd=320&Type=search", "url2": "http://www.tk2.nmt.ne.jp/~kouhuukai/index.html" }, "geometry": { "type": "Point", "coordinates": [ 134.48750270000005, 34.036933400000024 ] } },
{ "type": "Feature", "properties": { "内容": "グループホーム　渭北【認知症対応型共同生活介護】徳島県徳島市下助任町3丁目34-2", "url": "https://www.kaigokensaku.mhlw.go.jp/36/index.php?action_kouhyou_detail_004_kani=true&JigyosyoCd=3670100878-00&ServiceCd=320&Type=search", "url2": "http://ihoku.grouph.jp" }, "geometry": { "type": "Point", "coordinates": [ 134.552771399999983, 34.0824521 ] } },
{ "type": "Feature", "properties": { "内容": "グループホームフェニックス【認知症対応型共同生活介護】徳島県徳島市国府町井戸字左ヶ池39-1グループホームフェニックス", "url": "https://www.kaigokensaku.mhlw.go.jp/36/index.php?action_kouhyou_detail_004_kani=true&JigyosyoCd=3670100936-00&ServiceCd=320&Type=search", "url2": "http://tamaki-aozora.ne.jp/" }, "geometry": { "type": "Point", "coordinates": [ 134.483965325383991, 34.088431233700398 ] } },
{ "type": "Feature", "properties": { "内容": "TAOKAグループホーム樹庵【認知症対応型共同生活介護】徳島市城東町2丁目7番34号", "url": "https://www.kaigokensaku.mhlw.go.jp/36/index.php?action_kouhyou_detail_004_kani=true&JigyosyoCd=3690168095-00&ServiceCd=320&Type=search", "url2": "http://www.taoka-higashi.or.jp/juan/" }, "geometry": { "type": "Point", "coordinates": [ 134.574610900000039, 34.072805 ] } },
{ "type": "Feature", "properties": { "内容": "グループホーム元気【認知症対応型共同生活介護】徳島県徳島市国府町東高輪３５３番地２", "url": "https://www.kaigokensaku.mhlw.go.jp/36/index.php?action_kouhyou_detail_004_kani=true&JigyosyoCd=3690168079-00&ServiceCd=320&Type=search", "url2": "https://www.kenshokai.group/" }, "geometry": { "type": "Point", "coordinates": [ 134.481977089549218, 34.088893107577775 ] } },
{ "type": "Feature", "properties": { "内容": "グループホーム健祥会彦左【認知症対応型共同生活介護】徳島県徳島市南沖洲四丁目3番1号グループホーム健祥会彦左", "url": "https://www.kaigokensaku.mhlw.go.jp/36/index.php?action_kouhyou_detail_004_kani=true&JigyosyoCd=3670102247-00&ServiceCd=320&Type=search", "url2": "https://www.kenshokai.group/" }, "geometry": { "type": "Point", "coordinates": [ 134.5894793, 34.0595966 ] } },
{ "type": "Feature", "properties": { "内容": "グループホーム　ふれあい【認知症対応型共同生活介護】徳島県徳島市国府町和田字居内4番地2グループホーム　ふれあい", "url": "https://www.kaigokensaku.mhlw.go.jp/36/index.php?action_kouhyou_detail_004_kani=true&JigyosyoCd=3670101504-00&ServiceCd=320&Type=search", "url2": "http://tamaki-aozora.ne.jp/" }, "geometry": { "type": "Point", "coordinates": [ 134.495154800000023, 34.0722127 ] } },
{ "type": "Feature", "properties": { "内容": "グループホームフォレスト【認知症対応型共同生活介護】徳島県徳島市八万町大野7－1", "url": "https://www.kaigokensaku.mhlw.go.jp/36/index.php?action_kouhyou_detail_004_kani=true&JigyosyoCd=3650180189-00&ServiceCd=320&Type=search", "url2": "https://keirou-group.jp/keirou-medical/about/" }, "geometry": { "type": "Point", "coordinates": [ 134.5506077, 34.0439695 ] } },
{ "type": "Feature", "properties": { "内容": "グループホーム千寿園【認知症対応型共同生活介護】徳島市北島田町1丁目126番地6", "url": "https://www.kaigokensaku.mhlw.go.jp/36/index.php?action_kouhyou_detail_004_kani=true&JigyosyoCd=3610125340-00&ServiceCd=320&Type=search", "url2": "http://www.toyohosp.net/" }, "geometry": { "type": "Point", "coordinates": [ 134.516299600000025, 34.0894224 ] } },
{ "type": "Feature", "properties": { "内容": "グループホームかがやき【認知症対応型共同生活介護】徳島県徳島市八万町橋本92-1", "url": "https://www.kaigokensaku.mhlw.go.jp/36/index.php?action_kouhyou_detail_004_kani=true&JigyosyoCd=3670101447-00&ServiceCd=320&Type=search", "url2": "http://kyouritsuhp.or.jp" }, "geometry": { "type": "Point", "coordinates": [ 134.531412796958932, 34.043254121073275 ] } },
{ "type": "Feature", "properties": { "内容": "グループホーム大神子【認知症対応型共同生活介護】徳島県徳島市大原町大神子16番地2", "url": "https://www.kaigokensaku.mhlw.go.jp/36/index.php?action_kouhyou_detail_004_kani=true&JigyosyoCd=3610123667-00&ServiceCd=320&Type=search", "url2": "http://www.doushisya.jp" }, "geometry": { "type": "Point", "coordinates": [ 134.585293200000024, 34.0287391 ] } },
{ "type": "Feature", "properties": { "内容": "すだち会　グループホーム【認知症対応型共同生活介護】徳島県徳島市大原町余慶71番地の2", "url": "https://www.kaigokensaku.mhlw.go.jp/36/index.php?action_kouhyou_detail_004_kani=true&JigyosyoCd=3670101652-00&ServiceCd=320&Type=search", "url2": "http://www.sudachikai.jp" }, "geometry": { "type": "Point", "coordinates": [ 134.573928, 34.0269446 ] } },
{ "type": "Feature", "properties": { "内容": "グループホーム　ひのき【認知症対応型共同生活介護】徳島県徳島市三軒屋町東73-3", "url": "https://www.kaigokensaku.mhlw.go.jp/36/index.php?action_kouhyou_detail_004_kani=true&JigyosyoCd=3670102072-00&ServiceCd=320&Type=search", "url2": null }, "geometry": { "type": "Point", "coordinates": [ 134.551608100000067, 34.035268 ] } },
{ "type": "Feature", "properties": { "内容": "グループホーム八万【認知症対応型共同生活介護】徳島県徳島市八万町下福万128-88八万小規模多機能センター", "url": "https://www.kaigokensaku.mhlw.go.jp/36/index.php?action_kouhyou_detail_004_kani=true&JigyosyoCd=3670100985-00&ServiceCd=320&Type=search", "url2": "https://hachiman.grouph.jp" }, "geometry": { "type": "Point", "coordinates": [ 134.532424, 34.0544487 ] } },
{ "type": "Feature", "properties": { "内容": "佐古グループホーム【認知症対応型共同生活介護】徳島県徳島市佐古四番町4－7佐古グループホーム", "url": "https://www.kaigokensaku.mhlw.go.jp/36/index.php?action_kouhyou_detail_004_kani=true&JigyosyoCd=3670101397-00&ServiceCd=320&Type=search", "url2": "https://yamashiro-clinic.jp/" }, "geometry": { "type": "Point", "coordinates": [ 134.533993700000025, 34.077099600000011 ] } },
{ "type": "Feature", "properties": { "内容": "山城グループホーム【認知症対応型共同生活介護】徳島県徳島市山城西4丁目47番地山城グループホーム", "url": "https://www.kaigokensaku.mhlw.go.jp/36/index.php?action_kouhyou_detail_004_kani=true&JigyosyoCd=3670100712-00&ServiceCd=320&Type=search", "url2": "https://yamashiro-clinic.jp/" }, "geometry": { "type": "Point", "coordinates": [ 134.553828766513561, 34.047226864992524 ] } },
{ "type": "Feature", "properties": { "内容": "グループホームひまわり【認知症対応型共同生活介護】徳島県徳島市かちどき橋2丁目55番地", "url": "https://www.kaigokensaku.mhlw.go.jp/36/index.php?action_kouhyou_detail_004_kani=true&JigyosyoCd=3690167956-00&ServiceCd=320&Type=search", "url2": "http://gh-himawari.com/" }, "geometry": { "type": "Point", "coordinates": [ 134.555204799999956, 34.0624999 ] } },
{ "type": "Feature", "properties": { "内容": "グループホームひなたぼっこ【認知症対応型共同生活介護】徳島県鳴門市大津町矢倉字四ノ越3番", "url": "https://www.kaigokensaku.mhlw.go.jp/36/index.php?action_kouhyou_detail_004_kani=true&JigyosyoCd=3650280211-00&ServiceCd=320&Type=search", "url2": null }, "geometry": { "type": "Point", "coordinates": [ 134.590308, 34.1517055 ] } },
{ "type": "Feature", "properties": { "内容": "グループホームそよかぜ【認知症対応型共同生活介護】徳島県鳴門市瀬戸町明神字上本城77番地2", "url": "https://www.kaigokensaku.mhlw.go.jp/36/index.php?action_kouhyou_detail_004_kani=true&JigyosyoCd=3690200013-00&ServiceCd=320&Type=search", "url2": null }, "geometry": { "type": "Point", "coordinates": [ 134.5828196, 34.2107961 ] } },
{ "type": "Feature", "properties": { "内容": "グループホーム撫養【認知症対応型共同生活介護】徳島県鳴門市撫養町斎田字浜端南106", "url": "https://www.kaigokensaku.mhlw.go.jp/36/index.php?action_kouhyou_detail_004_kani=true&JigyosyoCd=3690200146-00&ServiceCd=320&Type=search", "url2": "midorikai-naruto.jp" }, "geometry": { "type": "Point", "coordinates": [ 134.6039575, 34.177607199999983 ] } },
{ "type": "Feature", "properties": { "内容": "グループホームおおつ【認知症対応型共同生活介護】徳島県鳴門市大津町大代字戎野４７２", "url": "https://www.kaigokensaku.mhlw.go.jp/36/index.php?action_kouhyou_detail_004_kani=true&JigyosyoCd=3670200470-00&ServiceCd=320&Type=search", "url2": "ryokujyukai.com/fcility/ootsu" }, "geometry": { "type": "Point", "coordinates": [ 134.573879, 34.159638 ] } },
{ "type": "Feature", "properties": { "内容": "グループホーム安樹【認知症対応型共同生活介護】徳島県鳴門市大麻町桧字東山田５７－１０", "url": "https://www.kaigokensaku.mhlw.go.jp/36/index.php?action_kouhyou_detail_004_kani=true&JigyosyoCd=3670200033-00&ServiceCd=320&Type=search", "url2": "http://ryokujyukai.com/" }, "geometry": { "type": "Point", "coordinates": [ 134.500236299999983, 34.1662284 ] } },
{ "type": "Feature", "properties": { "内容": "グループホーム　ほのぼの【認知症対応型共同生活介護】徳島県鳴門市大津町矢倉字五ノ越３２－１", "url": "https://www.kaigokensaku.mhlw.go.jp/36/index.php?action_kouhyou_detail_004_kani=true&JigyosyoCd=3670200447-00&ServiceCd=320&Type=search", "url2": null }, "geometry": { "type": "Point", "coordinates": [ 134.589772, 34.1561745 ] } },
{ "type": "Feature", "properties": { "内容": "グループホーム鳴門【認知症対応型共同生活介護】鳴門市撫養町木津字防崎445-1", "url": "https://www.kaigokensaku.mhlw.go.jp/36/index.php?action_kouhyou_detail_004_kani=true&JigyosyoCd=3670200421-00&ServiceCd=320&Type=search", "url2": "https://naruto.grouph.jp/" }, "geometry": { "type": "Point", "coordinates": [ 134.578251882278437, 34.168761022956275 ] } },
{ "type": "Feature", "properties": { "内容": "グループホーム　こすもす【認知症対応型共同生活介護】徳島県鳴門市大津町吉永字三石野６２０番地２", "url": "https://www.kaigokensaku.mhlw.go.jp/36/index.php?action_kouhyou_detail_004_kani=true&JigyosyoCd=3670200496-00&ServiceCd=320&Type=search", "url2": "http://www.hashimoto-clinic.jp/" }, "geometry": { "type": "Point", "coordinates": [ 134.603939878048664, 34.164628909102134 ] } },
{ "type": "Feature", "properties": { "内容": "グループホームたんぽぽ【認知症対応型共同生活介護】徳島県小松島市坂野町字島の内101番地の1", "url": "https://www.kaigokensaku.mhlw.go.jp/36/index.php?action_kouhyou_detail_004_kani=true&JigyosyoCd=3670300148-00&ServiceCd=320&Type=search", "url2": "http://fujino.ezdns.jp/" }, "geometry": { "type": "Point", "coordinates": [ 134.630343399999987, 33.9818339 ] } },
{ "type": "Feature", "properties": { "内容": "グループホームファミリーヒルズ【認知症対応型共同生活介護】徳島県小松島市新居見町字東山下102番地の4グループホームファミリーヒルズ", "url": "https://www.kaigokensaku.mhlw.go.jp/36/index.php?action_kouhyou_detail_004_kani=true&JigyosyoCd=3690300078-00&ServiceCd=320&Type=search", "url2": "a-zerokaigo.com" }, "geometry": { "type": "Point", "coordinates": [ 134.571878800000036, 33.99488 ] } },
{ "type": "Feature", "properties": { "内容": "グループホーム青空【認知症対応型共同生活介護】中田町字新開52番地", "url": "https://www.kaigokensaku.mhlw.go.jp/36/index.php?action_kouhyou_detail_004_kani=true&JigyosyoCd=3690300037-00&ServiceCd=320&Type=search", "url2": null }, "geometry": { "type": "Point", "coordinates": [ 134.5828967, 34.0136937 ] } },
{ "type": "Feature", "properties": { "内容": "グループホームたんぽぽ【認知症対応型共同生活介護】小松島市坂野町字島の内101番地1", "url": "https://www.kaigokensaku.mhlw.go.jp/36/index.php?action_kouhyou_detail_004_kani=true&JigyosyoCd=3690300110-00&ServiceCd=320&Type=search", "url2": "http://fujino.ezdns.jp/" }, "geometry": { "type": "Point", "coordinates": [ 139.8976519, 38.8752125 ] } },
{ "type": "Feature", "properties": { "内容": "グループホーム　ひかり【認知症対応型共同生活介護】徳島県小松島市坂野町樫のべ３５番地グループホーム　ひかり", "url": "https://www.kaigokensaku.mhlw.go.jp/36/index.php?action_kouhyou_detail_004_kani=true&JigyosyoCd=3690300011-00&ServiceCd=320&Type=search", "url2": "http://fujino.ezdns.jp/index.html" }, "geometry": { "type": "Point", "coordinates": [ 138.252924, 36.204824 ] } },
{ "type": "Feature", "properties": { "内容": "グループホーム　はまど【認知症対応型共同生活介護】徳島県小松島市和田島町浜塚132番地３", "url": "https://www.kaigokensaku.mhlw.go.jp/36/index.php?action_kouhyou_detail_004_kani=true&JigyosyoCd=3690300102-00&ServiceCd=320&Type=search", "url2": "https://meiwaen.rouken.jp/" }, "geometry": { "type": "Point", "coordinates": [ 134.635862866270429, 33.992608210781725 ] } },
{ "type": "Feature", "properties": { "内容": "グループホーム小松島【認知症対応型共同生活介護】徳島県小松島市田浦町近里84-2", "url": "https://www.kaigokensaku.mhlw.go.jp/36/index.php?action_kouhyou_detail_004_kani=true&JigyosyoCd=3610310108-00&ServiceCd=320&Type=search", "url2": "https://komatsushimahp.jp/doshisya/" }, "geometry": { "type": "Point", "coordinates": [ 134.569071500000064, 34.0033617 ] } },
{ "type": "Feature", "properties": { "内容": "グループホーム合歓の木【認知症対応型共同生活介護】徳島県阿南市新野町西馬場３番地３", "url": "https://www.kaigokensaku.mhlw.go.jp/36/index.php?action_kouhyou_detail_004_kani=true&JigyosyoCd=3610410502-00&ServiceCd=320&Type=search", "url2": "http://fuji-clinic.net/" }, "geometry": { "type": "Point", "coordinates": [ 134.580932500000017, 33.8476808 ] } },
{ "type": "Feature", "properties": { "内容": "グループホームなかがわ苑【認知症対応型共同生活介護】徳島県阿南市那賀川町大京原393-1なかがわ苑", "url": "https://www.kaigokensaku.mhlw.go.jp/36/index.php?action_kouhyou_detail_004_kani=true&JigyosyoCd=3671300469-00&ServiceCd=320&Type=search", "url2": null }, "geometry": { "type": "Point", "coordinates": [ 134.649583099999973, 33.9444919 ] } },
{ "type": "Feature", "properties": { "内容": "グループホーム青葉園【認知症対応型共同生活介護】徳島県阿南市見能林町青木75番地3", "url": "https://www.kaigokensaku.mhlw.go.jp/36/index.php?action_kouhyou_detail_004_kani=true&JigyosyoCd=3670400294-00&ServiceCd=320&Type=search", "url2": "http://www.aobaen.jp" }, "geometry": { "type": "Point", "coordinates": [ 134.664871, 33.8951572 ] } },
{ "type": "Feature", "properties": { "内容": "認知症対応型共同生活介護事業所　阿南向日葵【認知症対応型共同生活介護】徳島県阿南市日開野町筒路10番地1", "url": "https://www.kaigokensaku.mhlw.go.jp/36/index.php?action_kouhyou_detail_004_kani=true&JigyosyoCd=3670400229-00&ServiceCd=320&Type=search", "url2": null }, "geometry": { "type": "Point", "coordinates": [ 134.666111086508209, 33.919936554476202 ] } },
{ "type": "Feature", "properties": { "内容": "高齢者グループホーム双壽園【認知症対応型共同生活介護】徳島県阿南市見能林町南林２５８番地5", "url": "https://www.kaigokensaku.mhlw.go.jp/36/index.php?action_kouhyou_detail_004_kani=true&JigyosyoCd=3670400013-00&ServiceCd=320&Type=search", "url2": "http://futabakai.info/" }, "geometry": { "type": "Point", "coordinates": [ 134.68144719999998, 33.89511 ] } },
{ "type": "Feature", "properties": { "内容": "グループホーム無量寿【認知症対応型共同生活介護】徳島県阿南市見能林町南林396番地グループホーム無量寿", "url": "https://www.kaigokensaku.mhlw.go.jp/36/index.php?action_kouhyou_detail_004_kani=true&JigyosyoCd=3690400142-00&ServiceCd=320&Type=search", "url2": "http://www.suishoukai.jp" }, "geometry": { "type": "Point", "coordinates": [ 134.678316399999972, 33.89148 ] } },
{ "type": "Feature", "properties": { "内容": "グループホーム高砂【認知症対応型共同生活介護】徳島県阿南市那賀川町芳崎366-1", "url": "https://www.kaigokensaku.mhlw.go.jp/36/index.php?action_kouhyou_detail_004_kani=true&JigyosyoCd=3671300592-00&ServiceCd=320&Type=search", "url2": null }, "geometry": { "type": "Point", "coordinates": [ 138.252924, 36.204824 ] } },
{ "type": "Feature", "properties": { "内容": "グループホーム那賀川たんぽぽ【認知症対応型共同生活介護】徳島県阿南市那賀川町今津浦宮面71番地1", "url": "https://www.kaigokensaku.mhlw.go.jp/36/index.php?action_kouhyou_detail_004_kani=true&JigyosyoCd=3671300444-00&ServiceCd=320&Type=search", "url2": "http://fujino.ezdns.jp" }, "geometry": { "type": "Point", "coordinates": [ 134.655459800000017, 33.9613086 ] } },
{ "type": "Feature", "properties": { "内容": "社会福祉法人　健祥会　グループホーム　笑顔毎日【認知症対応型共同生活介護】徳島県阿南市羽ノ浦町中庄大知渕10番地", "url": "https://www.kaigokensaku.mhlw.go.jp/36/index.php?action_kouhyou_detail_004_kani=true&JigyosyoCd=3671300436-00&ServiceCd=320&Type=search", "url2": "https://www.kenshokai.group/institution/gh/egao/" }, "geometry": { "type": "Point", "coordinates": [ 134.6362315, 33.954080944470931 ] } },
{ "type": "Feature", "properties": { "内容": "グループホーム花乃苑【認知症対応型共同生活介護】徳島県阿南市羽ノ浦町中庄大久保７８", "url": "https://www.kaigokensaku.mhlw.go.jp/36/index.php?action_kouhyou_detail_004_kani=true&JigyosyoCd=3671300428-00&ServiceCd=320&Type=search", "url2": "https://hananoen-group.com" }, "geometry": { "type": "Point", "coordinates": [ 134.640858900000012, 33.9508412 ] } },
{ "type": "Feature", "properties": { "内容": "グループホームあすか【認知症対応型共同生活介護】羽ノ浦町宮倉原ノ内４0", "url": "https://www.kaigokensaku.mhlw.go.jp/36/index.php?action_kouhyou_detail_004_kani=true&JigyosyoCd=3671300154-00&ServiceCd=320&Type=search", "url2": "kaigo-asuka.com" }, "geometry": { "type": "Point", "coordinates": [ 134.621871055819696, 33.96314628943653 ] } },
{ "type": "Feature", "properties": { "内容": "グループホーム　スマイル家族【認知症対応型共同生活介護】徳島県阿南市那賀川町原２４５番地", "url": "https://www.kaigokensaku.mhlw.go.jp/36/index.php?action_kouhyou_detail_004_kani=true&JigyosyoCd=3671300576-00&ServiceCd=320&Type=search", "url2": null }, "geometry": { "type": "Point", "coordinates": [ 134.643569699999944, 33.94955520000002 ] } },
{ "type": "Feature", "properties": { "内容": "グループホームプラチナホーム鴨島【認知症対応型共同生活介護】徳島県吉野川市鴨島町鴨島208番地", "url": "https://www.kaigokensaku.mhlw.go.jp/36/index.php?action_kouhyou_detail_004_kani=true&JigyosyoCd=3691700102-00&ServiceCd=320&Type=search", "url2": "kamojima.t-group.net/" }, "geometry": { "type": "Point", "coordinates": [ 134.3558074, 34.0686879 ] } },
{ "type": "Feature", "properties": { "内容": "グループホームふるさと【認知症対応型共同生活介護】徳島県吉野川市山川町祇園５１－２", "url": "https://www.kaigokensaku.mhlw.go.jp/36/index.php?action_kouhyou_detail_004_kani=true&JigyosyoCd=3691700011-00&ServiceCd=320&Type=search", "url2": "http://www.hakuyuu.com" }, "geometry": { "type": "Point", "coordinates": [ 134.248753299999947, 34.057526 ] } },
{ "type": "Feature", "properties": { "内容": "グループホームのぞみ【認知症対応型共同生活介護】徳島県吉野川市鴨島町内原４３２", "url": "https://www.kaigokensaku.mhlw.go.jp/36/index.php?action_kouhyou_detail_004_kani=true&JigyosyoCd=3671700163-00&ServiceCd=320&Type=search", "url2": "www.t-group.net/tokujyukai" }, "geometry": { "type": "Point", "coordinates": [ 134.3674972, 34.0697656 ] } },
{ "type": "Feature", "properties": { "内容": "グループホーム美郷【認知症対応型共同生活介護】徳島県吉野川市美郷字毛無92-3", "url": "https://www.kaigokensaku.mhlw.go.jp/36/index.php?action_kouhyou_detail_004_kani=true&JigyosyoCd=3611713219-00&ServiceCd=320&Type=search", "url2": "http://koutukai.com" }, "geometry": { "type": "Point", "coordinates": [ 134.2643716, 34.029863 ] } },
{ "type": "Feature", "properties": { "内容": "グループホームえくせれんと鴨島【認知症対応型共同生活介護】徳島県吉野川市鴨島町内原161-2", "url": "https://www.kaigokensaku.mhlw.go.jp/36/index.php?action_kouhyou_detail_004_kani=true&JigyosyoCd=3671700346-00&ServiceCd=320&Type=search", "url2": "http://excare.co.jp/facility/03/kamojima/" }, "geometry": { "type": "Point", "coordinates": [ 134.36851963743436, 34.071255943570264 ] } },
{ "type": "Feature", "properties": { "内容": "医療法人　青鳳会　グループホームみま【認知症対応型共同生活介護】徳島県吉野川市鴨島町上下島４９９番地２１グループホーム　みま", "url": "https://www.kaigokensaku.mhlw.go.jp/36/index.php?action_kouhyou_detail_004_kani=true&JigyosyoCd=3671700205-00&ServiceCd=320&Type=search", "url2": "http://www.mima-gh.jp/gh-mima" }, "geometry": { "type": "Point", "coordinates": [ 134.349829, 34.0708153 ] } },
{ "type": "Feature", "properties": { "内容": "グループホーム山川【認知症対応型共同生活介護】徳島県吉野川市山川町川東80", "url": "https://www.kaigokensaku.mhlw.go.jp/36/index.php?action_kouhyou_detail_004_kani=true&JigyosyoCd=3671700270-00&ServiceCd=320&Type=search", "url2": "http://koutukai.com/" }, "geometry": { "type": "Point", "coordinates": [ 134.2288145, 34.0448839 ] } },
{ "type": "Feature", "properties": { "内容": "グループホーム　希望の家【認知症対応型共同生活介護】徳島県吉野川市山川町川東90番地1", "url": "https://www.kaigokensaku.mhlw.go.jp/36/index.php?action_kouhyou_detail_004_kani=true&JigyosyoCd=3671700221-00&ServiceCd=320&Type=search", "url2": "http://koutukai.com" }, "geometry": { "type": "Point", "coordinates": [ 134.229555399999981, 34.0448886 ] } },
{ "type": "Feature", "properties": { "内容": "グループホームアカリエ【認知症対応型共同生活介護】徳島県吉野川市鴨島町鴨島字本郷208番地1グループホームアカリエ", "url": "https://www.kaigokensaku.mhlw.go.jp/36/index.php?action_kouhyou_detail_004_kani=true&JigyosyoCd=3691700128-00&ServiceCd=320&Type=search", "url2": "https://r15e.co.jp/pds/" }, "geometry": { "type": "Point", "coordinates": [ 134.355807399999946, 34.0686879 ] } },
{ "type": "Feature", "properties": { "内容": "グループホーム礼あり優あり【認知症対応型共同生活介護】徳島県吉野川市鴨島町麻植塚字向麻山西196-1", "url": "https://www.kaigokensaku.mhlw.go.jp/36/index.php?action_kouhyou_detail_004_kani=true&JigyosyoCd=3671700254-00&ServiceCd=320&Type=search", "url2": "http://www.kenshokai./group/" }, "geometry": { "type": "Point", "coordinates": [ 134.377132699999947, 34.0683518 ] } },
{ "type": "Feature", "properties": { "内容": "グループホームあわ【認知症対応型共同生活介護】徳島県吉野川市鴨島町鴨島538-16", "url": "https://www.kaigokensaku.mhlw.go.jp/36/index.php?action_kouhyou_detail_004_kani=true&JigyosyoCd=3691700078-00&ServiceCd=320&Type=search", "url2": "http://itokawa-akewa.jp/" }, "geometry": { "type": "Point", "coordinates": [ 134.355416809295633, 34.073533327896811 ] } },
{ "type": "Feature", "properties": { "内容": "笠井グループホーム【認知症対応型共同生活介護】徳島県阿波市阿波町元町７－１", "url": "https://www.kaigokensaku.mhlw.go.jp/36/index.php?action_kouhyou_detail_004_kani=true&JigyosyoCd=3611610035-00&ServiceCd=320&Type=search", "url2": null }, "geometry": { "type": "Point", "coordinates": [ 134.238737371164007, 34.076555612373085 ] } },
{ "type": "Feature", "properties": { "内容": "グループホームよしの【認知症対応型共同生活介護】徳島県阿波市吉野町柿原字二条１４６番地1", "url": "https://www.kaigokensaku.mhlw.go.jp/36/index.php?action_kouhyou_detail_004_kani=true&JigyosyoCd=3671500613-00&ServiceCd=320&Type=search", "url2": "http://www.hakuju-kai.or.jp" }, "geometry": { "type": "Point", "coordinates": [ 134.348068, 34.0928433 ] } },
{ "type": "Feature", "properties": { "内容": "グループホーム御所【認知症対応型共同生活介護】土成町宮川内字神田133番地1", "url": "https://www.kaigokensaku.mhlw.go.jp/36/index.php?action_kouhyou_detail_004_kani=true&JigyosyoCd=3671600272-00&ServiceCd=320&Type=search", "url2": "goshoen-hakuju@ca.pikara.ne.jp" }, "geometry": { "type": "Point", "coordinates": [ 134.3545785, 34.1246812 ] } },
{ "type": "Feature", "properties": { "内容": "グループホーム加尾【認知症対応型共同生活介護】徳島県阿波市阿波町勝命北10番地1", "url": "https://www.kaigokensaku.mhlw.go.jp/36/index.php?action_kouhyou_detail_004_kani=true&JigyosyoCd=3691600021-00&ServiceCd=320&Type=search", "url2": "https://www.kenshokai.group/" }, "geometry": { "type": "Point", "coordinates": [ 134.263259635582045, 34.085761872280365 ] } },
{ "type": "Feature", "properties": { "内容": "グループホーム　　明日葉【認知症対応型共同生活介護】徳島県阿波市阿波町大次郎10-2", "url": "https://www.kaigokensaku.mhlw.go.jp/36/index.php?action_kouhyou_detail_004_kani=true&JigyosyoCd=3671600280-00&ServiceCd=320&Type=search", "url2": null }, "geometry": { "type": "Point", "coordinates": [ 134.239408899999944, 34.0852452 ] } },
{ "type": "Feature", "properties": { "内容": "グループホーム琴葉【認知症対応型共同生活介護】市場町市場字岸ノ下201番地1", "url": "https://www.kaigokensaku.mhlw.go.jp/36/index.php?action_kouhyou_detail_004_kani=true&JigyosyoCd=3671600165-00&ServiceCd=320&Type=search", "url2": null }, "geometry": { "type": "Point", "coordinates": [ 134.2762583, 34.08556 ] } },
{ "type": "Feature", "properties": { "内容": "グループホーム義満【認知症対応型共同生活介護】徳島県阿波市土成町郡131番地１", "url": "https://www.kaigokensaku.mhlw.go.jp/36/index.php?action_kouhyou_detail_004_kani=true&JigyosyoCd=3671600322-00&ServiceCd=320&Type=search", "url2": "http://www.kenshokai.group" }, "geometry": { "type": "Point", "coordinates": [ 134.329894599999989, 34.0991481 ] } },
{ "type": "Feature", "properties": { "内容": "グループホームはな【認知症対応型共同生活介護】徳島県阿波市市場町香美字秋葉本80番地1", "url": "https://www.kaigokensaku.mhlw.go.jp/36/index.php?action_kouhyou_detail_004_kani=true&JigyosyoCd=3671600124-00&ServiceCd=320&Type=search", "url2": "http://www.yotsubakai-midori.jp" }, "geometry": { "type": "Point", "coordinates": [ 134.283868799999937, 34.0852602 ] } },
{ "type": "Feature", "properties": { "内容": "グループホーム　サンファミリー【認知症対応型共同生活介護】徳島県美馬市脇町字拝原1354-2", "url": "https://www.kaigokensaku.mhlw.go.jp/36/index.php?action_kouhyou_detail_004_kani=true&JigyosyoCd=3671800427-00&ServiceCd=320&Type=search", "url2": "sunfamily1@awakko.ne.jp" }, "geometry": { "type": "Point", "coordinates": [ 134.165302800000063, 34.070643 ] } },
{ "type": "Feature", "properties": { "内容": "グループホーム成田【認知症対応型共同生活介護】徳島県美馬市脇町字拝原2573-1", "url": "https://www.kaigokensaku.mhlw.go.jp/36/index.php?action_kouhyou_detail_004_kani=true&JigyosyoCd=3610510087-00&ServiceCd=320&Type=search", "url2": "http://www.fujinokai.net/" }, "geometry": { "type": "Point", "coordinates": [ 134.17535440000006, 34.064666 ] } },
{ "type": "Feature", "properties": { "内容": "グループホームほうらい【認知症対応型共同生活介護】徳島県美馬市美馬町字高畑８番地１", "url": "https://www.kaigokensaku.mhlw.go.jp/36/index.php?action_kouhyou_detail_004_kani=true&JigyosyoCd=3671800385-00&ServiceCd=320&Type=search", "url2": "https://horaikai.or.jp" }, "geometry": { "type": "Point", "coordinates": [ 134.079330222090107, 34.058659479118866 ] } },
{ "type": "Feature", "properties": { "内容": "清流の里グループホーム【認知症対応型共同生活介護】徳島県美馬市穴吹町穴吹字市ノ下15-1清流の里グループホーム", "url": "https://www.kaigokensaku.mhlw.go.jp/36/index.php?action_kouhyou_detail_004_kani=true&JigyosyoCd=3690500016-00&ServiceCd=320&Type=search", "url2": "https://www.houetsu-hospital.com/" }, "geometry": { "type": "Point", "coordinates": [ 134.1758016, 34.0520175 ] } },
{ "type": "Feature", "properties": { "内容": "若宮の里グループホーム【認知症対応型共同生活介護】徳島県美馬市脇町大字猪尻字若宮南80-1", "url": "https://www.kaigokensaku.mhlw.go.jp/36/index.php?action_kouhyou_detail_004_kani=true&JigyosyoCd=3670500168-00&ServiceCd=320&Type=search", "url2": "https://www.houetsu-hospital.com/" }, "geometry": { "type": "Point", "coordinates": [ 134.157970400000067, 34.0645465 ] } },
{ "type": "Feature", "properties": { "内容": "グループホーム　のどか【認知症対応型共同生活介護】徳島県美馬市美馬町字沼田73－1", "url": "https://www.kaigokensaku.mhlw.go.jp/36/index.php?action_kouhyou_detail_004_kani=true&JigyosyoCd=3690500024-00&ServiceCd=320&Type=search", "url2": null }, "geometry": { "type": "Point", "coordinates": [ 134.036883900000021, 34.0492335 ] } },
{ "type": "Feature", "properties": { "内容": "グループホーム空【認知症対応型共同生活介護】池田町白地ウマバ456", "url": "https://www.kaigokensaku.mhlw.go.jp/36/index.php?action_kouhyou_detail_004_kani=true&JigyosyoCd=3671900342-00&ServiceCd=320&Type=search", "url2": null }, "geometry": { "type": "Point", "coordinates": [ 133.782724899999948, 34.0371974 ] } },
{ "type": "Feature", "properties": { "内容": "グループホームもみじ【認知症対応型共同生活介護】徳島県三好市西祖谷山村西岡向１１０－１", "url": "https://www.kaigokensaku.mhlw.go.jp/36/index.php?action_kouhyou_detail_004_kani=true&JigyosyoCd=3670600018-00&ServiceCd=320&Type=search", "url2": null }, "geometry": { "type": "Point", "coordinates": [ 133.780070788271672, 33.881512950351983 ] } },
{ "type": "Feature", "properties": { "内容": "グループホームやまびこ【認知症対応型共同生活介護】徳島県三好市池田町シマ717番地1", "url": "https://www.kaigokensaku.mhlw.go.jp/36/index.php?action_kouhyou_detail_004_kani=true&JigyosyoCd=3670600109-00&ServiceCd=320&Type=search", "url2": null }, "geometry": { "type": "Point", "coordinates": [ 133.820111600000018, 34.0275386 ] } },
{ "type": "Feature", "properties": { "内容": "グループホーム正心【認知症対応型共同生活介護】徳島県三好市井川町吉岡141番地4", "url": "https://www.kaigokensaku.mhlw.go.jp/36/index.php?action_kouhyou_detail_004_kani=true&JigyosyoCd=3690600022-00&ServiceCd=320&Type=search", "url2": null }, "geometry": { "type": "Point", "coordinates": [ 133.864346, 34.0318806 ] } },
{ "type": "Feature", "properties": { "内容": "グループホーム　ふれあい三野【認知症対応型共同生活介護】徳島県三好市三野町加茂野宮1551番地2", "url": "https://www.kaigokensaku.mhlw.go.jp/36/index.php?action_kouhyou_detail_004_kani=true&JigyosyoCd=3671900409-00&ServiceCd=320&Type=search", "url2": "https://kyoritsuhp.or.jp/hpwp/?page_id=754" }, "geometry": { "type": "Point", "coordinates": [ 133.988639599999942, 34.0559011 ] } },
{ "type": "Feature", "properties": { "内容": "社会福祉法人悠久会　グループホームあいの郷【認知症対応型共同生活介護】徳島県三好市三野町太刀野6-14", "url": "https://www.kaigokensaku.mhlw.go.jp/36/index.php?action_kouhyou_detail_004_kani=true&JigyosyoCd=3670600026-00&ServiceCd=320&Type=search", "url2": "http://www.ainosato-swc.com" }, "geometry": { "type": "Point", "coordinates": [ 133.96333530000004, 34.0472375 ] } },
{ "type": "Feature", "properties": { "内容": "グループホーム北斗【認知症対応型共同生活介護】徳島県三好市池田町マチ2526-10グループホーム北斗", "url": "https://www.kaigokensaku.mhlw.go.jp/36/index.php?action_kouhyou_detail_004_kani=true&JigyosyoCd=3690600055-00&ServiceCd=320&Type=search", "url2": null }, "geometry": { "type": "Point", "coordinates": [ 133.804468455819688, 34.029402482361981 ] } },
{ "type": "Feature", "properties": { "内容": "グループホームやまびこ【認知症対応型共同生活介護】徳島県三好市池田町シマ717-1", "url": "https://www.kaigokensaku.mhlw.go.jp/36/index.php?action_kouhyou_detail_004_kani=true&JigyosyoCd=3690600121-00&ServiceCd=320&Type=search", "url2": null }, "geometry": { "type": "Point", "coordinates": [ 133.820156, 34.0275405 ] } },
{ "type": "Feature", "properties": { "内容": "グループホーム　愛【認知症対応型共同生活介護】徳島県三好市池田町サラダ１７９２番地１", "url": "https://www.kaigokensaku.mhlw.go.jp/36/index.php?action_kouhyou_detail_004_kani=true&JigyosyoCd=3671900326-00&ServiceCd=320&Type=search", "url2": "https://murayamanaika.com" }, "geometry": { "type": "Point", "coordinates": [ 133.80693569999994, 34.0279603 ] } },
{ "type": "Feature", "properties": { "内容": "グループホームひばり【認知症対応型共同生活介護】徳島県三好市井川町西井川375", "url": "https://www.kaigokensaku.mhlw.go.jp/36/index.php?action_kouhyou_detail_004_kani=true&JigyosyoCd=3690600014-00&ServiceCd=320&Type=search", "url2": "hibari.gr@gmail.com" }, "geometry": { "type": "Point", "coordinates": [ 133.841332700000038, 34.0303013 ] } },
{ "type": "Feature", "properties": { "内容": "グループホーム虹【認知症対応型共同生活介護】徳島県三好市池田町中西フロノタニ1446-2", "url": "https://www.kaigokensaku.mhlw.go.jp/36/index.php?action_kouhyou_detail_004_kani=true&JigyosyoCd=3671900284-00&ServiceCd=320&Type=search", "url2": "https://uchida-kai.jp/kaigo-homes/niji/" }, "geometry": { "type": "Point", "coordinates": [ 133.7892521, 34.0069207 ] } },
{ "type": "Feature", "properties": { "内容": "あゆの里【認知症対応型共同生活介護】徳島県勝浦郡勝浦町大字棚野字竹国１３番地の１", "url": "https://www.kaigokensaku.mhlw.go.jp/36/index.php?action_kouhyou_detail_004_kani=true&JigyosyoCd=3671000010-00&ServiceCd=320&Type=search", "url2": "http://syoujukai.or.jp" }, "geometry": { "type": "Point", "coordinates": [ 134.504896, 33.9326887 ] } },
{ "type": "Feature", "properties": { "内容": "グループホーム希【認知症対応型共同生活介護】徳島県名西郡石井町石井字石井1994番地", "url": "https://www.kaigokensaku.mhlw.go.jp/36/index.php?action_kouhyou_detail_004_kani=true&JigyosyoCd=3691200020-00&ServiceCd=320&Type=search", "url2": null }, "geometry": { "type": "Point", "coordinates": [ 134.44747289999998, 34.0593363 ] } },
{ "type": "Feature", "properties": { "内容": "グループホームまこと家【認知症対応型共同生活介護】高原字桑原558－1", "url": "https://www.kaigokensaku.mhlw.go.jp/36/index.php?action_kouhyou_detail_004_kani=true&JigyosyoCd=3671200131-00&ServiceCd=320&Type=search", "url2": "ch_makoto@yuseikai_net" }, "geometry": { "type": "Point", "coordinates": [ 138.030461100000025, 36.4899142 ] } },
{ "type": "Feature", "properties": { "内容": "有限会社敬友会グループホーム花乃苑石井【認知症対応型共同生活介護】徳島県名西郡石井町藍畑字東覚円７０－３", "url": "https://www.kaigokensaku.mhlw.go.jp/36/index.php?action_kouhyou_detail_004_kani=true&JigyosyoCd=3671200255-00&ServiceCd=320&Type=search", "url2": "https://hananoen-group.com" }, "geometry": { "type": "Point", "coordinates": [ 134.4323382, 34.095207 ] } },
{ "type": "Feature", "properties": { "内容": "グループホームみま石井【認知症対応型共同生活介護】徳島県名西郡石井町浦庄字上浦524-9", "url": "https://www.kaigokensaku.mhlw.go.jp/36/index.php?action_kouhyou_detail_004_kani=true&JigyosyoCd=3671200263-00&ServiceCd=320&Type=search", "url2": "http://www.mima-gr.jp/gh-ishii/index.html" }, "geometry": { "type": "Point", "coordinates": [ 134.408651293253996, 34.069612836573775 ] } },
{ "type": "Feature", "properties": { "内容": "グループホーム濃姫【認知症対応型共同生活介護】徳島県名西郡石井町石井字重松208番地1", "url": "https://www.kaigokensaku.mhlw.go.jp/36/index.php?action_kouhyou_detail_004_kani=true&JigyosyoCd=3691200053-00&ServiceCd=320&Type=search", "url2": "http://www.kenshokai.group/" }, "geometry": { "type": "Point", "coordinates": [ 134.435643499999969, 34.0702877 ] } },
{ "type": "Feature", "properties": { "内容": "グループホームあいの郷【認知症対応型共同生活介護】徳島県名西郡神山町神領字西野間６－２", "url": "https://www.kaigokensaku.mhlw.go.jp/36/index.php?action_kouhyou_detail_004_kani=true&JigyosyoCd=3691200061-00&ServiceCd=320&Type=search", "url2": null }, "geometry": { "type": "Point", "coordinates": [ 134.348097100000018, 33.9667937 ] } },
{ "type": "Feature", "properties": { "内容": "グループホーム水の花【認知症対応型共同生活介護】徳島県那賀郡那賀町延野字大原４０番地１", "url": "https://www.kaigokensaku.mhlw.go.jp/36/index.php?action_kouhyou_detail_004_kani=true&JigyosyoCd=3691300036-00&ServiceCd=320&Type=search", "url2": "http://care-net.biz/36/suinohana/" }, "geometry": { "type": "Point", "coordinates": [ 134.483643, 33.8195273 ] } },
{ "type": "Feature", "properties": { "内容": "グループホームあめごの里【認知症対応型共同生活介護】徳島県那賀郡那賀町木頭和無田字イワツシ１番地", "url": "https://www.kaigokensaku.mhlw.go.jp/36/index.php?action_kouhyou_detail_004_kani=true&JigyosyoCd=3691300010-00&ServiceCd=320&Type=search", "url2": "http://www.ryokufu1948.or.jp" }, "geometry": { "type": "Point", "coordinates": [ 134.196526800000015, 33.7701591 ] } },
{ "type": "Feature", "properties": { "内容": "社会福祉法人　若穂会　グループホームあい【認知症対応型共同生活介護】徳島県海部郡牟岐町大字川長字山戸45番地", "url": "https://www.kaigokensaku.mhlw.go.jp/36/index.php?action_kouhyou_detail_004_kani=true&JigyosyoCd=3671400160-00&ServiceCd=320&Type=search", "url2": "http://www.wakahokai.com" }, "geometry": { "type": "Point", "coordinates": [ 134.423188399999958, 33.6755584 ] } },
{ "type": "Feature", "properties": { "内容": "グループホームヒワサ【認知症対応型共同生活介護】徳島県海部郡美波町西河内字丹前９９番地グループホームヒワサ", "url": "https://www.kaigokensaku.mhlw.go.jp/36/index.php?action_kouhyou_detail_004_kani=true&JigyosyoCd=3691400083-00&ServiceCd=320&Type=search", "url2": null }, "geometry": { "type": "Point", "coordinates": [ 134.517762100000027, 33.73292 ] } },
{ "type": "Feature", "properties": { "内容": "グループホームおとひめ【認知症対応型共同生活介護】徳島県海部郡美波町西河内字丹前99番地", "url": "https://www.kaigokensaku.mhlw.go.jp/36/index.php?action_kouhyou_detail_004_kani=true&JigyosyoCd=3671400194-00&ServiceCd=320&Type=search", "url2": "https://www.toukoukai-hiwasasou.info/" }, "geometry": { "type": "Point", "coordinates": [ 134.517762100000027, 33.73292 ] } },
{ "type": "Feature", "properties": { "内容": "グループホーム　ぽかぽかⅡ【認知症対応型共同生活介護】徳島県海部郡海陽町久保字板取52番地", "url": "https://www.kaigokensaku.mhlw.go.jp/36/index.php?action_kouhyou_detail_004_kani=true&JigyosyoCd=3691400075-00&ServiceCd=320&Type=search", "url2": "http://orino.jp/" }, "geometry": { "type": "Point", "coordinates": [ 134.3051431, 33.5696324 ] } },
{ "type": "Feature", "properties": { "内容": "グループホーム　ぽかぽか【認知症対応型共同生活介護】徳島県海部郡海陽町久保字板取12番地１", "url": "https://www.kaigokensaku.mhlw.go.jp/36/index.php?action_kouhyou_detail_004_kani=true&JigyosyoCd=3671400236-00&ServiceCd=320&Type=search", "url2": "http://orino.jp/" }, "geometry": { "type": "Point", "coordinates": [ 134.3055958, 33.5698018 ] } },
{ "type": "Feature", "properties": { "内容": "有限会社　ビランチャ　グループホーム　まぜの里【認知症対応型共同生活介護】徳島県海部郡海陽町大里字吉尾110－4", "url": "https://www.kaigokensaku.mhlw.go.jp/36/index.php?action_kouhyou_detail_004_kani=true&JigyosyoCd=3671400210-00&ServiceCd=320&Type=search", "url2": "mazenosato-care.com" }, "geometry": { "type": "Point", "coordinates": [ 134.366823100000033, 33.6144163 ] } },
{ "type": "Feature", "properties": { "内容": "グループホーム春日苑　松茂【認知症対応型共同生活介護】徳島県板野郡松茂町広島字四番越１１番５", "url": "https://www.kaigokensaku.mhlw.go.jp/36/index.php?action_kouhyou_detail_004_kani=true&JigyosyoCd=3671500357-00&ServiceCd=320&Type=search", "url2": "http://kasugaen.jp/" }, "geometry": { "type": "Point", "coordinates": [ 134.582664300000033, 34.1375983 ] } },
{ "type": "Feature", "properties": { "内容": "グループホーム向喜来の家【認知症対応型共同生活介護】徳島県板野郡松茂町中喜来字群恵278番地7", "url": "https://www.kaigokensaku.mhlw.go.jp/36/index.php?action_kouhyou_detail_004_kani=true&JigyosyoCd=3671500894-00&ServiceCd=320&Type=search", "url2": "https://www.yujoukai.jp" }, "geometry": { "type": "Point", "coordinates": [ 134.593149400000016, 34.143323 ] } },
{ "type": "Feature", "properties": { "内容": "グループホームえんじゅ【認知症対応型共同生活介護】徳島県板野郡北島町北村字大開５番７", "url": "https://www.kaigokensaku.mhlw.go.jp/36/index.php?action_kouhyou_detail_004_kani=true&JigyosyoCd=3671500811-00&ServiceCd=320&Type=search", "url2": "https://yujoukai.jp" }, "geometry": { "type": "Point", "coordinates": [ 134.563610599999947, 34.1335849 ] } },
{ "type": "Feature", "properties": { "内容": "グループホーム　癒音【認知症対応型共同生活介護】徳島県板野郡北島町中村字中内２６", "url": "https://www.kaigokensaku.mhlw.go.jp/36/index.php?action_kouhyou_detail_004_kani=true&JigyosyoCd=3671500902-00&ServiceCd=320&Type=search", "url2": "http://www.ryokujyukai.com" }, "geometry": { "type": "Point", "coordinates": [ 134.556825200000048, 34.1289382 ] } },
{ "type": "Feature", "properties": { "内容": "グループホーム矢野【認知症対応型共同生活介護】徳島県板野郡藍住町矢上字西１６０－２９", "url": "https://www.kaigokensaku.mhlw.go.jp/36/index.php?action_kouhyou_detail_004_kani=true&JigyosyoCd=3611513148-00&ServiceCd=320&Type=search", "url2": null }, "geometry": { "type": "Point", "coordinates": [ 134.491726299999982, 34.1331228 ] } },
{ "type": "Feature", "properties": { "内容": "グループホーム矢上【認知症対応型共同生活介護】徳島県板野郡藍住町矢上字原129-3", "url": "https://www.kaigokensaku.mhlw.go.jp/36/index.php?action_kouhyou_detail_004_kani=true&JigyosyoCd=3671500845-00&ServiceCd=320&Type=search", "url2": "https://www.yakami.or.jp" }, "geometry": { "type": "Point", "coordinates": [ 134.501478, 34.1298401 ] } },
{ "type": "Feature", "properties": { "内容": "グループホーム　藤吉郎【認知症対応型共同生活介護】徳島県板野郡藍住町徳命字小塚北92番地3", "url": "https://www.kaigokensaku.mhlw.go.jp/36/index.php?action_kouhyou_detail_004_kani=true&JigyosyoCd=3691500015-00&ServiceCd=320&Type=search", "url2": "https://www.kenshokai.group/" }, "geometry": { "type": "Point", "coordinates": [ 134.487135699999953, 34.1133023 ] } },
{ "type": "Feature", "properties": { "内容": "グループホーム親の家【認知症対応型共同生活介護】徳島県板野郡藍住町矢上字安任56-1", "url": "https://www.kaigokensaku.mhlw.go.jp/36/index.php?action_kouhyou_detail_004_kani=true&JigyosyoCd=3671500803-00&ServiceCd=320&Type=search", "url2": "http//www.ryoun.com" }, "geometry": { "type": "Point", "coordinates": [ 134.502691599999906, 34.1395281 ] } },
{ "type": "Feature", "properties": { "内容": "グループホーム樹園【認知症対応型共同生活介護】徳島県板野郡藍住町奥野字猪熊91-4", "url": "https://www.kaigokensaku.mhlw.go.jp/36/index.php?action_kouhyou_detail_004_kani=true&JigyosyoCd=3671500340-00&ServiceCd=320&Type=search", "url2": "http://www.seijyukai-med.jp/grouphomejuen/" }, "geometry": { "type": "Point", "coordinates": [ 134.4925015, 34.1229321 ] } },
{ "type": "Feature", "properties": { "内容": "グループホーム碧【認知症対応型共同生活介護】徳島県板野郡藍住町徳命字新居須64-2", "url": "https://www.kaigokensaku.mhlw.go.jp/36/index.php?action_kouhyou_detail_004_kani=true&JigyosyoCd=3671500639-00&ServiceCd=320&Type=search", "url2": "http://www.seijyukai-med.jp/" }, "geometry": { "type": "Point", "coordinates": [ 134.504903099999979, 34.1125584 ] } },
{ "type": "Feature", "properties": { "内容": "グループホーム成長苑【認知症対応型共同生活介護】徳島県板野郡藍住町勝瑞字成長５５−１", "url": "https://www.kaigokensaku.mhlw.go.jp/36/index.php?action_kouhyou_detail_004_kani=true&JigyosyoCd=3671500241-00&ServiceCd=320&Type=search", "url2": null }, "geometry": { "type": "Point", "coordinates": [ 134.5180624, 34.1293539 ] } },
{ "type": "Feature", "properties": { "内容": "グループホームはなみずき【認知症対応型共同生活介護】犬伏字鶴畑42番地", "url": "https://www.kaigokensaku.mhlw.go.jp/36/index.php?action_kouhyou_detail_004_kani=true&JigyosyoCd=3611510227-00&ServiceCd=320&Type=search", "url2": "http://www.juzenkai-inoue.awk.jp/" }, "geometry": { "type": "Point", "coordinates": [ 134.454210200000034, 34.139399 ] } },
{ "type": "Feature", "properties": { "内容": "グループホームはるかぜの里【認知症対応型共同生活介護】徳島県板野郡板野町那東字野神前１０－１", "url": "https://www.kaigokensaku.mhlw.go.jp/36/index.php?action_kouhyou_detail_004_kani=true&JigyosyoCd=3671500886-00&ServiceCd=320&Type=search", "url2": "http://kondo-naika.jp/" }, "geometry": { "type": "Point", "coordinates": [ 134.438353399999983, 34.1349939 ] } },
{ "type": "Feature", "properties": { "内容": "グループホームさざんかの宿【認知症対応型共同生活介護】犬伏字鶴畑42グループホームさざんかの宿", "url": "https://www.kaigokensaku.mhlw.go.jp/36/index.php?action_kouhyou_detail_004_kani=true&JigyosyoCd=3691500023-00&ServiceCd=320&Type=search", "url2": "http://www.juzenkai-inoue.awk.jp/" }, "geometry": { "type": "Point", "coordinates": [ 134.454210200000034, 34.139399 ] } },
{ "type": "Feature", "properties": { "内容": "グループホーム　健祥会こころ【認知症対応型共同生活介護】徳島県板野郡上板町下六條字中西３３番地5", "url": "https://www.kaigokensaku.mhlw.go.jp/36/index.php?action_kouhyou_detail_004_kani=true&JigyosyoCd=3691500130-00&ServiceCd=320&Type=search", "url2": "kokoro@kenshokai.group" }, "geometry": { "type": "Point", "coordinates": [ 134.4364706, 34.1109489 ] } },
{ "type": "Feature", "properties": { "内容": "グループホーム団らん【認知症対応型共同生活介護】徳島県板野郡上板町椎本字椎ノ宮234番地", "url": "https://www.kaigokensaku.mhlw.go.jp/36/index.php?action_kouhyou_detail_004_kani=true&JigyosyoCd=3671500837-00&ServiceCd=320&Type=search", "url2": "https://youaijitsu.com/shokaen.html" }, "geometry": { "type": "Point", "coordinates": [ 134.4367302, 34.1184259 ] } },
{ "type": "Feature", "properties": { "内容": "グループホーム　上板【認知症対応型共同生活介護】徳島県板野郡上板町神宅字堂床27", "url": "https://www.kaigokensaku.mhlw.go.jp/36/index.php?action_kouhyou_detail_004_kani=true&JigyosyoCd=3671500852-00&ServiceCd=320&Type=search", "url2": "http://koutukai.com" }, "geometry": { "type": "Point", "coordinates": [ 134.412997706220949, 34.126269341753016 ] } },
{ "type": "Feature", "properties": { "内容": "グループホームゆずの里【認知症対応型共同生活介護】徳島県美馬郡つるぎ町貞光字中須賀７４番地３", "url": "https://www.kaigokensaku.mhlw.go.jp/36/index.php?action_kouhyou_detail_004_kani=true&JigyosyoCd=3671800146-00&ServiceCd=320&Type=search", "url2": "https://www.seijyukai.org/" }, "geometry": { "type": "Point", "coordinates": [ 134.065387500000043, 34.0404568 ] } },
{ "type": "Feature", "properties": { "内容": "グループホームこもれび【認知症対応型共同生活介護】徳島県美馬郡つるぎ町半田字小野４８７番地６", "url": "https://www.kaigokensaku.mhlw.go.jp/36/index.php?action_kouhyou_detail_004_kani=true&JigyosyoCd=3691800019-00&ServiceCd=320&Type=search", "url2": "https://www.seijyuka.org/" }, "geometry": { "type": "Point", "coordinates": [ 134.029095200000029, 34.0391569 ] } },
{ "type": "Feature", "properties": { "内容": "グループホーム　いこいの家【認知症対応型共同生活介護】徳島県三好郡東みよし町中庄801-3", "url": "https://www.kaigokensaku.mhlw.go.jp/36/index.php?action_kouhyou_detail_004_kani=true&JigyosyoCd=3671900417-00&ServiceCd=320&Type=search", "url2": null }, "geometry": { "type": "Point", "coordinates": [ 133.960206400000033, 34.0372271 ] } },
{ "type": "Feature", "properties": { "内容": "医療法人守章会　グループホームリリーハウス【認知症対応型共同生活介護】徳島県三好郡東みよし町中庄538番地の1", "url": "https://www.kaigokensaku.mhlw.go.jp/36/index.php?action_kouhyou_detail_004_kani=true&JigyosyoCd=3691900017-00&ServiceCd=320&Type=search", "url2": "http://ririhouse.com/about.html" }, "geometry": { "type": "Point", "coordinates": [ 133.951170737326038, 34.040216476405803 ] } },
{ "type": "Feature", "properties": { "内容": "グループホーム健祥会いこい【認知症対応型共同生活介護】徳島県三好郡東みよし町中庄801番地3", "url": "https://www.kaigokensaku.mhlw.go.jp/36/index.php?action_kouhyou_detail_004_kani=true&JigyosyoCd=3691900025-00&ServiceCd=320&Type=search", "url2": "https://www.kenshokai.group/" }, "geometry": { "type": "Point", "coordinates": [ 133.960125933729614, 34.03715597430422 ] } },
{ "type": "Feature", "properties": { "内容": "グループホームこころ【認知症対応型共同生活介護】徳島県三好郡東みよし町足代１１３１番地", "url": "https://www.kaigokensaku.mhlw.go.jp/36/index.php?action_kouhyou_detail_004_kani=true&JigyosyoCd=3671900318-00&ServiceCd=320&Type=search", "url2": null }, "geometry": { "type": "Point", "coordinates": [ 133.898425, 34.0406631 ] } }
]
}
