{
"type": "FeatureCollection",
"name": "geo_36_特定福祉用具販売",
"crs": { "type": "name", "properties": { "name": "urn:ogc:def:crs:OGC:1.3:CRS84" } },
"features": [
{ "type": "Feature", "properties": { "内容": "有限会社　一宮商店【特定福祉用具販売】徳島市南昭和町5丁目48番地の1", "url": "https://www.kaigokensaku.mhlw.go.jp/36/index.php?action_kouhyou_detail_004_kani=true&JigyosyoCd=3670103211-00&ServiceCd=410&Type=search", "url2": null }, "geometry": { "type": "Point", "coordinates": [ 134.562276399999973, 34.0566522 ] } },
{ "type": "Feature", "properties": { "内容": "株式会社　栄弘【特定福祉用具販売】徳島県徳島市末広1丁目165番地", "url": "https://www.kaigokensaku.mhlw.go.jp/36/index.php?action_kouhyou_detail_004_kani=true&JigyosyoCd=3670100480-00&ServiceCd=410&Type=search", "url2": "http://eiko165.co.jp" }, "geometry": { "type": "Point", "coordinates": [ 134.571910898950136, 34.066556792415319 ] } },
{ "type": "Feature", "properties": { "内容": "株式会社トナミ医療技研【特定福祉用具販売】徳島市三軒屋町外24-65", "url": "https://www.kaigokensaku.mhlw.go.jp/36/index.php?action_kouhyou_detail_004_kani=true&JigyosyoCd=3670100589-00&ServiceCd=410&Type=search", "url2": null }, "geometry": { "type": "Point", "coordinates": [ 134.550052599999958, 34.0398647 ] } },
{ "type": "Feature", "properties": { "内容": "株式会社　小谷義肢【特定福祉用具販売】徳島県　徳島市　徳島町　３丁目７６番地", "url": "https://www.kaigokensaku.mhlw.go.jp/36/index.php?action_kouhyou_detail_004_kani=true&JigyosyoCd=3670101728-00&ServiceCd=410&Type=search", "url2": "http://www.odani-gishi.co.jp" }, "geometry": { "type": "Point", "coordinates": [ 134.558390599999939, 34.0753336 ] } },
{ "type": "Feature", "properties": { "内容": "北島酸素株式会社【特定福祉用具販売】徳島県徳島市東沖洲2丁目18番地", "url": "https://www.kaigokensaku.mhlw.go.jp/36/index.php?action_kouhyou_detail_004_kani=true&JigyosyoCd=3670102304-00&ServiceCd=410&Type=search", "url2": "http://www.kitajima-sanso.com" }, "geometry": { "type": "Point", "coordinates": [ 134.59483160000002, 34.0581245 ] } },
{ "type": "Feature", "properties": { "内容": "福祉用具貸与・販売事業所ウエルフェア虹の橋【特定福祉用具販売】徳島県徳島市中島田町３丁目４３番地虹の橋ケアステーション　レインボーハウス", "url": "https://www.kaigokensaku.mhlw.go.jp/36/index.php?action_kouhyou_detail_004_kani=true&JigyosyoCd=3670103799-00&ServiceCd=410&Type=search", "url2": "http://nijinohashikaigo.com/" }, "geometry": { "type": "Point", "coordinates": [ 134.509573973402468, 34.083154871280406 ] } },
{ "type": "Feature", "properties": { "内容": "合同会社ケアサポートはーと【特定福祉用具販売】徳島県徳島市佐古二番町12－11", "url": "https://www.kaigokensaku.mhlw.go.jp/36/index.php?action_kouhyou_detail_004_kani=true&JigyosyoCd=3670102643-00&ServiceCd=410&Type=search", "url2": null }, "geometry": { "type": "Point", "coordinates": [ 134.53778120000004, 34.0790437 ] } },
{ "type": "Feature", "properties": { "内容": "福祉用具レンタル・販売愛桐【特定福祉用具販売】徳島市川内町平石住吉316-1", "url": "https://www.kaigokensaku.mhlw.go.jp/36/index.php?action_kouhyou_detail_004_kani=true&JigyosyoCd=3670103112-00&ServiceCd=410&Type=search", "url2": "http://www.aikiri.com/" }, "geometry": { "type": "Point", "coordinates": [ 134.577854399999978, 34.1118597 ] } },
{ "type": "Feature", "properties": { "内容": "株式会社　メディス【特定福祉用具販売】徳島市勝占町惣田15-3", "url": "https://www.kaigokensaku.mhlw.go.jp/36/index.php?action_kouhyou_detail_004_kani=true&JigyosyoCd=3670100258-00&ServiceCd=410&Type=search", "url2": "www.medis.bz" }, "geometry": { "type": "Point", "coordinates": [ 134.550167256662178, 34.021929069725964 ] } },
{ "type": "Feature", "properties": { "内容": "介護プラス【特定福祉用具販売】徳島県徳島市中常三島3丁目26-1403号", "url": "https://www.kaigokensaku.mhlw.go.jp/36/index.php?action_kouhyou_detail_004_kani=true&JigyosyoCd=3670103666-00&ServiceCd=410&Type=search", "url2": null }, "geometry": { "type": "Point", "coordinates": [ 134.564065, 34.0785832 ] } },
{ "type": "Feature", "properties": { "内容": "福祉企画さとう【特定福祉用具販売】徳島県徳島市国府町日開字中898番地4", "url": "https://www.kaigokensaku.mhlw.go.jp/36/index.php?action_kouhyou_detail_004_kani=true&JigyosyoCd=3670103252-00&ServiceCd=410&Type=search", "url2": null }, "geometry": { "type": "Point", "coordinates": [ 134.506456299999968, 34.082734 ] } },
{ "type": "Feature", "properties": { "内容": "社会福祉法人福祉用具貸与販売事業所【特定福祉用具販売】徳島県徳島市北佐古一番町１番６号", "url": "https://www.kaigokensaku.mhlw.go.jp/36/index.php?action_kouhyou_detail_004_kani=true&JigyosyoCd=3670105406-00&ServiceCd=410&Type=search", "url2": "http://asuka.khg.or.jp/" }, "geometry": { "type": "Point", "coordinates": [ 134.5415487, 34.0794253 ] } },
{ "type": "Feature", "properties": { "内容": "福祉用具貸与　オアシス【特定福祉用具販売】徳島県徳島市勝占町中須52番地1", "url": "https://www.kaigokensaku.mhlw.go.jp/36/index.php?action_kouhyou_detail_004_kani=true&JigyosyoCd=3670104623-00&ServiceCd=410&Type=search", "url2": null }, "geometry": { "type": "Point", "coordinates": [ 134.5531176, 34.0213228 ] } },
{ "type": "Feature", "properties": { "内容": "株式会社大一器械【特定福祉用具販売】徳島県徳島市川内町平石若宮340", "url": "https://www.kaigokensaku.mhlw.go.jp/36/index.php?action_kouhyou_detail_004_kani=true&JigyosyoCd=3670100308-00&ServiceCd=410&Type=search", "url2": "http://www.daiichi-kikai.co.jp" }, "geometry": { "type": "Point", "coordinates": [ 134.58075, 34.1025785 ] } },
{ "type": "Feature", "properties": { "内容": "アワフクケアプラス【特定福祉用具販売】徳島県徳島市国府町矢野字松はし233番10", "url": "https://www.kaigokensaku.mhlw.go.jp/36/index.php?action_kouhyou_detail_004_kani=true&JigyosyoCd=3671700536-00&ServiceCd=410&Type=search", "url2": "awafuku1975.com" }, "geometry": { "type": "Point", "coordinates": [ 134.478138984807515, 34.058705562785832 ] } },
{ "type": "Feature", "properties": { "内容": "イツモスマイル株式会社【特定福祉用具販売】徳島県徳島市佐古二番町5番11号", "url": "https://www.kaigokensaku.mhlw.go.jp/36/index.php?action_kouhyou_detail_004_kani=true&JigyosyoCd=3670101280-00&ServiceCd=410&Type=search", "url2": "http://itsumosmile.jp/" }, "geometry": { "type": "Point", "coordinates": [ 134.538450600000033, 34.0773578 ] } },
{ "type": "Feature", "properties": { "内容": "彩ケアサービス【特定福祉用具販売】徳島市八万町川南74番地7", "url": "https://www.kaigokensaku.mhlw.go.jp/36/index.php?action_kouhyou_detail_004_kani=true&JigyosyoCd=3670100969-00&ServiceCd=410&Type=search", "url2": null }, "geometry": { "type": "Point", "coordinates": [ 134.537725899999941, 34.0440975 ] } },
{ "type": "Feature", "properties": { "内容": "パシフィックケアシステム【特定福祉用具販売】徳島県徳島市東吉野町2-31-2グランフロント東吉野1F", "url": "https://www.kaigokensaku.mhlw.go.jp/36/index.php?action_kouhyou_detail_004_kani=true&JigyosyoCd=3670106354-00&ServiceCd=410&Type=search", "url2": null }, "geometry": { "type": "Point", "coordinates": [ 134.563489299999986, 34.0838394 ] } },
{ "type": "Feature", "properties": { "内容": "伊月福祉用具レンタルサービス【特定福祉用具販売】昭和町8丁目48番地30有料老人ホームカメリア", "url": "https://www.kaigokensaku.mhlw.go.jp/36/index.php?action_kouhyou_detail_004_kani=true&JigyosyoCd=3670106370-00&ServiceCd=410&Type=search", "url2": "https://ichie-kizuna.or.jp" }, "geometry": { "type": "Point", "coordinates": [ 134.5689749, 34.0560427 ] } },
{ "type": "Feature", "properties": { "内容": "ファミリー【特定福祉用具販売】勝占町中須92の1大松ジョリカB102", "url": "https://www.kaigokensaku.mhlw.go.jp/36/index.php?action_kouhyou_detail_004_kani=true&JigyosyoCd=3670104987-00&ServiceCd=410&Type=search", "url2": null }, "geometry": { "type": "Point", "coordinates": [ 134.554644599999989, 34.0212372 ] } },
{ "type": "Feature", "properties": { "内容": "ホームケアべんり堂福祉用具レンタル販売部【特定福祉用具販売】徳島県徳島市北矢三町１丁目１－１５番地", "url": "https://www.kaigokensaku.mhlw.go.jp/36/index.php?action_kouhyou_detail_004_kani=true&JigyosyoCd=3670100357-00&ServiceCd=410&Type=search", "url2": "http://www.benrido.net/" }, "geometry": { "type": "Point", "coordinates": [ 134.52891790000001, 34.0864814 ] } },
{ "type": "Feature", "properties": { "内容": "ケアサービスアサヒ【特定福祉用具販売】徳島県徳島市沖浜東1丁目45", "url": "https://www.kaigokensaku.mhlw.go.jp/36/index.php?action_kouhyou_detail_004_kani=true&JigyosyoCd=3670100811-00&ServiceCd=410&Type=search", "url2": "https://www.asahi-cs.jp/" }, "geometry": { "type": "Point", "coordinates": [ 134.55565411599261, 34.05492742258955 ] } },
{ "type": "Feature", "properties": { "内容": "株式会社トーカイ　徳島営業所【特定福祉用具販売】徳島市南沖洲3丁目5番地30号", "url": "https://www.kaigokensaku.mhlw.go.jp/36/index.php?action_kouhyou_detail_004_kani=true&JigyosyoCd=3670103419-00&ServiceCd=410&Type=search", "url2": "http://www.tokai-corp.com/" }, "geometry": { "type": "Point", "coordinates": [ 134.588779599999953, 34.0682233 ] } },
{ "type": "Feature", "properties": { "内容": "有限会社　ヤマデン【特定福祉用具販売】徳島県鳴門市撫養町黒崎字松島135", "url": "https://www.kaigokensaku.mhlw.go.jp/36/index.php?action_kouhyou_detail_004_kani=true&JigyosyoCd=3670200157-00&ServiceCd=410&Type=search", "url2": null }, "geometry": { "type": "Point", "coordinates": [ 134.5985379, 34.1880265 ] } },
{ "type": "Feature", "properties": { "内容": "株式会社　なるとや家具店【特定福祉用具販売】徳島県鳴門市撫養町斎田字北浜35番地2", "url": "https://www.kaigokensaku.mhlw.go.jp/36/index.php?action_kouhyou_detail_004_kani=true&JigyosyoCd=3670200264-00&ServiceCd=410&Type=search", "url2": null }, "geometry": { "type": "Point", "coordinates": [ 134.604294799999934, 34.1780115 ] } },
{ "type": "Feature", "properties": { "内容": "株式会社　中岸商店【特定福祉用具販売】鳴門市撫養町斉田字大堤９４番地", "url": "https://www.kaigokensaku.mhlw.go.jp/36/index.php?action_kouhyou_detail_004_kani=true&JigyosyoCd=3670200397-00&ServiceCd=410&Type=search", "url2": "http://www.chugan.com" }, "geometry": { "type": "Point", "coordinates": [ 134.6071971, 34.1759618 ] } },
{ "type": "Feature", "properties": { "内容": "ときわ特定福祉用具販売事業所【特定福祉用具販売】徳島県鳴門市撫養町斎田字北浜64番地4", "url": "https://www.kaigokensaku.mhlw.go.jp/36/index.php?action_kouhyou_detail_004_kani=true&JigyosyoCd=3670201080-00&ServiceCd=410&Type=search", "url2": null }, "geometry": { "type": "Point", "coordinates": [ 134.6053339, 34.1789722 ] } },
{ "type": "Feature", "properties": { "内容": "未来工房【特定福祉用具販売】徳島県鳴門市撫養町木津829番地10", "url": "https://www.kaigokensaku.mhlw.go.jp/36/index.php?action_kouhyou_detail_004_kani=true&JigyosyoCd=3670200504-00&ServiceCd=410&Type=search", "url2": "http://daikokuya-care.com/" }, "geometry": { "type": "Point", "coordinates": [ 134.581146485813861, 34.167385911518885 ] } },
{ "type": "Feature", "properties": { "内容": "ブラザー無線電機(株)シルバーサービス【特定福祉用具販売】徳島県小松島市南小松島町15番1号", "url": "https://www.kaigokensaku.mhlw.go.jp/36/index.php?action_kouhyou_detail_004_kani=true&JigyosyoCd=3670300072-00&ServiceCd=410&Type=search", "url2": null }, "geometry": { "type": "Point", "coordinates": [ 134.5869298, 34.0063613 ] } },
{ "type": "Feature", "properties": { "内容": "ケアサービスアサヒ　徳島南支店【特定福祉用具販売】徳島県阿南市学原町大深田18-2", "url": "https://www.kaigokensaku.mhlw.go.jp/36/index.php?action_kouhyou_detail_004_kani=true&JigyosyoCd=3670400955-00&ServiceCd=410&Type=search", "url2": "https：//www.asahi-cs.jp" }, "geometry": { "type": "Point", "coordinates": [ 134.66858160000001, 33.9140698 ] } },
{ "type": "Feature", "properties": { "内容": "有限会社　シルバーランド【特定福祉用具販売】徳島県阿南市羽ノ浦町中庄大久保53番", "url": "https://www.kaigokensaku.mhlw.go.jp/36/index.php?action_kouhyou_detail_004_kani=true&JigyosyoCd=3671300352-00&ServiceCd=410&Type=search", "url2": null }, "geometry": { "type": "Point", "coordinates": [ 134.641613804182469, 33.95196796482454 ] } },
{ "type": "Feature", "properties": { "内容": "株式会社ケアサポート志【特定福祉用具販売】徳島県吉野川市川島町桑村字新池尻641番地79-203号", "url": "https://www.kaigokensaku.mhlw.go.jp/36/index.php?action_kouhyou_detail_004_kani=true&JigyosyoCd=3671700635-00&ServiceCd=410&Type=search", "url2": null }, "geometry": { "type": "Point", "coordinates": [ 134.259833100000037, 34.0256886 ] } },
{ "type": "Feature", "properties": { "内容": "ケアサービスアサヒ　徳島西支店【特定福祉用具販売】徳島県吉野川市鴨島町鴨島字本郷141番1", "url": "https://www.kaigokensaku.mhlw.go.jp/36/index.php?action_kouhyou_detail_004_kani=true&JigyosyoCd=3671700932-00&ServiceCd=410&Type=search", "url2": "https://www.asahi-cs.jp/" }, "geometry": { "type": "Point", "coordinates": [ 134.360241520229863, 34.068851396593217 ] } },
{ "type": "Feature", "properties": { "内容": "株式会社アスケア【特定福祉用具販売】徳島県吉野川市鴨島町鴨島506番地1", "url": "https://www.kaigokensaku.mhlw.go.jp/36/index.php?action_kouhyou_detail_004_kani=true&JigyosyoCd=3671700452-00&ServiceCd=410&Type=search", "url2": null }, "geometry": { "type": "Point", "coordinates": [ 134.355706199999986, 34.0716653 ] } },
{ "type": "Feature", "properties": { "内容": "ケア用具ココロ【特定福祉用具販売】徳島県美馬市脇町野村４６３８－１", "url": "https://www.kaigokensaku.mhlw.go.jp/36/index.php?action_kouhyou_detail_004_kani=true&JigyosyoCd=3670500325-00&ServiceCd=410&Type=search", "url2": null }, "geometry": { "type": "Point", "coordinates": [ 134.092455100000052, 34.0589775 ] } },
{ "type": "Feature", "properties": { "内容": "有限会社水野企画【特定福祉用具販売】徳島県美馬市脇町大字猪尻字建神社下南120番地5", "url": "https://www.kaigokensaku.mhlw.go.jp/36/index.php?action_kouhyou_detail_004_kani=true&JigyosyoCd=3671800419-00&ServiceCd=410&Type=search", "url2": "http://www.mizuno-kikaku.com" }, "geometry": { "type": "Point", "coordinates": [ 134.160492299999987, 34.0647271 ] } },
{ "type": "Feature", "properties": { "内容": "株式会社トーカイ　徳島西部営業所【特定福祉用具販売】美馬市脇町字拝原40-123", "url": "https://www.kaigokensaku.mhlw.go.jp/36/index.php?action_kouhyou_detail_004_kani=true&JigyosyoCd=3670500317-00&ServiceCd=410&Type=search", "url2": "http://www.tokai-corp.com/" }, "geometry": { "type": "Point", "coordinates": [ 134.174982199999931, 34.0715596 ] } },
{ "type": "Feature", "properties": { "内容": "まこと福祉の店【特定福祉用具販売】徳島県名西郡石井町石井字石井５０５番地８", "url": "https://www.kaigokensaku.mhlw.go.jp/36/index.php?action_kouhyou_detail_004_kani=true&JigyosyoCd=3671200214-00&ServiceCd=410&Type=search", "url2": null }, "geometry": { "type": "Point", "coordinates": [ 134.44902, 34.0690823 ] } },
{ "type": "Feature", "properties": { "内容": "永和福祉用具販売事業所【特定福祉用具販売】徳島県名西郡石井町高原字東高原13-1", "url": "https://www.kaigokensaku.mhlw.go.jp/36/index.php?action_kouhyou_detail_004_kani=true&JigyosyoCd=3671200271-00&ServiceCd=410&Type=search", "url2": null }, "geometry": { "type": "Point", "coordinates": [ 134.4236138, 34.0826888 ] } },
{ "type": "Feature", "properties": { "内容": "那賀町に光を照らす株式会社【特定福祉用具販売】徳島県那賀郡那賀町百合字石橋５００－３那賀町に光を照らす高齢者住宅", "url": "https://www.kaigokensaku.mhlw.go.jp/36/index.php?action_kouhyou_detail_004_kani=true&JigyosyoCd=3671300709-00&ServiceCd=410&Type=search", "url2": null }, "geometry": { "type": "Point", "coordinates": [ 134.488402, 33.845826 ] } },
{ "type": "Feature", "properties": { "内容": "有限会社西沢建材センター【特定福祉用具販売】徳島県海部郡海陽町大里字下中須３７番地", "url": "https://www.kaigokensaku.mhlw.go.jp/36/index.php?action_kouhyou_detail_004_kani=true&JigyosyoCd=3671400335-00&ServiceCd=410&Type=search", "url2": "https://www.nishizawakenzai.co.jp/" }, "geometry": { "type": "Point", "coordinates": [ 134.359314615344204, 33.598544775288971 ] } },
{ "type": "Feature", "properties": { "内容": "そよかぜ指定福祉用具貸与【特定福祉用具販売】徳島県板野郡松茂町中喜来字群恵３９－１", "url": "https://www.kaigokensaku.mhlw.go.jp/36/index.php?action_kouhyou_detail_004_kani=true&JigyosyoCd=3671500167-00&ServiceCd=410&Type=search", "url2": "http://www.ias.biglobe.ne.jp/sogoiryo" }, "geometry": { "type": "Point", "coordinates": [ 134.5903303, 34.1414008 ] } },
{ "type": "Feature", "properties": { "内容": "介護ショップトーホー【特定福祉用具販売】板野郡北島町高房字勝瑞境3番地１", "url": "https://www.kaigokensaku.mhlw.go.jp/36/index.php?action_kouhyou_detail_004_kani=true&JigyosyoCd=3671500415-00&ServiceCd=410&Type=search", "url2": "http://www.tohosales.co.jp" }, "geometry": { "type": "Point", "coordinates": [ 134.532166400000051, 34.128177 ] } },
{ "type": "Feature", "properties": { "内容": "株式会社フロンティア　徳島営業所【特定福祉用具販売】徳島県板野郡北島町高房字勝瑞境3-1", "url": "https://www.kaigokensaku.mhlw.go.jp/36/index.php?action_kouhyou_detail_004_kani=true&JigyosyoCd=3671502361-00&ServiceCd=410&Type=search", "url2": "https://www.frontier-ph.com/" }, "geometry": { "type": "Point", "coordinates": [ 134.53218916931155, 34.128112794155761 ] } },
{ "type": "Feature", "properties": { "内容": "四国医療サービス株式会社福祉事業部徳島営業所【特定福祉用具販売】徳島県板野郡北島町鯛浜字川久保179-7", "url": "https://www.kaigokensaku.mhlw.go.jp/36/index.php?action_kouhyou_detail_004_kani=true&JigyosyoCd=3671501140-00&ServiceCd=410&Type=search", "url2": "http://www.shikoku-ms.jp/" }, "geometry": { "type": "Point", "coordinates": [ 134.551809400000025, 34.1146843 ] } },
{ "type": "Feature", "properties": { "内容": "福祉用具Sumika【特定福祉用具販売】徳島県板野郡藍住町矢上字北分41番地43", "url": "https://www.kaigokensaku.mhlw.go.jp/36/index.php?action_kouhyou_detail_004_kani=true&JigyosyoCd=3671502338-00&ServiceCd=410&Type=search", "url2": null }, "geometry": { "type": "Point", "coordinates": [ 134.4959686, 34.1370291 ] } },
{ "type": "Feature", "properties": { "内容": "板野郡板野町大坂字古田２１番地２【特定福祉用具販売】徳島県板野郡板野町大坂字古田２１番地２", "url": "https://www.kaigokensaku.mhlw.go.jp/36/index.php?action_kouhyou_detail_004_kani=true&JigyosyoCd=3671501520-00&ServiceCd=410&Type=search", "url2": "http://www.ecocolo-web.jp/" }, "geometry": { "type": "Point", "coordinates": [ 134.456096200000047, 34.1561725 ] } },
{ "type": "Feature", "properties": { "内容": "ヨシキケアサービス【特定福祉用具販売】徳島県板野郡板野町中久保字中須賀21番地", "url": "https://www.kaigokensaku.mhlw.go.jp/36/index.php?action_kouhyou_detail_004_kani=true&JigyosyoCd=3671501454-00&ServiceCd=410&Type=search", "url2": null }, "geometry": { "type": "Point", "coordinates": [ 134.451147200000037, 34.1183236 ] } },
{ "type": "Feature", "properties": { "内容": "有限会社　福祉用具つるぎ【特定福祉用具販売】徳島県　美馬郡　つるぎ町半田字小野31-1", "url": "https://www.kaigokensaku.mhlw.go.jp/36/index.php?action_kouhyou_detail_004_kani=true&JigyosyoCd=3671800468-00&ServiceCd=410&Type=search", "url2": null }, "geometry": { "type": "Point", "coordinates": [ 134.035044800000037, 34.0386236 ] } },
{ "type": "Feature", "properties": { "内容": "介護ショップ　ハートステッキ【特定福祉用具販売】徳島県美馬郡つるぎ町半田字小野３２５", "url": "https://www.kaigokensaku.mhlw.go.jp/36/index.php?action_kouhyou_detail_004_kani=true&JigyosyoCd=3671800526-00&ServiceCd=410&Type=search", "url2": null }, "geometry": { "type": "Point", "coordinates": [ 134.031347899999986, 34.0407678 ] } }
]
}
