{
"type": "FeatureCollection",
"name": "geo_36_通所介護",
"crs": { "type": "name", "properties": { "name": "urn:ogc:def:crs:OGC:1.3:CRS84" } },
"features": [
{ "type": "Feature", "properties": { "内容": "デイサービスあじさいのもり【通所介護】徳島県徳島市南矢三町3丁目3-47", "url": "https://www.kaigokensaku.mhlw.go.jp/36/index.php?action_kouhyou_detail_004_kani=true&JigyosyoCd=3670104821-00&ServiceCd=150&Type=search", "url2": null }, "geometry": { "type": "Point", "coordinates": [ 134.521963, 34.0845176 ] } },
{ "type": "Feature", "properties": { "内容": "ハートインライフ住吉【通所介護】徳島県徳島市住吉２丁目９番地８", "url": "https://www.kaigokensaku.mhlw.go.jp/36/index.php?action_kouhyou_detail_004_kani=true&JigyosyoCd=3670101611-00&ServiceCd=150&Type=search", "url2": "http://www.heartfulcare.jp" }, "geometry": { "type": "Point", "coordinates": [ 134.567809099999977, 34.0763687 ] } },
{ "type": "Feature", "properties": { "内容": "白寿会西部デイサービスセンター【通所介護】徳島県徳島市不動西町3丁目1197-1", "url": "https://www.kaigokensaku.mhlw.go.jp/36/index.php?action_kouhyou_detail_004_kani=true&JigyosyoCd=3670100183-00&ServiceCd=150&Type=search", "url2": "http://www.hakuju-kai.or.jp/" }, "geometry": { "type": "Point", "coordinates": [ 134.494626899999957, 34.091327 ] } },
{ "type": "Feature", "properties": { "内容": "青葉荘デイサービスセンター【通所介護】徳島県徳島市飯谷町上里５０－２", "url": "https://www.kaigokensaku.mhlw.go.jp/36/index.php?action_kouhyou_detail_004_kani=true&JigyosyoCd=3670100019-00&ServiceCd=150&Type=search", "url2": null }, "geometry": { "type": "Point", "coordinates": [ 134.5490006, 33.9664928 ] } },
{ "type": "Feature", "properties": { "内容": "デイサービス　天満ウェルネス二軒屋【通所介護】徳島県徳島市南二軒屋町1丁目1－16", "url": "https://www.kaigokensaku.mhlw.go.jp/36/index.php?action_kouhyou_detail_004_kani=true&JigyosyoCd=3670104367-00&ServiceCd=150&Type=search", "url2": "https://tenma-hpg.com/roujinhome/welnessnikenya/" }, "geometry": { "type": "Point", "coordinates": [ 134.546627899999976, 34.0555104 ] } },
{ "type": "Feature", "properties": { "内容": "青い鳥デイサービスセンター【通所介護】徳島県徳島市佐古六番町12番11号", "url": "https://www.kaigokensaku.mhlw.go.jp/36/index.php?action_kouhyou_detail_004_kani=true&JigyosyoCd=3670101744-00&ServiceCd=150&Type=search", "url2": null }, "geometry": { "type": "Point", "coordinates": [ 134.525985, 34.0795155 ] } },
{ "type": "Feature", "properties": { "内容": "おかがわ内科デイサービス大和【通所介護】徳島市川内町平石夷野２４番地", "url": "https://www.kaigokensaku.mhlw.go.jp/36/index.php?action_kouhyou_detail_004_kani=true&JigyosyoCd=3670103708-00&ServiceCd=150&Type=search", "url2": "http://www.okagawah.com" }, "geometry": { "type": "Point", "coordinates": [ 134.57625429999996, 34.1211586 ] } },
{ "type": "Feature", "properties": { "内容": "デイサービスセンターアイナ【通所介護】徳島県徳島市大原町千代ヶ丸146番地", "url": "https://www.kaigokensaku.mhlw.go.jp/36/index.php?action_kouhyou_detail_004_kani=true&JigyosyoCd=3670104094-00&ServiceCd=150&Type=search", "url2": "http://www.doushisya.jp/" }, "geometry": { "type": "Point", "coordinates": [ 134.568956299999968, 34.0281804 ] } },
{ "type": "Feature", "properties": { "内容": "社会福祉法人白寿会　白寿会西部デイサービスセンター【通所介護】徳島県徳島市不動西町3丁目1197-1", "url": "https://www.kaigokensaku.mhlw.go.jp/36/index.php?action_kouhyou_detail_004_kani=true&JigyosyoCd=3690168376-00&ServiceCd=150&Type=search", "url2": "http://www.hakuju-kai.or.jp/" }, "geometry": { "type": "Point", "coordinates": [ 134.494534, 34.0875542 ] } },
{ "type": "Feature", "properties": { "内容": "デイサービスセンター満福【通所介護】徳島県徳島市東新町2丁目20番地銀座アビタシオン1階", "url": "https://www.kaigokensaku.mhlw.go.jp/36/index.php?action_kouhyou_detail_004_kani=true&JigyosyoCd=3670103427-00&ServiceCd=150&Type=search", "url2": "http://www.group-living.com/" }, "geometry": { "type": "Point", "coordinates": [ 134.549261, 34.0687869 ] } },
{ "type": "Feature", "properties": { "内容": "デイサービスセンター浪漫【通所介護】徳島市国府町和田字居内52番地1", "url": "https://www.kaigokensaku.mhlw.go.jp/36/index.php?action_kouhyou_detail_004_kani=true&JigyosyoCd=3670103120-00&ServiceCd=150&Type=search", "url2": "https://roman-day.com" }, "geometry": { "type": "Point", "coordinates": [ 134.490876631248085, 34.073209689875483 ] } },
{ "type": "Feature", "properties": { "内容": "デイサービスセンター心笑【通所介護】徳島県徳島市蔵本町2丁目11番ダイバーシティビル3階", "url": "https://www.kaigokensaku.mhlw.go.jp/36/index.php?action_kouhyou_detail_004_kani=true&JigyosyoCd=3670105141-00&ServiceCd=150&Type=search", "url2": "http://day-kokoe.jimdofree.com" }, "geometry": { "type": "Point", "coordinates": [ 134.5191017, 34.0787718 ] } },
{ "type": "Feature", "properties": { "内容": "デイサービスセンター　ゆうき【通所介護】徳島県徳島市庄町2丁目２２－１", "url": "https://www.kaigokensaku.mhlw.go.jp/36/index.php?action_kouhyou_detail_004_kani=true&JigyosyoCd=3670102262-00&ServiceCd=150&Type=search", "url2": null }, "geometry": { "type": "Point", "coordinates": [ 134.5115151, 34.076104500000021 ] } },
{ "type": "Feature", "properties": { "内容": "デイサービス桃源郷【通所介護】徳島県徳島市上福万220番地8", "url": "https://www.kaigokensaku.mhlw.go.jp/36/index.php?action_kouhyou_detail_004_kani=true&JigyosyoCd=3670106040-00&ServiceCd=150&Type=search", "url2": null }, "geometry": { "type": "Point", "coordinates": [ 134.5300824, 34.0503245 ] } },
{ "type": "Feature", "properties": { "内容": "すずえ通所介護【通所介護】徳島市佐古八番町４－２０", "url": "https://www.kaigokensaku.mhlw.go.jp/36/index.php?action_kouhyou_detail_004_kani=true&JigyosyoCd=3610123568-00&ServiceCd=150&Type=search", "url2": "http://www.suzue/jp" }, "geometry": { "type": "Point", "coordinates": [ 134.522549300000037, 34.0775129 ] } },
{ "type": "Feature", "properties": { "内容": "ツクイ徳島田宮【通所介護】徳島県徳島市北田宮1-7-17", "url": "https://www.kaigokensaku.mhlw.go.jp/36/index.php?action_kouhyou_detail_004_kani=true&JigyosyoCd=3670105562-00&ServiceCd=150&Type=search", "url2": "https://www.tsukui.net" }, "geometry": { "type": "Point", "coordinates": [ 134.545250800000019, 34.088552100000015 ] } },
{ "type": "Feature", "properties": { "内容": "ツクイ徳島西須賀【通所介護】徳島県徳島市西須賀町下中須84-18", "url": "https://www.kaigokensaku.mhlw.go.jp/36/index.php?action_kouhyou_detail_004_kani=true&JigyosyoCd=3670105547-00&ServiceCd=150&Type=search", "url2": "https://www.tsukui.net" }, "geometry": { "type": "Point", "coordinates": [ 134.546898499999969, 34.033005400000015 ] } },
{ "type": "Feature", "properties": { "内容": "デイサービスセンター春水【通所介護】徳島県徳島市名東町3丁目13高齢者住宅春水", "url": "https://www.kaigokensaku.mhlw.go.jp/36/index.php?action_kouhyou_detail_004_kani=true&JigyosyoCd=3670103070-00&ServiceCd=150&Type=search", "url2": "https://kawauchi-clinic.jp/shunsui" }, "geometry": { "type": "Point", "coordinates": [ 134.495102, 34.0587365 ] } },
{ "type": "Feature", "properties": { "内容": "デイサービスセンター夢ファミリー【通所介護】徳島県徳島市川内町榎瀬８２４－１号", "url": "https://www.kaigokensaku.mhlw.go.jp/36/index.php?action_kouhyou_detail_004_kani=true&JigyosyoCd=3670103989-00&ServiceCd=150&Type=search", "url2": "http://dreamer-service.org" }, "geometry": { "type": "Point", "coordinates": [ 134.55287850000002, 34.1067341 ] } },
{ "type": "Feature", "properties": { "内容": "デイサービスセンター夢ガーデン【通所介護】徳島県徳島市末広2丁目1番80号", "url": "https://www.kaigokensaku.mhlw.go.jp/36/index.php?action_kouhyou_detail_004_kani=true&JigyosyoCd=3670104284-00&ServiceCd=150&Type=search", "url2": "http://dreamer-service.org" }, "geometry": { "type": "Point", "coordinates": [ 134.573917742327922, 34.064227068188082 ] } },
{ "type": "Feature", "properties": { "内容": "デイサービスセンター青香【通所介護】徳島県徳島市川内町平石住吉183番地", "url": "https://www.kaigokensaku.mhlw.go.jp/36/index.php?action_kouhyou_detail_004_kani=true&JigyosyoCd=3670100209-00&ServiceCd=150&Type=search", "url2": "http://www.seikahukushikai.jp" }, "geometry": { "type": "Point", "coordinates": [ 134.5859787, 34.113915 ] } },
{ "type": "Feature", "properties": { "内容": "デイサービスセンター　きずな【通所介護】丈六町小谷46番地1", "url": "https://www.kaigokensaku.mhlw.go.jp/36/index.php?action_kouhyou_detail_004_kani=true&JigyosyoCd=3670105984-00&ServiceCd=150&Type=search", "url2": "https://www.jonanh.com/" }, "geometry": { "type": "Point", "coordinates": [ 134.547725097761543, 34.014153393126406 ] } },
{ "type": "Feature", "properties": { "内容": "大神子デイサービスセンター【通所介護】徳島県徳島市大原町余慶1番地5", "url": "https://www.kaigokensaku.mhlw.go.jp/36/index.php?action_kouhyou_detail_004_kani=true&JigyosyoCd=3670105588-00&ServiceCd=150&Type=search", "url2": "https://www.sudachikai.jp/" }, "geometry": { "type": "Point", "coordinates": [ 134.571970909123252, 34.027106575139527 ] } },
{ "type": "Feature", "properties": { "内容": "サカイリハトレセンター【通所介護】徳島県徳島市国府町桜間字銭亀33-3", "url": "https://www.kaigokensaku.mhlw.go.jp/36/index.php?action_kouhyou_detail_004_kani=true&JigyosyoCd=3670103682-00&ServiceCd=150&Type=search", "url2": null }, "geometry": { "type": "Point", "coordinates": [ 134.464179800000011, 34.085347 ] } },
{ "type": "Feature", "properties": { "内容": "デイサービスセンター松の実【通所介護】名東町3丁目15番地", "url": "https://www.kaigokensaku.mhlw.go.jp/36/index.php?action_kouhyou_detail_004_kani=true&JigyosyoCd=3670105083-00&ServiceCd=150&Type=search", "url2": "http://kawauchi-clinc.jp/dayservice-matsunomi" }, "geometry": { "type": "Point", "coordinates": [ 134.495405500000061, 34.0587887 ] } },
{ "type": "Feature", "properties": { "内容": "デイサービスセンターかなで【通所介護】徳島県徳島市川内町北原78番地2", "url": "https://www.kaigokensaku.mhlw.go.jp/36/index.php?action_kouhyou_detail_004_kani=true&JigyosyoCd=3670105505-00&ServiceCd=150&Type=search", "url2": null }, "geometry": { "type": "Point", "coordinates": [ 134.565252315993234, 34.102424476510102 ] } },
{ "type": "Feature", "properties": { "内容": "デイサービスセンター集【通所介護】徳島県徳島市川内町富久102-3デイサービスセンター　集", "url": "https://www.kaigokensaku.mhlw.go.jp/36/index.php?action_kouhyou_detail_004_kani=true&JigyosyoCd=3670104862-00&ServiceCd=150&Type=search", "url2": null }, "geometry": { "type": "Point", "coordinates": [ 134.592217399999953, 34.1043832 ] } },
{ "type": "Feature", "properties": { "内容": "デイサービスセンターげんき【通所介護】徳島県徳島市応神町東貞方字諏訪ノ市１７２番地２", "url": "https://www.kaigokensaku.mhlw.go.jp/36/index.php?action_kouhyou_detail_004_kani=true&JigyosyoCd=3670102312-00&ServiceCd=150&Type=search", "url2": "http://daysevice-genki.net" }, "geometry": { "type": "Point", "coordinates": [ 134.512191199999961, 34.111456 ] } },
{ "type": "Feature", "properties": { "内容": "デイサービスつぼみ【通所介護】徳島県徳島市富田橋５－１２－２", "url": "https://www.kaigokensaku.mhlw.go.jp/36/index.php?action_kouhyou_detail_004_kani=true&JigyosyoCd=3670102916-00&ServiceCd=150&Type=search", "url2": null }, "geometry": { "type": "Point", "coordinates": [ 134.550827499999968, 34.0596767 ] } },
{ "type": "Feature", "properties": { "内容": "デイサービスおこしやす【通所介護】徳島市南昭和町一丁目９番地７井村ビル１階", "url": "https://www.kaigokensaku.mhlw.go.jp/36/index.php?action_kouhyou_detail_004_kani=true&JigyosyoCd=3670104615-00&ServiceCd=150&Type=search", "url2": "https://linkle-group.co.jp/" }, "geometry": { "type": "Point", "coordinates": [ 134.555913957672146, 34.059546265108985 ] } },
{ "type": "Feature", "properties": { "内容": "RACケアスタジオ【通所介護】徳島県徳島市安宅2丁目4-19", "url": "https://www.kaigokensaku.mhlw.go.jp/36/index.php?action_kouhyou_detail_004_kani=true&JigyosyoCd=3670105372-00&ServiceCd=150&Type=search", "url2": "https://www.crea-care.com/rac-care-studio/" }, "geometry": { "type": "Point", "coordinates": [ 134.5744087, 34.0685139 ] } },
{ "type": "Feature", "properties": { "内容": "デイサービス進取の気性【通所介護】徳島県徳島市川内町金岡80-12", "url": "https://www.kaigokensaku.mhlw.go.jp/36/index.php?action_kouhyou_detail_004_kani=true&JigyosyoCd=3670105968-00&ServiceCd=150&Type=search", "url2": null }, "geometry": { "type": "Point", "coordinates": [ 134.569077600000014, 34.098158 ] } },
{ "type": "Feature", "properties": { "内容": "デイサービスセンター恵西須賀【通所介護】徳島県徳島市西須賀町又新堤2-1", "url": "https://www.kaigokensaku.mhlw.go.jp/36/index.php?action_kouhyou_detail_004_kani=true&JigyosyoCd=3670104599-00&ServiceCd=150&Type=search", "url2": "http://itsumosmile.jp/" }, "geometry": { "type": "Point", "coordinates": [ 134.542739, 34.035406 ] } },
{ "type": "Feature", "properties": { "内容": "デイサービスセンターともだち倶楽部【通所介護】徳島県徳島市中常三島町一丁目5番地2", "url": "https://www.kaigokensaku.mhlw.go.jp/36/index.php?action_kouhyou_detail_004_kani=true&JigyosyoCd=3670104789-00&ServiceCd=150&Type=search", "url2": "http://itsumosmile.jp/" }, "geometry": { "type": "Point", "coordinates": [ 134.559893652374001, 34.079802256993297 ] } },
{ "type": "Feature", "properties": { "内容": "デイサービスセンターイツモスマイル【通所介護】徳島県徳島市北田宮1丁目7-19", "url": "https://www.kaigokensaku.mhlw.go.jp/36/index.php?action_kouhyou_detail_004_kani=true&JigyosyoCd=3670105133-00&ServiceCd=150&Type=search", "url2": "http://itsumosmile.jp/" }, "geometry": { "type": "Point", "coordinates": [ 134.546178627291226, 34.088866780057394 ] } },
{ "type": "Feature", "properties": { "内容": "デイサービスセンターあすなろ【通所介護】徳島県徳島市城東町二丁目６番２９号", "url": "https://www.kaigokensaku.mhlw.go.jp/36/index.php?action_kouhyou_detail_004_kani=true&JigyosyoCd=3670102882-00&ServiceCd=150&Type=search", "url2": "ichiyou-kai.com" }, "geometry": { "type": "Point", "coordinates": [ 134.575291900000025, 34.0738449 ] } },
{ "type": "Feature", "properties": { "内容": "デイサービス天満ウェルネス二軒屋【通所介護】徳島県徳島市南二軒屋町1丁目1‐16", "url": "https://www.kaigokensaku.mhlw.go.jp/36/index.php?action_kouhyou_detail_004_kani=true&JigyosyoCd=3670106081-00&ServiceCd=150&Type=search", "url2": "https://tenma-hpg.com/" }, "geometry": { "type": "Point", "coordinates": [ 134.546625400000011, 34.0555134 ] } },
{ "type": "Feature", "properties": { "内容": "はしもとリハビリデイサービスセンター【通所介護】徳島県中常三島町3丁目19-3", "url": "https://www.kaigokensaku.mhlw.go.jp/36/index.php?action_kouhyou_detail_004_kani=true&JigyosyoCd=3610126702-00&ServiceCd=150&Type=search", "url2": null }, "geometry": { "type": "Point", "coordinates": [ 134.5655271, 34.0783968 ] } },
{ "type": "Feature", "properties": { "内容": "デイサービスセンターわかば【通所介護】徳島県徳島市新浜本町3丁目2-17", "url": "https://www.kaigokensaku.mhlw.go.jp/36/index.php?action_kouhyou_detail_004_kani=true&JigyosyoCd=3670101967-00&ServiceCd=150&Type=search", "url2": "http://www.kondo-hp.com" }, "geometry": { "type": "Point", "coordinates": [ 134.567953499999931, 34.0444896 ] } },
{ "type": "Feature", "properties": { "内容": "デイサービス凛【通所介護】徳島県徳島市応神町西貞方字上奥66-4ライフオーベルジュ徳島・１階（デイサービス凛）", "url": "https://www.kaigokensaku.mhlw.go.jp/36/index.php?action_kouhyou_detail_004_kani=true&JigyosyoCd=3670104896-00&ServiceCd=150&Type=search", "url2": "http://www.seijyukai-med.jp/" }, "geometry": { "type": "Point", "coordinates": [ 134.505227495770214, 34.113284021547749 ] } },
{ "type": "Feature", "properties": { "内容": "デイサービスゆめ【通所介護】徳島県徳島市名東町１丁目９９－２住宅型有料老人ホームみんなのおうち", "url": "https://www.kaigokensaku.mhlw.go.jp/36/index.php?action_kouhyou_detail_004_kani=true&JigyosyoCd=3660190541-00&ServiceCd=150&Type=search", "url2": "https;//minnanoouti-mtk.com" }, "geometry": { "type": "Point", "coordinates": [ 138.252924, 36.204824 ] } },
{ "type": "Feature", "properties": { "内容": "おかがわ内科デイサービス中徳島の家【通所介護】徳島市中徳島二丁目８番地", "url": "https://www.kaigokensaku.mhlw.go.jp/36/index.php?action_kouhyou_detail_004_kani=true&JigyosyoCd=3670103492-00&ServiceCd=150&Type=search", "url2": "http://www.okagawah.com" }, "geometry": { "type": "Point", "coordinates": [ 134.559404399999949, 34.0732755 ] } },
{ "type": "Feature", "properties": { "内容": "花乃苑デイサービスセンター【通所介護】徳島県徳島市北沖洲２丁目9-55", "url": "https://www.kaigokensaku.mhlw.go.jp/36/index.php?action_kouhyou_detail_004_kani=true&JigyosyoCd=3670105786-00&ServiceCd=150&Type=search", "url2": "https://hananoen-group.com" }, "geometry": { "type": "Point", "coordinates": [ 134.588670900000011, 34.0701643 ] } },
{ "type": "Feature", "properties": { "内容": "通所介護事業所ロイヤルヘルス倶楽部【通所介護】徳島県徳島市西新浜町2丁目3-38", "url": "https://www.kaigokensaku.mhlw.go.jp/36/index.php?action_kouhyou_detail_004_kani=true&JigyosyoCd=3670104227-00&ServiceCd=150&Type=search", "url2": "https://www.royal-hc.com/" }, "geometry": { "type": "Point", "coordinates": [ 134.5596627, 34.0419007 ] } },
{ "type": "Feature", "properties": { "内容": "平成デイサービスセンター徳島【通所介護】徳島県徳島市かちどき橋6-10-1メディケアハウス平成", "url": "https://www.kaigokensaku.mhlw.go.jp/36/index.php?action_kouhyou_detail_004_kani=true&JigyosyoCd=3670104086-00&ServiceCd=150&Type=search", "url2": "https://tokushima.heisei-ds.jp/" }, "geometry": { "type": "Point", "coordinates": [ 134.553126625794988, 34.056762595150524 ] } },
{ "type": "Feature", "properties": { "内容": "平成デイサービスセンター渭北【通所介護】徳島県徳島市下助任町3丁目34番2", "url": "https://www.kaigokensaku.mhlw.go.jp/36/index.php?action_kouhyou_detail_004_kani=true&JigyosyoCd=3670100878-00&ServiceCd=150&Type=search", "url2": "https://ihoku.grouph.jp" }, "geometry": { "type": "Point", "coordinates": [ 134.552771399999983, 34.0824521 ] } },
{ "type": "Feature", "properties": { "内容": "デイサービスあじさいのもり【通所介護】徳島県徳島市南矢三町3丁目3番47号", "url": "https://www.kaigokensaku.mhlw.go.jp/36/index.php?action_kouhyou_detail_004_kani=true&JigyosyoCd=3670105224-00&ServiceCd=150&Type=search", "url2": null }, "geometry": { "type": "Point", "coordinates": [ 134.521788499999957, 34.0839404 ] } },
{ "type": "Feature", "properties": { "内容": "デイサービスセンター夢屋【通所介護】徳島県徳島市籠屋町２丁目８番地", "url": "https://www.kaigokensaku.mhlw.go.jp/36/index.php?action_kouhyou_detail_004_kani=true&JigyosyoCd=3670106198-00&ServiceCd=150&Type=search", "url2": "https://group-living.com/" }, "geometry": { "type": "Point", "coordinates": [ 134.548225699999989, 34.0679467 ] } },
{ "type": "Feature", "properties": { "内容": "カメリアデイサービス【通所介護】徳島県徳島市昭和町8丁目48-30有料老人ホームカメリア　1階", "url": "https://www.kaigokensaku.mhlw.go.jp/36/index.php?action_kouhyou_detail_004_kani=true&JigyosyoCd=3670105265-00&ServiceCd=150&Type=search", "url2": "https://ichie-kizuna.or.jp" }, "geometry": { "type": "Point", "coordinates": [ 134.569471099999987, 34.0570137 ] } },
{ "type": "Feature", "properties": { "内容": "デイサービスハリウッド【通所介護】徳島県徳島市佐古二番町5-22", "url": "https://www.kaigokensaku.mhlw.go.jp/36/index.php?action_kouhyou_detail_004_kani=true&JigyosyoCd=3670102635-00&ServiceCd=150&Type=search", "url2": "bevarlyhills@nijinohashi-net" }, "geometry": { "type": "Point", "coordinates": [ 134.539335486508179, 34.077389456751966 ] } },
{ "type": "Feature", "properties": { "内容": "デイサービス　ロワール【通所介護】徳島県徳島市佐古二番町6-9虹の橋ガーデン2階", "url": "https://www.kaigokensaku.mhlw.go.jp/36/index.php?action_kouhyou_detail_004_kani=true&JigyosyoCd=3670105687-00&ServiceCd=150&Type=search", "url2": "https://nijinohashikaigo.com/service/" }, "geometry": { "type": "Point", "coordinates": [ 134.5375716, 34.0773507 ] } },
{ "type": "Feature", "properties": { "内容": "デイサービス　ベルゲン【通所介護】徳島県徳島市中島田町3丁目60番地3", "url": "https://www.kaigokensaku.mhlw.go.jp/36/index.php?action_kouhyou_detail_004_kani=true&JigyosyoCd=3670105711-00&ServiceCd=150&Type=search", "url2": "nijinohashikaigo.com" }, "geometry": { "type": "Point", "coordinates": [ 134.5114854, 34.0845052 ] } },
{ "type": "Feature", "properties": { "内容": "あいじつデイサービス【通所介護】徳島県徳島市佐古五番町2番18号", "url": "https://www.kaigokensaku.mhlw.go.jp/36/index.php?action_kouhyou_detail_004_kani=true&JigyosyoCd=3610124350-00&ServiceCd=150&Type=search", "url2": "https://youaijitsu.com" }, "geometry": { "type": "Point", "coordinates": [ 134.530526399999985, 34.077563100000049 ] } },
{ "type": "Feature", "properties": { "内容": "デイサービス　ツェルマット【通所介護】徳島県徳島市中島田町3丁目60番地1", "url": "https://www.kaigokensaku.mhlw.go.jp/36/index.php?action_kouhyou_detail_004_kani=true&JigyosyoCd=3670105695-00&ServiceCd=150&Type=search", "url2": "http://www.nijinohashi.net/" }, "geometry": { "type": "Point", "coordinates": [ 134.510464500000012, 34.0838904 ] } },
{ "type": "Feature", "properties": { "内容": "デイサービス　えがお【通所介護】徳島県徳島市津田本町二丁目２番３０号", "url": "https://www.kaigokensaku.mhlw.go.jp/36/index.php?action_kouhyou_detail_004_kani=true&JigyosyoCd=3670104672-00&ServiceCd=150&Type=search", "url2": null }, "geometry": { "type": "Point", "coordinates": [ 134.577272, 34.0498364 ] } },
{ "type": "Feature", "properties": { "内容": "デイサービス　まどか【通所介護】徳島県徳島市南庄町4丁目41番地２", "url": "https://www.kaigokensaku.mhlw.go.jp/36/index.php?action_kouhyou_detail_004_kani=true&JigyosyoCd=3670104904-00&ServiceCd=150&Type=search", "url2": "www.matsunaga-hp.jp" }, "geometry": { "type": "Point", "coordinates": [ 134.508658565745577, 34.071497040509257 ] } },
{ "type": "Feature", "properties": { "内容": "徳島万代ケアセンターそよ風【通所介護】徳島県徳島市万代町６丁目1番３", "url": "https://www.kaigokensaku.mhlw.go.jp/36/index.php?action_kouhyou_detail_004_kani=true&JigyosyoCd=3670105422-00&ServiceCd=150&Type=search", "url2": "https://www.sykz.co.jp/" }, "geometry": { "type": "Point", "coordinates": [ 134.566089980598008, 34.062321760345704 ] } },
{ "type": "Feature", "properties": { "内容": "デイサービスセンター　花みずき【通所介護】徳島市佐古四番町４－７佐古グループホーム　　デイサービスセンター花みずき", "url": "https://www.kaigokensaku.mhlw.go.jp/36/index.php?action_kouhyou_detail_004_kani=true&JigyosyoCd=3670104961-00&ServiceCd=150&Type=search", "url2": "http://www.hikari-medical.com" }, "geometry": { "type": "Point", "coordinates": [ 134.533586213817074, 34.07734477891367 ] } },
{ "type": "Feature", "properties": { "内容": "デイサービスセンター　エクセレント鹿鳴館【通所介護】徳島県徳島市南昭和町1丁目35の1徳島エグゼクティブタワー２階", "url": "https://www.kaigokensaku.mhlw.go.jp/36/index.php?action_kouhyou_detail_004_kani=true&JigyosyoCd=3670102411-00&ServiceCd=150&Type=search", "url2": "htpp://www.excare.co.jp" }, "geometry": { "type": "Point", "coordinates": [ 134.555010601852473, 34.057417587267317 ] } },
{ "type": "Feature", "properties": { "内容": "エクセレント雅【通所介護】徳島県徳島市両国本町１丁目１３エクセレント両国ガーデンヒルズ", "url": "https://www.kaigokensaku.mhlw.go.jp/36/index.php?action_kouhyou_detail_004_kani=true&JigyosyoCd=3670103195-00&ServiceCd=150&Type=search", "url2": "http://www.excare.co.jp/" }, "geometry": { "type": "Point", "coordinates": [ 134.55233290000001, 34.070609 ] } },
{ "type": "Feature", "properties": { "内容": "サービス付き高齢者向け住宅　クレア城ノ内【通所介護】北田宮２丁目８−８クレア城ノ内", "url": "https://www.kaigokensaku.mhlw.go.jp/36/index.php?action_kouhyou_detail_004_kani=true&JigyosyoCd=3670102999-00&ServiceCd=150&Type=search", "url2": "http://www.crea-care.com/" }, "geometry": { "type": "Point", "coordinates": [ 134.543991399999982, 34.0904397 ] } },
{ "type": "Feature", "properties": { "内容": "ニチイケアセンターおきのす【通所介護】徳島県徳島市北沖洲3丁目8番7-5号", "url": "https://www.kaigokensaku.mhlw.go.jp/36/index.php?action_kouhyou_detail_004_kani=true&JigyosyoCd=3670103138-00&ServiceCd=150&Type=search", "url2": "http://nichiigakkan.co.jp" }, "geometry": { "type": "Point", "coordinates": [ 138.252924, 36.204824 ] } },
{ "type": "Feature", "properties": { "内容": "Ｔｓｕｄａ－Ｍａｃｈｉ－Ｋｉｔｃｈｅｎ【通所介護】徳島市津田本町2丁目3番地の57Tsuda-Machi-Kitchen", "url": "https://www.kaigokensaku.mhlw.go.jp/36/index.php?action_kouhyou_detail_004_kani=true&JigyosyoCd=3670105034-00&ServiceCd=150&Type=search", "url2": "ｈｔｔｐ：//ｗｗｗ．ａｓａｇａｏ-ｆｕｋｕｓｈｉｋａｉ．ｊｐ" }, "geometry": { "type": "Point", "coordinates": [ 134.578473699999961, 34.0499972 ] } },
{ "type": "Feature", "properties": { "内容": "デイサービスとみだ【通所介護】徳島県徳島市中昭和町３丁目４８番地の1", "url": "https://www.kaigokensaku.mhlw.go.jp/36/index.php?action_kouhyou_detail_004_kani=true&JigyosyoCd=3670101256-00&ServiceCd=150&Type=search", "url2": "http://www.tomida.or.jp/dayservice" }, "geometry": { "type": "Point", "coordinates": [ 134.559387799999968, 34.0611406 ] } },
{ "type": "Feature", "properties": { "内容": "デイセンターザトペック【通所介護】徳島県徳島市応神町古川字北36番地", "url": "https://www.kaigokensaku.mhlw.go.jp/36/index.php?action_kouhyou_detail_004_kani=true&JigyosyoCd=3670100803-00&ServiceCd=150&Type=search", "url2": "https://www.kenshokai.group/" }, "geometry": { "type": "Point", "coordinates": [ 134.5481072, 34.1067546 ] } },
{ "type": "Feature", "properties": { "内容": "健祥会デイサービスセンター徳島【通所介護】徳島県徳島市国府町東高輪字天満３４９番地１", "url": "https://www.kaigokensaku.mhlw.go.jp/36/index.php?action_kouhyou_detail_004_kani=true&JigyosyoCd=3670100563-00&ServiceCd=150&Type=search", "url2": "https://www.kenshokai.group/" }, "geometry": { "type": "Point", "coordinates": [ 134.4824698, 34.0940821 ] } },
{ "type": "Feature", "properties": { "内容": "デイセンター一心太助【通所介護】徳島県徳島市南沖洲四丁目3番1号", "url": "https://www.kaigokensaku.mhlw.go.jp/36/index.php?action_kouhyou_detail_004_kani=true&JigyosyoCd=3670102247-00&ServiceCd=150&Type=search", "url2": "https://www.kenshokai.group/" }, "geometry": { "type": "Point", "coordinates": [ 134.589709969975274, 34.059796959957445 ] } },
{ "type": "Feature", "properties": { "内容": "光風会　デイサービスセンター【通所介護】徳島県徳島市下町本丁５９－１９", "url": "https://www.kaigokensaku.mhlw.go.jp/36/index.php?action_kouhyou_detail_004_kani=true&JigyosyoCd=3670100027-00&ServiceCd=150&Type=search", "url2": "http://www.tk2.nmt.ne.jp" }, "geometry": { "type": "Point", "coordinates": [ 134.486852699999986, 34.0366362 ] } },
{ "type": "Feature", "properties": { "内容": "光の園デイサービスセンター【通所介護】徳島県徳島市渋野町西池27-1", "url": "https://www.kaigokensaku.mhlw.go.jp/36/index.php?action_kouhyou_detail_004_kani=true&JigyosyoCd=3670101553-00&ServiceCd=150&Type=search", "url2": "http://seiyohkai.jp" }, "geometry": { "type": "Point", "coordinates": [ 134.536320895631434, 34.003714810750083 ] } },
{ "type": "Feature", "properties": { "内容": "白寿会デイサービスセンター【通所介護】徳島県徳島市住吉四丁目12番10号", "url": "https://www.kaigokensaku.mhlw.go.jp/36/index.php?action_kouhyou_detail_004_kani=true&JigyosyoCd=3670100175-00&ServiceCd=150&Type=search", "url2": "http://hakuju-kai.or.jp/" }, "geometry": { "type": "Point", "coordinates": [ 134.569017199999962, 34.0827271 ] } },
{ "type": "Feature", "properties": { "内容": "社会福祉法人飛鳥デイサービスセンター【通所介護】徳島県徳島市北佐古一番町1-8社会福祉法人飛鳥デイサービスセンター", "url": "https://www.kaigokensaku.mhlw.go.jp/36/index.php?action_kouhyou_detail_004_kani=true&JigyosyoCd=3670105976-00&ServiceCd=150&Type=search", "url2": "http://asuka.khg.or.jp" }, "geometry": { "type": "Point", "coordinates": [ 134.541475100000014, 34.0796685 ] } },
{ "type": "Feature", "properties": { "内容": "ひいらぎデイサービス【通所介護】徳島県徳島市西須賀町東開３８番地", "url": "https://www.kaigokensaku.mhlw.go.jp/36/index.php?action_kouhyou_detail_004_kani=true&JigyosyoCd=3670106230-00&ServiceCd=150&Type=search", "url2": "https://www.aomihoumon.net" }, "geometry": { "type": "Point", "coordinates": [ 134.5467157, 34.032596601578589 ] } },
{ "type": "Feature", "properties": { "内容": "デイサービスグランリバー【通所介護】徳島県徳島市方上町中須賀31番地1", "url": "https://www.kaigokensaku.mhlw.go.jp/36/index.php?action_kouhyou_detail_004_kani=true&JigyosyoCd=3670102585-00&ServiceCd=150&Type=search", "url2": "http://grandforest.co.jp" }, "geometry": { "type": "Point", "coordinates": [ 134.5391759, 34.0271274 ] } },
{ "type": "Feature", "properties": { "内容": "デイサービス阿波っ子【通所介護】徳島県徳島市国府町和田字居内１０７番地", "url": "https://www.kaigokensaku.mhlw.go.jp/36/index.php?action_kouhyou_detail_004_kani=true&JigyosyoCd=3670103344-00&ServiceCd=150&Type=search", "url2": "tamaki-aozora.ne.jp" }, "geometry": { "type": "Point", "coordinates": [ 134.491077098811274, 34.074893841168063 ] } },
{ "type": "Feature", "properties": { "内容": "徳島RH支援センター【通所介護】徳島県徳島市応神町中原字中原83番地5", "url": "https://www.kaigokensaku.mhlw.go.jp/36/index.php?action_kouhyou_detail_004_kani=true&JigyosyoCd=3670106313-00&ServiceCd=150&Type=search", "url2": "http://tokukitanpo.web.fc2.com/" }, "geometry": { "type": "Point", "coordinates": [ 134.5366554, 34.1066382 ] } },
{ "type": "Feature", "properties": { "内容": "クレア城南デイサービス【通所介護】徳島県徳島市八万町上福万170番30", "url": "https://www.kaigokensaku.mhlw.go.jp/36/index.php?action_kouhyou_detail_004_kani=true&JigyosyoCd=3670103203-00&ServiceCd=150&Type=search", "url2": "www.crea-care.com" }, "geometry": { "type": "Point", "coordinates": [ 134.5282879, 34.0541102 ] } },
{ "type": "Feature", "properties": { "内容": "デイサービス　遊【通所介護】徳島市佐古六番町9番3号サービス付き高齢者向け住宅　遊", "url": "https://www.kaigokensaku.mhlw.go.jp/36/index.php?action_kouhyou_detail_004_kani=true&JigyosyoCd=3670103880-00&ServiceCd=150&Type=search", "url2": "http://yoshinari-kai.jp" }, "geometry": { "type": "Point", "coordinates": [ 134.529493099999968, 34.079349 ] } },
{ "type": "Feature", "properties": { "内容": "末広ﾃﾞｲｻｰﾋﾞｽ【通所介護】徳島県徳島市南末広町1-12", "url": "https://www.kaigokensaku.mhlw.go.jp/36/index.php?action_kouhyou_detail_004_kani=true&JigyosyoCd=3670104029-00&ServiceCd=150&Type=search", "url2": "https://ichie-kizuna.or.jp/" }, "geometry": { "type": "Point", "coordinates": [ 134.571153399999957, 34.0639321 ] } },
{ "type": "Feature", "properties": { "内容": "デイサービスセンター国府【通所介護】徳島県徳島市国府町早淵734番地国府複合在宅支援施設　仁誠館", "url": "https://www.kaigokensaku.mhlw.go.jp/36/index.php?action_kouhyou_detail_004_kani=true&JigyosyoCd=3670103906-00&ServiceCd=150&Type=search", "url2": null }, "geometry": { "type": "Point", "coordinates": [ 134.483127299999978, 34.05927710000001 ] } },
{ "type": "Feature", "properties": { "内容": "TAOKAデイフィットネスセンター川内【通所介護】徳島県徳島市川内町榎瀬744-1", "url": "https://www.kaigokensaku.mhlw.go.jp/36/index.php?action_kouhyou_detail_004_kani=true&JigyosyoCd=3670103765-00&ServiceCd=150&Type=search", "url2": "https://taoka-zaitaku.jp/facility/kitajima-ds/" }, "geometry": { "type": "Point", "coordinates": [ 134.551795800000036, 34.1058492 ] } },
{ "type": "Feature", "properties": { "内容": "デイサービスセンターそよかぜ【通所介護】徳島県鳴門市瀬戸町明神字上本城77番地2", "url": "https://www.kaigokensaku.mhlw.go.jp/36/index.php?action_kouhyou_detail_004_kani=true&JigyosyoCd=3670200827-00&ServiceCd=150&Type=search", "url2": null }, "geometry": { "type": "Point", "coordinates": [ 134.5828196, 34.2107961 ] } },
{ "type": "Feature", "properties": { "内容": "ＣｏＣｏデイサービス【通所介護】徳島県鳴門市大津町矢倉字裏15番地9", "url": "https://www.kaigokensaku.mhlw.go.jp/36/index.php?action_kouhyou_detail_004_kani=true&JigyosyoCd=3690200088-00&ServiceCd=150&Type=search", "url2": null }, "geometry": { "type": "Point", "coordinates": [ 134.5927599, 34.1583862 ] } },
{ "type": "Feature", "properties": { "内容": "むやデイサービスセンター【通所介護】徳島県鳴門市撫養町南浜字蛭子前東105", "url": "https://www.kaigokensaku.mhlw.go.jp/36/index.php?action_kouhyou_detail_004_kani=true&JigyosyoCd=3670200066-00&ServiceCd=150&Type=search", "url2": "https://midorikai-naruto.jp/" }, "geometry": { "type": "Point", "coordinates": [ 134.60473920000004, 34.1748925 ] } },
{ "type": "Feature", "properties": { "内容": "リハビリステーション　ネトレン撫養【通所介護】徳島県鳴門市撫養町黒崎字松島440", "url": "https://www.kaigokensaku.mhlw.go.jp/36/index.php?action_kouhyou_detail_004_kani=true&JigyosyoCd=3670200694-00&ServiceCd=150&Type=search", "url2": "http://www.netoren.co.jp" }, "geometry": { "type": "Point", "coordinates": [ 134.597679359685372, 34.191475999022593 ] } },
{ "type": "Feature", "properties": { "内容": "デイサービスセンターたなごころ【通所介護】徳島県鳴門市撫養町字斎田西発４７－１０", "url": "https://www.kaigokensaku.mhlw.go.jp/36/index.php?action_kouhyou_detail_004_kani=true&JigyosyoCd=3670200868-00&ServiceCd=150&Type=search", "url2": "https://npoyamayaku.main.jp/" }, "geometry": { "type": "Point", "coordinates": [ 134.603353299999981, 34.1695515 ] } },
{ "type": "Feature", "properties": { "内容": "デイサービス阿波裕【通所介護】徳島県鳴門市撫養町大桑島字北ノ浜６６－１", "url": "https://www.kaigokensaku.mhlw.go.jp/36/index.php?action_kouhyou_detail_004_kani=true&JigyosyoCd=3670201171-00&ServiceCd=150&Type=search", "url2": "https://awayu-minava.com/" }, "geometry": { "type": "Point", "coordinates": [ 134.602362199999988, 34.1903196 ] } },
{ "type": "Feature", "properties": { "内容": "デイサービスセンターおおつ【通所介護】徳島県鳴門市大津町大代字戎野472番地", "url": "https://www.kaigokensaku.mhlw.go.jp/36/index.php?action_kouhyou_detail_004_kani=true&JigyosyoCd=3670200462-00&ServiceCd=150&Type=search", "url2": "http://www.ryokujyukai.com" }, "geometry": { "type": "Point", "coordinates": [ 134.573879, 34.159638 ] } },
{ "type": "Feature", "properties": { "内容": "デイサービス　なるとも【通所介護】徳島県鳴門市撫養町黒崎字松島２００番地", "url": "https://www.kaigokensaku.mhlw.go.jp/36/index.php?action_kouhyou_detail_004_kani=true&JigyosyoCd=3670200975-00&ServiceCd=150&Type=search", "url2": "http://nagi.kanematsu-hp.com/" }, "geometry": { "type": "Point", "coordinates": [ 138.252924, 36.204824 ] } },
{ "type": "Feature", "properties": { "内容": "貴洋会通所介護事業所【通所介護】徳島県鳴門市撫養町立岩字五枚146", "url": "https://www.kaigokensaku.mhlw.go.jp/36/index.php?action_kouhyou_detail_004_kani=true&JigyosyoCd=3670200058-00&ServiceCd=150&Type=search", "url2": null }, "geometry": { "type": "Point", "coordinates": [ 134.6207425, 34.1665106 ] } },
{ "type": "Feature", "properties": { "内容": "平成デイサービスセンター鳴門【通所介護】徳島県鳴門市撫養町木津字防崎445-1", "url": "https://www.kaigokensaku.mhlw.go.jp/36/index.php?action_kouhyou_detail_004_kani=true&JigyosyoCd=3670200421-00&ServiceCd=150&Type=search", "url2": "https://naruto.grouph.jp" }, "geometry": { "type": "Point", "coordinates": [ 134.578246517860407, 34.16865006165164 ] } },
{ "type": "Feature", "properties": { "内容": "デイサービスセンターおおあさ【通所介護】徳島県鳴門市大麻町桧字東山田５７－１０", "url": "https://www.kaigokensaku.mhlw.go.jp/36/index.php?action_kouhyou_detail_004_kani=true&JigyosyoCd=3670200033-00&ServiceCd=150&Type=search", "url2": "http://ryokujyukai.com" }, "geometry": { "type": "Point", "coordinates": [ 134.500236299999983, 34.1662284 ] } },
{ "type": "Feature", "properties": { "内容": "デイサービスセンターほほえみ【通所介護】徳島県鳴門市撫養町立岩字五枚220-1", "url": "https://www.kaigokensaku.mhlw.go.jp/36/index.php?action_kouhyou_detail_004_kani=true&JigyosyoCd=3670200561-00&ServiceCd=150&Type=search", "url2": null }, "geometry": { "type": "Point", "coordinates": [ 134.62044549999996, 34.1640219 ] } },
{ "type": "Feature", "properties": { "内容": "有限会社　徳島ケアシステム　デイサービスセンターさくら【通所介護】徳島県小松島市中田町字新開４８番地", "url": "https://www.kaigokensaku.mhlw.go.jp/36/index.php?action_kouhyou_detail_004_kani=true&JigyosyoCd=3670300205-00&ServiceCd=150&Type=search", "url2": null }, "geometry": { "type": "Point", "coordinates": [ 138.252924, 36.204824 ] } },
{ "type": "Feature", "properties": { "内容": "デイサービスセンター恵小松島【通所介護】徳島県小松島市中田町字浜田58-2", "url": "https://www.kaigokensaku.mhlw.go.jp/36/index.php?action_kouhyou_detail_004_kani=true&JigyosyoCd=3670300502-00&ServiceCd=150&Type=search", "url2": "http://itsumosmile.jp/" }, "geometry": { "type": "Point", "coordinates": [ 134.583804900000018, 34.0159601 ] } },
{ "type": "Feature", "properties": { "内容": "デイサービスセンター恵南小松島【通所介護】徳島県小松島市大林町森ノ本4番3", "url": "https://www.kaigokensaku.mhlw.go.jp/36/index.php?action_kouhyou_detail_004_kani=true&JigyosyoCd=3670300510-00&ServiceCd=150&Type=search", "url2": "http://itsumosmile.jp/" }, "geometry": { "type": "Point", "coordinates": [ 134.611947900000018, 33.977197 ] } },
{ "type": "Feature", "properties": { "内容": "指定通所介護事業所千歳苑デイサービスセンター【通所介護】徳島県小松島市小松島町字元根井54番地1", "url": "https://www.kaigokensaku.mhlw.go.jp/36/index.php?action_kouhyou_detail_004_kani=true&JigyosyoCd=3670300056-00&ServiceCd=150&Type=search", "url2": "https://aishinkai-t.com/titoseen/" }, "geometry": { "type": "Point", "coordinates": [ 134.591159599999969, 34.0153574 ] } },
{ "type": "Feature", "properties": { "内容": "デイサービスセンターさくら【通所介護】徳島県小松島市中田町字新開48番地", "url": "https://www.kaigokensaku.mhlw.go.jp/36/index.php?action_kouhyou_detail_004_kani=true&JigyosyoCd=3670300593-00&ServiceCd=150&Type=search", "url2": null }, "geometry": { "type": "Point", "coordinates": [ 134.5835357, 34.013255 ] } },
{ "type": "Feature", "properties": { "内容": "心和会デイサービスセンター悠和【通所介護】徳島県阿南市新野町信里65ケアハウス悠和館", "url": "https://www.kaigokensaku.mhlw.go.jp/36/index.php?action_kouhyou_detail_004_kani=true&JigyosyoCd=3670400054-00&ServiceCd=150&Type=search", "url2": null }, "geometry": { "type": "Point", "coordinates": [ 134.599444837434334, 33.846574266331295 ] } },
{ "type": "Feature", "properties": { "内容": "デイセンター緑風会尊氏【通所介護】徳島県阿南市下大野町五反畑126番地1", "url": "https://www.kaigokensaku.mhlw.go.jp/36/index.php?action_kouhyou_detail_004_kani=true&JigyosyoCd=3670400617-00&ServiceCd=150&Type=search", "url2": "http://www.kensyokai.or.jp" }, "geometry": { "type": "Point", "coordinates": [ 134.606293199999982, 33.9329661 ] } },
{ "type": "Feature", "properties": { "内容": "デイサービスセンター元気【通所介護】那賀川町芳崎366-1", "url": "https://www.kaigokensaku.mhlw.go.jp/36/index.php?action_kouhyou_detail_004_kani=true&JigyosyoCd=3671300584-00&ServiceCd=150&Type=search", "url2": null }, "geometry": { "type": "Point", "coordinates": [ 134.6642283, 33.9583065 ] } },
{ "type": "Feature", "properties": { "内容": "ﾃﾞｲｻｰﾋﾞｽｾﾝﾀｰ･ｵﾚﾝｼﾞｴｸｽﾌﾟﾚｽ【通所介護】羽ノ浦町古庄大坪42-7", "url": "https://www.kaigokensaku.mhlw.go.jp/36/index.php?action_kouhyou_detail_004_kani=true&JigyosyoCd=3670400997-00&ServiceCd=150&Type=search", "url2": null }, "geometry": { "type": "Point", "coordinates": [ 134.628989499999989, 33.9431243 ] } },
{ "type": "Feature", "properties": { "内容": "あすみデイサービスセンター【通所介護】徳島県阿南市西路見町堤外６５番地１ショッピングプラザアピカ", "url": "https://www.kaigokensaku.mhlw.go.jp/36/index.php?action_kouhyou_detail_004_kani=true&JigyosyoCd=3670400831-00&ServiceCd=150&Type=search", "url2": "http://www.asumikaigo.com/" }, "geometry": { "type": "Point", "coordinates": [ 134.6731806, 33.9280758 ] } },
{ "type": "Feature", "properties": { "内容": "デイサービスセンター・オレンジエクスプレス【通所介護】羽ノ浦町古庄大坪原42-7", "url": "https://www.kaigokensaku.mhlw.go.jp/36/index.php?action_kouhyou_detail_004_kani=true&JigyosyoCd=3670401029-00&ServiceCd=150&Type=search", "url2": null }, "geometry": { "type": "Point", "coordinates": [ 134.6230587, 33.9451194 ] } },
{ "type": "Feature", "properties": { "内容": "阿南福祉会デイサービスセンター【通所介護】徳島県阿南市宝田町今市金剛寺３８番地１", "url": "https://www.kaigokensaku.mhlw.go.jp/36/index.php?action_kouhyou_detail_004_kani=true&JigyosyoCd=3670400047-00&ServiceCd=150&Type=search", "url2": "http://anan-hukushikai.com/" }, "geometry": { "type": "Point", "coordinates": [ 134.6473502, 33.9251475 ] } },
{ "type": "Feature", "properties": { "内容": "デイサービスキムラ【通所介護】徳島県阿南市津乃峰町長浜197-1", "url": "https://www.kaigokensaku.mhlw.go.jp/36/index.php?action_kouhyou_detail_004_kani=true&JigyosyoCd=3670400542-00&ServiceCd=150&Type=search", "url2": "https://www.lifesupportkimura.net" }, "geometry": { "type": "Point", "coordinates": [ 134.656608, 33.8938101 ] } },
{ "type": "Feature", "properties": { "内容": "宝田デイサービス【通所介護】徳島県阿南市宝田町郡43-16", "url": "https://www.kaigokensaku.mhlw.go.jp/36/index.php?action_kouhyou_detail_004_kani=true&JigyosyoCd=3670400351-00&ServiceCd=150&Type=search", "url2": null }, "geometry": { "type": "Point", "coordinates": [ 134.645800259880019, 33.921802209605097 ] } },
{ "type": "Feature", "properties": { "内容": "デイサービスセンターなごみⅡ【通所介護】徳島県阿南市羽ノ浦町岩脇神代地100番地の1", "url": "https://www.kaigokensaku.mhlw.go.jp/36/index.php?action_kouhyou_detail_004_kani=true&JigyosyoCd=3670400914-00&ServiceCd=150&Type=search", "url2": "http//fujino.ezdns.jp" }, "geometry": { "type": "Point", "coordinates": [ 134.6187065, 33.9497829 ] } },
{ "type": "Feature", "properties": { "内容": "デイサービスセンターなごみ【通所介護】徳島県阿南市羽ノ浦町中庄なかれ5番地2", "url": "https://www.kaigokensaku.mhlw.go.jp/36/index.php?action_kouhyou_detail_004_kani=true&JigyosyoCd=3670400609-00&ServiceCd=150&Type=search", "url2": "http//fujino.ezdns.jp" }, "geometry": { "type": "Point", "coordinates": [ 134.628151800000069, 33.9554325 ] } },
{ "type": "Feature", "properties": { "内容": "青彩会デイサビスセンター【通所介護】徳島県阿南市長生町西方５９番地", "url": "https://www.kaigokensaku.mhlw.go.jp/36/index.php?action_kouhyou_detail_004_kani=true&JigyosyoCd=3670400062-00&ServiceCd=150&Type=search", "url2": "http://seisaikai.jp/" }, "geometry": { "type": "Point", "coordinates": [ 134.6236106, 33.9247647 ] } },
{ "type": "Feature", "properties": { "内容": "デイサービスセンター恵阿南【通所介護】徳島県阿南市宝田町井関147-6", "url": "https://www.kaigokensaku.mhlw.go.jp/36/index.php?action_kouhyou_detail_004_kani=true&JigyosyoCd=3670400823-00&ServiceCd=150&Type=search", "url2": "http://itsumosmile.jp/" }, "geometry": { "type": "Point", "coordinates": [ 134.643200960327164, 33.912326159259244 ] } },
{ "type": "Feature", "properties": { "内容": "デイサービスセンター希【通所介護】徳島県阿南市宝田町荒井20番地", "url": "https://www.kaigokensaku.mhlw.go.jp/36/index.php?action_kouhyou_detail_004_kani=true&JigyosyoCd=3670400799-00&ServiceCd=150&Type=search", "url2": "http://itsumosmile.jp/" }, "geometry": { "type": "Point", "coordinates": [ 134.643812831237938, 33.924350746547965 ] } },
{ "type": "Feature", "properties": { "内容": "リハビリｃａｒｅらいず【通所介護】徳島県阿南市富岡町玉塚67番地1", "url": "https://www.kaigokensaku.mhlw.go.jp/36/index.php?action_kouhyou_detail_004_kani=true&JigyosyoCd=3670400930-00&ServiceCd=150&Type=search", "url2": "https://www.yuai-anan.com" }, "geometry": { "type": "Point", "coordinates": [ 134.6564515, 33.9182387 ] } },
{ "type": "Feature", "properties": { "内容": "青彩会デイサービスセンター梅の里【通所介護】徳島県阿南市長生町岩ノ下１７番地２", "url": "https://www.kaigokensaku.mhlw.go.jp/36/index.php?action_kouhyou_detail_004_kani=true&JigyosyoCd=3670400344-00&ServiceCd=150&Type=search", "url2": "http://seisaikai.jp/" }, "geometry": { "type": "Point", "coordinates": [ 134.613617400000066, 33.8950405 ] } },
{ "type": "Feature", "properties": { "内容": "阿南市社協デイサービスセンター栖竜荘【通所介護】阿南市那賀川町苅屋357番地1", "url": "https://www.kaigokensaku.mhlw.go.jp/36/index.php?action_kouhyou_detail_004_kani=true&JigyosyoCd=3670400385-00&ServiceCd=150&Type=search", "url2": null }, "geometry": { "type": "Point", "coordinates": [ 134.663370399999963, 33.9493549 ] } },
{ "type": "Feature", "properties": { "内容": "通所介護事業所　ロイヤルフラワーガーデン【通所介護】徳島県阿南市中林町蟹田１番地２", "url": "https://www.kaigokensaku.mhlw.go.jp/36/index.php?action_kouhyou_detail_004_kani=true&JigyosyoCd=3670400625-00&ServiceCd=150&Type=search", "url2": null }, "geometry": { "type": "Point", "coordinates": [ 134.683024700000033, 33.9057336 ] } },
{ "type": "Feature", "properties": { "内容": "デイセンターカルメン【通所介護】徳島県阿南市羽ノ浦町中庄大知渕８番地１", "url": "https://www.kaigokensaku.mhlw.go.jp/36/index.php?action_kouhyou_detail_004_kani=true&JigyosyoCd=3671300238-00&ServiceCd=150&Type=search", "url2": "http://www.kenshokai.group" }, "geometry": { "type": "Point", "coordinates": [ 134.63617320000003, 33.9544408 ] } },
{ "type": "Feature", "properties": { "内容": "平成デイサービスセンター羽ノ浦【通所介護】徳島県阿南市羽ノ浦町岩脇上平69介護老人福祉施設ヴィラ羽ノ浦", "url": "https://www.kaigokensaku.mhlw.go.jp/36/index.php?action_kouhyou_detail_004_kani=true&JigyosyoCd=3671300345-00&ServiceCd=150&Type=search", "url2": "http://hanoura.tokuyou.jp/" }, "geometry": { "type": "Point", "coordinates": [ 134.6132341, 33.9453424 ] } },
{ "type": "Feature", "properties": { "内容": "あるくアンサンブル【通所介護】徳島県吉野川市山川町堤外5番地17", "url": "https://www.kaigokensaku.mhlw.go.jp/36/index.php?action_kouhyou_detail_004_kani=true&JigyosyoCd=3671700866-00&ServiceCd=150&Type=search", "url2": null }, "geometry": { "type": "Point", "coordinates": [ 134.2521399, 34.0610962 ] } },
{ "type": "Feature", "properties": { "内容": "宅老所　生き活き家【通所介護】徳島県吉野川市鴨島町山路1651-1", "url": "https://www.kaigokensaku.mhlw.go.jp/36/index.php?action_kouhyou_detail_004_kani=true&JigyosyoCd=3671700833-00&ServiceCd=150&Type=search", "url2": "ikiikiya111.jp" }, "geometry": { "type": "Point", "coordinates": [ 134.3780295, 34.0541083 ] } },
{ "type": "Feature", "properties": { "内容": "デイサービスセンターせせらぎ【通所介護】徳島県吉野川市鴨島町上下島440-3", "url": "https://www.kaigokensaku.mhlw.go.jp/36/index.php?action_kouhyou_detail_004_kani=true&JigyosyoCd=3671700528-00&ServiceCd=150&Type=search", "url2": "http://www.mima-gr.jp/mima/" }, "geometry": { "type": "Point", "coordinates": [ 134.349840496753671, 34.071607070175411 ] } },
{ "type": "Feature", "properties": { "内容": "リハビリ特化型デイサービスあわふじ【通所介護】徳島県吉野川市川島町学字辻56-1", "url": "https://www.kaigokensaku.mhlw.go.jp/36/index.php?action_kouhyou_detail_004_kani=true&JigyosyoCd=3671700817-00&ServiceCd=150&Type=search", "url2": null }, "geometry": { "type": "Point", "coordinates": [ 134.2833334, 34.0563129 ] } },
{ "type": "Feature", "properties": { "内容": "デイサービスセンター　enjoy【通所介護】徳島県吉野川市鴨島町牛島2116-1", "url": "https://www.kaigokensaku.mhlw.go.jp/36/index.php?action_kouhyou_detail_004_kani=true&JigyosyoCd=3671700569-00&ServiceCd=150&Type=search", "url2": "http://enjoy-day.co.jp" }, "geometry": { "type": "Point", "coordinates": [ 134.394625799999972, 34.084286 ] } },
{ "type": "Feature", "properties": { "内容": "デイサービス忌部あわふじ【通所介護】山川町岩戸10番地", "url": "https://www.kaigokensaku.mhlw.go.jp/36/index.php?action_kouhyou_detail_004_kani=true&JigyosyoCd=3671700940-00&ServiceCd=150&Type=search", "url2": null }, "geometry": { "type": "Point", "coordinates": [ 134.26835222874945, 34.057634262892385 ] } },
{ "type": "Feature", "properties": { "内容": "デイサービスセンター和紙のさと【通所介護】徳島県吉野川市山川町川田８９８－１", "url": "https://www.kaigokensaku.mhlw.go.jp/36/index.php?action_kouhyou_detail_004_kani=true&JigyosyoCd=3671700171-00&ServiceCd=150&Type=search", "url2": "http://www.hakuyuyu.com" }, "geometry": { "type": "Point", "coordinates": [ 134.21667560000003, 34.0583059 ] } },
{ "type": "Feature", "properties": { "内容": "デイセンターアルル【通所介護】徳島県吉野川市鴨島町内原46番地3健祥会プロバンス", "url": "https://www.kaigokensaku.mhlw.go.jp/36/index.php?action_kouhyou_detail_004_kani=true&JigyosyoCd=3671700098-00&ServiceCd=150&Type=search", "url2": "http://www.kenshokai.group/" }, "geometry": { "type": "Point", "coordinates": [ 134.373210699999959, 34.0687962 ] } },
{ "type": "Feature", "properties": { "内容": "菊美荘デイサービスセンター【通所介護】徳島県吉野川市鴨島町上下島字大北443番地2", "url": "https://www.kaigokensaku.mhlw.go.jp/36/index.php?action_kouhyou_detail_004_kani=true&JigyosyoCd=3671700023-00&ServiceCd=150&Type=search", "url2": "http://www.mima-gr.jp/kikumi/index.html" }, "geometry": { "type": "Point", "coordinates": [ 134.34966276823593, 34.071883726217735 ] } },
{ "type": "Feature", "properties": { "内容": "真二号館【通所介護】徳島県吉野川市鴨島町飯尾1614番地20", "url": "https://www.kaigokensaku.mhlw.go.jp/36/index.php?action_kouhyou_detail_004_kani=true&JigyosyoCd=3671700957-00&ServiceCd=150&Type=search", "url2": "https://care-net.biz/36/makoto/" }, "geometry": { "type": "Point", "coordinates": [ 134.352161700000011, 34.0532593 ] } },
{ "type": "Feature", "properties": { "内容": "真一号館【通所介護】鴨島町敷地514番地1", "url": "https://www.kaigokensaku.mhlw.go.jp/36/index.php?action_kouhyou_detail_004_kani=true&JigyosyoCd=3671700965-00&ServiceCd=150&Type=search", "url2": "https:care-net.biz" }, "geometry": { "type": "Point", "coordinates": [ 134.3485786, 34.0554797 ] } },
{ "type": "Feature", "properties": { "内容": "デイサービスセンターシンシア【通所介護】徳島県阿波市吉野町西条字西大竹66-1", "url": "https://www.kaigokensaku.mhlw.go.jp/36/index.php?action_kouhyou_detail_004_kani=true&JigyosyoCd=3671600470-00&ServiceCd=150&Type=search", "url2": null }, "geometry": { "type": "Point", "coordinates": [ 134.380018599999971, 34.1060168 ] } },
{ "type": "Feature", "properties": { "内容": "デイサービスセンターみらい【通所介護】徳島県阿波市吉野町西条字床石53-2", "url": "https://www.kaigokensaku.mhlw.go.jp/36/index.php?action_kouhyou_detail_004_kani=true&JigyosyoCd=3671600595-00&ServiceCd=150&Type=search", "url2": "https://mirai-awa.net" }, "geometry": { "type": "Point", "coordinates": [ 134.371485400000012, 34.1046193 ] } },
{ "type": "Feature", "properties": { "内容": "デイサービスセンターシンシア【通所介護】徳島県阿波市吉野町西条字西大竹66-1サービス付き高齢者向け住宅シンシア", "url": "https://www.kaigokensaku.mhlw.go.jp/36/index.php?action_kouhyou_detail_004_kani=true&JigyosyoCd=3671600652-00&ServiceCd=150&Type=search", "url2": null }, "geometry": { "type": "Point", "coordinates": [ 134.380019, 34.106017 ] } },
{ "type": "Feature", "properties": { "内容": "双葉デイサービスセンター【通所介護】徳島県阿波市市場町市場字岸の下206番地3", "url": "https://www.kaigokensaku.mhlw.go.jp/36/index.php?action_kouhyou_detail_004_kani=true&JigyosyoCd=3671600082-00&ServiceCd=150&Type=search", "url2": "http://www.futaba-group28.com" }, "geometry": { "type": "Point", "coordinates": [ 134.275683399999906, 34.0859183 ] } },
{ "type": "Feature", "properties": { "内容": "秀実コーポレーション【通所介護】徳島県阿波市阿波町平川原49", "url": "https://www.kaigokensaku.mhlw.go.jp/36/index.php?action_kouhyou_detail_004_kani=true&JigyosyoCd=3671600397-00&ServiceCd=150&Type=search", "url2": "http://futaba-group28.com/" }, "geometry": { "type": "Point", "coordinates": [ 134.275055699999939, 34.0855211 ] } },
{ "type": "Feature", "properties": { "内容": "デイサービスセンター阿波伊月【通所介護】徳島県阿波市阿波町大原107-1", "url": "https://www.kaigokensaku.mhlw.go.jp/36/index.php?action_kouhyou_detail_004_kani=true&JigyosyoCd=3671600546-00&ServiceCd=150&Type=search", "url2": null }, "geometry": { "type": "Point", "coordinates": [ 134.247122499999932, 34.0794891 ] } },
{ "type": "Feature", "properties": { "内容": "デイサービスセンター楽樹【通所介護】徳島県阿波市吉野町柿原字西二條216番地3", "url": "https://www.kaigokensaku.mhlw.go.jp/36/index.php?action_kouhyou_detail_004_kani=true&JigyosyoCd=3671600454-00&ServiceCd=150&Type=search", "url2": "https:/shinohara-syoji.com/" }, "geometry": { "type": "Point", "coordinates": [ 134.344635, 34.0949791 ] } },
{ "type": "Feature", "properties": { "内容": "あわデイサービスセンター【通所介護】阿波市阿波町久原36-2", "url": "https://www.kaigokensaku.mhlw.go.jp/36/index.php?action_kouhyou_detail_004_kani=true&JigyosyoCd=3671600249-00&ServiceCd=150&Type=search", "url2": "http://www.awashishakyo.com" }, "geometry": { "type": "Point", "coordinates": [ 134.2386563, 34.0799373 ] } },
{ "type": "Feature", "properties": { "内容": "デイサービスセンター御所【通所介護】徳島県阿波市土成町吉田字梨木原1番地5", "url": "https://www.kaigokensaku.mhlw.go.jp/36/index.php?action_kouhyou_detail_004_kani=true&JigyosyoCd=3671500407-00&ServiceCd=150&Type=search", "url2": "http://www.hakuju-kai.or.jp" }, "geometry": { "type": "Point", "coordinates": [ 134.353453599999966, 34.124534 ] } },
{ "type": "Feature", "properties": { "内容": "デイセンターお龍【通所介護】徳島県阿波市阿波町勝命北８番地", "url": "https://www.kaigokensaku.mhlw.go.jp/36/index.php?action_kouhyou_detail_004_kani=true&JigyosyoCd=3671600405-00&ServiceCd=150&Type=search", "url2": "https://www.kenshokai.group/" }, "geometry": { "type": "Point", "coordinates": [ 134.263365, 34.0856096 ] } },
{ "type": "Feature", "properties": { "内容": "蓬莱会デイサービスセンター【通所介護】徳島県阿波市阿波町北整理１番地１", "url": "https://www.kaigokensaku.mhlw.go.jp/36/index.php?action_kouhyou_detail_004_kani=true&JigyosyoCd=3671600017-00&ServiceCd=150&Type=search", "url2": "https://horaikai.or.jp/" }, "geometry": { "type": "Point", "coordinates": [ 134.194393799999943, 34.0756619 ] } },
{ "type": "Feature", "properties": { "内容": "デイセンター一休さん【通所介護】徳島県阿波市土成町郡１３１番地１", "url": "https://www.kaigokensaku.mhlw.go.jp/36/index.php?action_kouhyou_detail_004_kani=true&JigyosyoCd=3671600322-00&ServiceCd=150&Type=search", "url2": "http://www.kenshokai.group" }, "geometry": { "type": "Point", "coordinates": [ 134.32999384173354, 34.099117005249553 ] } },
{ "type": "Feature", "properties": { "内容": "美馬市脇町デイサービスセンター「おちあい荘」【通所介護】徳島県美馬市脇町字西赤谷２２３２-１２", "url": "https://www.kaigokensaku.mhlw.go.jp/36/index.php?action_kouhyou_detail_004_kani=true&JigyosyoCd=3670500077-00&ServiceCd=150&Type=search", "url2": "http://syakyo.ict-tokushima.jp/mima/" }, "geometry": { "type": "Point", "coordinates": [ 134.1724481, 34.1097412 ] } },
{ "type": "Feature", "properties": { "内容": "デイサービスセンター絆【通所介護】徳島県美馬市脇町字小星１１９６番地１９", "url": "https://www.kaigokensaku.mhlw.go.jp/36/index.php?action_kouhyou_detail_004_kani=true&JigyosyoCd=3671800476-00&ServiceCd=150&Type=search", "url2": null }, "geometry": { "type": "Point", "coordinates": [ 134.091485023278778, 34.06356034042166 ] } },
{ "type": "Feature", "properties": { "内容": "デイサービスセンターつるぎの郷【通所介護】徳島県美馬市美馬町鍵掛４８－１", "url": "https://www.kaigokensaku.mhlw.go.jp/36/index.php?action_kouhyou_detail_004_kani=true&JigyosyoCd=3670500515-00&ServiceCd=150&Type=search", "url2": null }, "geometry": { "type": "Point", "coordinates": [ 134.054032, 34.0546114 ] } },
{ "type": "Feature", "properties": { "内容": "でいさーびすわかみや【通所介護】徳島県美馬市脇町大字猪尻若宮南79-1", "url": "https://www.kaigokensaku.mhlw.go.jp/36/index.php?action_kouhyou_detail_004_kani=true&JigyosyoCd=3670500549-00&ServiceCd=150&Type=search", "url2": null }, "geometry": { "type": "Point", "coordinates": [ 134.15838, 34.0665355 ] } },
{ "type": "Feature", "properties": { "内容": "デイサービスセンターこはる脇町【通所介護】徳島県美馬市脇町大字脇町字大堀７７７－１", "url": "https://www.kaigokensaku.mhlw.go.jp/36/index.php?action_kouhyou_detail_004_kani=true&JigyosyoCd=3670500184-00&ServiceCd=150&Type=search", "url2": null }, "geometry": { "type": "Point", "coordinates": [ 134.140589495971795, 34.068707352430209 ] } },
{ "type": "Feature", "properties": { "内容": "美馬市穴吹デイサービスセンター「ライフケアたがた」【通所介護】徳島県美馬市穴吹町口山字田方110-2美馬市穴吹デイサービスセンター「ライフケアたがた」", "url": "https://www.kaigokensaku.mhlw.go.jp/36/index.php?action_kouhyou_detail_004_kani=true&JigyosyoCd=3670500044-00&ServiceCd=150&Type=search", "url2": "http://shakyo.jct-tokushima.jp/mima/" }, "geometry": { "type": "Point", "coordinates": [ 134.1507378, 34.0052175 ] } },
{ "type": "Feature", "properties": { "内容": "美馬市美馬デイサービスセンター「池月苑」【通所介護】徳島県美馬市美馬町字谷尻62番地", "url": "https://www.kaigokensaku.mhlw.go.jp/36/index.php?action_kouhyou_detail_004_kani=true&JigyosyoCd=3670500028-00&ServiceCd=150&Type=search", "url2": "http://syakyo.ict-tokushima.jp/mima/" }, "geometry": { "type": "Point", "coordinates": [ 134.0348841, 34.0518359 ] } },
{ "type": "Feature", "properties": { "内容": "デイサービスココロ【通所介護】美馬市脇町野村４６３８－１", "url": "https://www.kaigokensaku.mhlw.go.jp/36/index.php?action_kouhyou_detail_004_kani=true&JigyosyoCd=3670500325-00&ServiceCd=150&Type=search", "url2": null }, "geometry": { "type": "Point", "coordinates": [ 134.092455100000052, 34.0589775 ] } },
{ "type": "Feature", "properties": { "内容": "健祥会デイサービスセンターうだつ【通所介護】徳島県美馬市脇町大字脇町962-1", "url": "https://www.kaigokensaku.mhlw.go.jp/36/index.php?action_kouhyou_detail_004_kani=true&JigyosyoCd=3671800294-00&ServiceCd=150&Type=search", "url2": "http://www.kenshokai.group/" }, "geometry": { "type": "Point", "coordinates": [ 134.137614399999961, 34.0723178 ] } },
{ "type": "Feature", "properties": { "内容": "蓬莱会デイサービスセンターみま【通所介護】徳島県美馬市美馬町字高畑８番地１", "url": "https://www.kaigokensaku.mhlw.go.jp/36/index.php?action_kouhyou_detail_004_kani=true&JigyosyoCd=3671800385-00&ServiceCd=150&Type=search", "url2": "https://horaikai.or.jp" }, "geometry": { "type": "Point", "coordinates": [ 134.079478977379154, 34.058357048670871 ] } },
{ "type": "Feature", "properties": { "内容": "健生西部診療所デイサービスなでしこ【通所介護】徳島県三好市井川町吉岡127-2", "url": "https://www.kaigokensaku.mhlw.go.jp/36/index.php?action_kouhyou_detail_004_kani=true&JigyosyoCd=3670600224-00&ServiceCd=150&Type=search", "url2": null }, "geometry": { "type": "Point", "coordinates": [ 133.864247771971577, 34.030648982660729 ] } },
{ "type": "Feature", "properties": { "内容": "みのだデイサービスセンター【通所介護】徳島県三好市井川町大佐古２０番地１", "url": "https://www.kaigokensaku.mhlw.go.jp/36/index.php?action_kouhyou_detail_004_kani=true&JigyosyoCd=3671900029-00&ServiceCd=150&Type=search", "url2": null }, "geometry": { "type": "Point", "coordinates": [ 133.885496200000034, 34.031339 ] } },
{ "type": "Feature", "properties": { "内容": "山城会　デイサービスセンター大野【通所介護】徳島県三好市山城町大野大寺508-2", "url": "https://www.kaigokensaku.mhlw.go.jp/36/index.php?action_kouhyou_detail_004_kani=true&JigyosyoCd=3671900268-00&ServiceCd=150&Type=search", "url2": "http//yamasirokai.or.jp/" }, "geometry": { "type": "Point", "coordinates": [ 133.71385, 33.965046 ] } },
{ "type": "Feature", "properties": { "内容": "ライフサポートセンター桜【通所介護】徳島県三好市三野町芝生859-1", "url": "https://www.kaigokensaku.mhlw.go.jp/36/index.php?action_kouhyou_detail_004_kani=true&JigyosyoCd=3671900359-00&ServiceCd=150&Type=search", "url2": null }, "geometry": { "type": "Point", "coordinates": [ 133.967389329855649, 34.046014880162765 ] } },
{ "type": "Feature", "properties": { "内容": "山城会デイサービスセンター【通所介護】徳島県三好市山城町西宇1225-2", "url": "https://www.kaigokensaku.mhlw.go.jp/36/index.php?action_kouhyou_detail_004_kani=true&JigyosyoCd=3670600406-00&ServiceCd=150&Type=search", "url2": "http://yamashirokai.or.jp/" }, "geometry": { "type": "Point", "coordinates": [ 133.758484959933355, 33.91354374101104 ] } },
{ "type": "Feature", "properties": { "内容": "株式会社　幸の和【通所介護】徳島県三好市三野町芝生1098-1", "url": "https://www.kaigokensaku.mhlw.go.jp/36/index.php?action_kouhyou_detail_004_kani=true&JigyosyoCd=3670600133-00&ServiceCd=150&Type=search", "url2": null }, "geometry": { "type": "Point", "coordinates": [ 133.972393655603014, 34.041247381930766 ] } },
{ "type": "Feature", "properties": { "内容": "永楽荘デイサービスセンター（月）【通所介護】徳島県三好市池田町州津西ノ久保２７９番地１永楽荘デイサービスセンター（月）", "url": "https://www.kaigokensaku.mhlw.go.jp/36/index.php?action_kouhyou_detail_004_kani=true&JigyosyoCd=3671900185-00&ServiceCd=150&Type=search", "url2": "http://www.ikeda-hakuai.or.jp/" }, "geometry": { "type": "Point", "coordinates": [ 133.840345500000012, 34.0346022 ] } },
{ "type": "Feature", "properties": { "内容": "永楽荘デイサービスセンター星【通所介護】徳島県三好市池田町白地本名165-2", "url": "https://www.kaigokensaku.mhlw.go.jp/36/index.php?action_kouhyou_detail_004_kani=true&JigyosyoCd=3671900193-00&ServiceCd=150&Type=search", "url2": "http://www.ikeda-hakuaikai.org" }, "geometry": { "type": "Point", "coordinates": [ 133.781705699999947, 34.0147974 ] } },
{ "type": "Feature", "properties": { "内容": "デイサービスセンターすずらん【通所介護】徳島県三好市池田町サラダ1612番地32", "url": "https://www.kaigokensaku.mhlw.go.jp/36/index.php?action_kouhyou_detail_004_kani=true&JigyosyoCd=3671900300-00&ServiceCd=150&Type=search", "url2": null }, "geometry": { "type": "Point", "coordinates": [ 133.808254900000065, 34.0271299 ] } },
{ "type": "Feature", "properties": { "内容": "村山内科　デイサービスセンター【通所介護】徳島県三好市池田町サラダ１７９２番地１", "url": "https://www.kaigokensaku.mhlw.go.jp/36/index.php?action_kouhyou_detail_004_kani=true&JigyosyoCd=3671900235-00&ServiceCd=150&Type=search", "url2": "https.//murayamanaika.com" }, "geometry": { "type": "Point", "coordinates": [ 133.80693569999994, 34.0279603 ] } },
{ "type": "Feature", "properties": { "内容": "デイサービスセンターオレンジ荘【通所介護】徳島県勝浦郡勝浦町大字棚野字竹国１３番地の１", "url": "https://www.kaigokensaku.mhlw.go.jp/36/index.php?action_kouhyou_detail_004_kani=true&JigyosyoCd=3671000010-00&ServiceCd=150&Type=search", "url2": "http://syoujukai.or.jp" }, "geometry": { "type": "Point", "coordinates": [ 134.504896, 33.9326887 ] } },
{ "type": "Feature", "properties": { "内容": "デイサービスセンター清流苑【通所介護】徳島県勝浦郡勝浦町大字棚野字竹国１０番１", "url": "https://www.kaigokensaku.mhlw.go.jp/36/index.php?action_kouhyou_detail_004_kani=true&JigyosyoCd=3671000085-00&ServiceCd=150&Type=search", "url2": "http://syoujukai.or.jp" }, "geometry": { "type": "Point", "coordinates": [ 134.504657100000031, 33.9319361 ] } },
{ "type": "Feature", "properties": { "内容": "健祥会デイサービスセンター上勝【通所介護】徳島県勝浦郡上勝町大字正木字西浦111番地７", "url": "https://www.kaigokensaku.mhlw.go.jp/36/index.php?action_kouhyou_detail_004_kani=true&JigyosyoCd=3671000028-00&ServiceCd=150&Type=search", "url2": "https://www.kenshokai.group/" }, "geometry": { "type": "Point", "coordinates": [ 134.420406400000047, 33.9243288 ] } },
{ "type": "Feature", "properties": { "内容": "デイセンターウィリアムテル【通所介護】徳島県名東郡佐那河内村上字大黒２３番地１", "url": "https://www.kaigokensaku.mhlw.go.jp/36/index.php?action_kouhyou_detail_004_kani=true&JigyosyoCd=3671100018-00&ServiceCd=150&Type=search", "url2": "https://www.kenshokai.group/" }, "geometry": { "type": "Point", "coordinates": [ 134.451613599999973, 33.9923776 ] } },
{ "type": "Feature", "properties": { "内容": "医療法人青鳳会　デイサービスくつろぎ【通所介護】徳島県名西郡石井町浦庄字上浦524-10デイサービスくつろぎ", "url": "https://www.kaigokensaku.mhlw.go.jp/36/index.php?action_kouhyou_detail_004_kani=true&JigyosyoCd=3671200487-00&ServiceCd=150&Type=search", "url2": null }, "geometry": { "type": "Point", "coordinates": [ 134.408735200000024, 34.0694323 ] } },
{ "type": "Feature", "properties": { "内容": "デイサービスセンターリン【通所介護】徳島県名西郡石井町浦庄字下浦341番地1", "url": "https://www.kaigokensaku.mhlw.go.jp/36/index.php?action_kouhyou_detail_004_kani=true&JigyosyoCd=3671200578-00&ServiceCd=150&Type=search", "url2": null }, "geometry": { "type": "Point", "coordinates": [ 134.412106, 34.0682668 ] } },
{ "type": "Feature", "properties": { "内容": "とおりゃんせ【通所介護】徳島県名西郡石井町藍畑字高畑166の1", "url": "https://www.kaigokensaku.mhlw.go.jp/36/index.php?action_kouhyou_detail_004_kani=true&JigyosyoCd=3671200529-00&ServiceCd=150&Type=search", "url2": "akanenowa.com" }, "geometry": { "type": "Point", "coordinates": [ 134.449687398908452, 34.094843399368294 ] } },
{ "type": "Feature", "properties": { "内容": "デイサービスともに【通所介護】徳島県名西郡石井町藍畑字高畑1028番地3", "url": "https://www.kaigokensaku.mhlw.go.jp/36/index.php?action_kouhyou_detail_004_kani=true&JigyosyoCd=3671200511-00&ServiceCd=150&Type=search", "url2": "https://www.tomoni-dayservice.com/" }, "geometry": { "type": "Point", "coordinates": [ 134.4406923, 34.0916649 ] } },
{ "type": "Feature", "properties": { "内容": "デイハウス　青藍【通所介護】徳島県石井町高原字中須８番地１デイハウス　青藍", "url": "https://www.kaigokensaku.mhlw.go.jp/36/index.php?action_kouhyou_detail_004_kani=true&JigyosyoCd=3671200032-00&ServiceCd=150&Type=search", "url2": "http://seiranso.com/" }, "geometry": { "type": "Point", "coordinates": [ 134.4003973, 34.084411 ] } },
{ "type": "Feature", "properties": { "内容": "あい介護福祉サービス有限会社【通所介護】徳島県名西郡石井町石井字重松680番地の１", "url": "https://www.kaigokensaku.mhlw.go.jp/36/index.php?action_kouhyou_detail_004_kani=true&JigyosyoCd=3671200198-00&ServiceCd=150&Type=search", "url2": "http://www.ai-kaigo.jp/" }, "geometry": { "type": "Point", "coordinates": [ 134.4350157, 34.0733096 ] } },
{ "type": "Feature", "properties": { "内容": "デイサービスセンター藤の里【通所介護】徳島県名西郡石井町藍畑字東覚円103－1デイサービスセンター藤の里", "url": "https://www.kaigokensaku.mhlw.go.jp/36/index.php?action_kouhyou_detail_004_kani=true&JigyosyoCd=3671200016-00&ServiceCd=150&Type=search", "url2": "http://www.yuseikai.net" }, "geometry": { "type": "Point", "coordinates": [ 134.435710100000051, 34.0959708 ] } },
{ "type": "Feature", "properties": { "内容": "デイサービスくつろぎ【通所介護】徳島県名西郡浦庄字上浦524-10", "url": "https://www.kaigokensaku.mhlw.go.jp/36/index.php?action_kouhyou_detail_004_kani=true&JigyosyoCd=3671200537-00&ServiceCd=150&Type=search", "url2": "www.mima-gr.jp-kutsurogi/index.html." }, "geometry": { "type": "Point", "coordinates": [ 134.408733, 34.069574 ] } },
{ "type": "Feature", "properties": { "内容": "デイセンター上総介【通所介護】徳島県名西郡石井町石井字重松208番地1", "url": "https://www.kaigokensaku.mhlw.go.jp/36/index.php?action_kouhyou_detail_004_kani=true&JigyosyoCd=3671200396-00&ServiceCd=150&Type=search", "url2": "http://www.kenshokai.group/" }, "geometry": { "type": "Point", "coordinates": [ 134.435439652114837, 34.070509880749434 ] } },
{ "type": "Feature", "properties": { "内容": "石井デイサ－ビスセンタ－【通所介護】徳島県名西郡石井町高川原字天神７２５－１", "url": "https://www.kaigokensaku.mhlw.go.jp/36/index.php?action_kouhyou_detail_004_kani=true&JigyosyoCd=3671200099-00&ServiceCd=150&Type=search", "url2": "http://www11.ocn.ne.jp/yuseien/" }, "geometry": { "type": "Point", "coordinates": [ 134.439868100000012, 34.0804671 ] } },
{ "type": "Feature", "properties": { "内容": "デイサービスセンター気延の里【通所介護】徳島県名西郡石井町石井字石井1994番地", "url": "https://www.kaigokensaku.mhlw.go.jp/36/index.php?action_kouhyou_detail_004_kani=true&JigyosyoCd=3671200420-00&ServiceCd=150&Type=search", "url2": null }, "geometry": { "type": "Point", "coordinates": [ 134.44747289999998, 34.0593363 ] } },
{ "type": "Feature", "properties": { "内容": "デイサービスバイエルン【通所介護】徳島県名西郡石井町石井字石井1336-7", "url": "https://www.kaigokensaku.mhlw.go.jp/36/index.php?action_kouhyou_detail_004_kani=true&JigyosyoCd=3671200586-00&ServiceCd=150&Type=search", "url2": "https://nijinohashikaigo.com/day-service/" }, "geometry": { "type": "Point", "coordinates": [ 134.4381391, 34.0659564 ] } },
{ "type": "Feature", "properties": { "内容": "神山すだち園デイサービスセンター【通所介護】阿野字長谷335", "url": "https://www.kaigokensaku.mhlw.go.jp/36/index.php?action_kouhyou_detail_004_kani=true&JigyosyoCd=3671200024-00&ServiceCd=150&Type=search", "url2": "http://www.yuseikai.net/fukushikai.htm" }, "geometry": { "type": "Point", "coordinates": [ 134.41697309999995, 34.0497569 ] } },
{ "type": "Feature", "properties": { "内容": "神山町デイサービスセンター【通所介護】徳島県名西郡神山町神領字西上角127番地", "url": "https://www.kaigokensaku.mhlw.go.jp/36/index.php?action_kouhyou_detail_004_kani=true&JigyosyoCd=3671200354-00&ServiceCd=150&Type=search", "url2": "https://yuseikai.net/kjs-d/" }, "geometry": { "type": "Point", "coordinates": [ 134.366175399999946, 33.9742763 ] } },
{ "type": "Feature", "properties": { "内容": "相生デイサービスセンター【通所介護】徳島県那賀郡那賀町鮎川字蛭子５０番地１", "url": "https://www.kaigokensaku.mhlw.go.jp/36/index.php?action_kouhyou_detail_004_kani=true&JigyosyoCd=3671300048-00&ServiceCd=150&Type=search", "url2": null }, "geometry": { "type": "Point", "coordinates": [ 134.485096250747659, 33.825533836347113 ] } },
{ "type": "Feature", "properties": { "内容": "那賀町鷲敷デイサービスセンター【通所介護】徳島県那賀郡那賀町和食郷字八幡原5", "url": "https://www.kaigokensaku.mhlw.go.jp/36/index.php?action_kouhyou_detail_004_kani=true&JigyosyoCd=3671300220-00&ServiceCd=150&Type=search", "url2": "http://wajiki.rouken.jp/" }, "geometry": { "type": "Point", "coordinates": [ 134.503566099999944, 33.8552138 ] } },
{ "type": "Feature", "properties": { "内容": "那賀町に光を照らすデイサービスセンター【通所介護】徳島県那賀郡那賀町百合字石橋500番地3那賀町に光を照らす高齢者住宅", "url": "https://www.kaigokensaku.mhlw.go.jp/36/index.php?action_kouhyou_detail_004_kani=true&JigyosyoCd=3671300709-00&ServiceCd=150&Type=search", "url2": "naka_hikarioterasu@yahoo.c0.jp" }, "geometry": { "type": "Point", "coordinates": [ 134.487659300000018, 33.84622 ] } },
{ "type": "Feature", "properties": { "内容": "那賀町に陽はまた昇るデイサービスセンター【通所介護】徳島県那賀郡那賀町中山字とふめん39番地", "url": "https://www.kaigokensaku.mhlw.go.jp/36/index.php?action_kouhyou_detail_004_kani=true&JigyosyoCd=3671300725-00&ServiceCd=150&Type=search", "url2": "naka_hihamatanoboru@yahoo.co.jp" }, "geometry": { "type": "Point", "coordinates": [ 134.529296199999976, 33.8601462 ] } },
{ "type": "Feature", "properties": { "内容": "牟岐町社会福祉協議会川長事業所【通所介護】徳島県海部郡牟岐町大字川長字新光寺60-1", "url": "https://www.kaigokensaku.mhlw.go.jp/36/index.php?action_kouhyou_detail_004_kani=true&JigyosyoCd=3671400012-00&ServiceCd=150&Type=search", "url2": "http://shakyo.ict-tokushima.jp/mugi/" }, "geometry": { "type": "Point", "coordinates": [ 134.421330200000057, 33.6740169 ] } },
{ "type": "Feature", "properties": { "内容": "デイセンター緑風【通所介護】徳島県海部郡牟岐町大字中村字山田30番地", "url": "https://www.kaigokensaku.mhlw.go.jp/36/index.php?action_kouhyou_detail_004_kani=true&JigyosyoCd=3671400095-00&ServiceCd=150&Type=search", "url2": "http://www.kenshokai.group" }, "geometry": { "type": "Point", "coordinates": [ 134.413139699999988, 33.6684733 ] } },
{ "type": "Feature", "properties": { "内容": "美波町デイサービスセンター竜宮【通所介護】徳島県海部郡美波町奥河内字井ノ上15-1", "url": "https://www.kaigokensaku.mhlw.go.jp/36/index.php?action_kouhyou_detail_004_kani=true&JigyosyoCd=3671400327-00&ServiceCd=150&Type=search", "url2": null }, "geometry": { "type": "Point", "coordinates": [ 134.532316300000048, 33.7340449 ] } },
{ "type": "Feature", "properties": { "内容": "デイサービスセンターおとひめ【通所介護】徳島県海部郡美波町西河内字丹前99番地", "url": "https://www.kaigokensaku.mhlw.go.jp/36/index.php?action_kouhyou_detail_004_kani=true&JigyosyoCd=3671400186-00&ServiceCd=150&Type=search", "url2": "https://www.toukoukai-hiwasasou.info/" }, "geometry": { "type": "Point", "coordinates": [ 134.516742860574368, 33.733464269411961 ] } },
{ "type": "Feature", "properties": { "内容": "デイサービスセンター長寿村【通所介護】徳島県海部郡美波町西の地字大谷12", "url": "https://www.kaigokensaku.mhlw.go.jp/36/index.php?action_kouhyou_detail_004_kani=true&JigyosyoCd=3671400491-00&ServiceCd=150&Type=search", "url2": "http://nennrin.jp" }, "geometry": { "type": "Point", "coordinates": [ 134.590192991439977, 33.77798927800508 ] } },
{ "type": "Feature", "properties": { "内容": "デイサービスいきいき【通所介護】徳島県海部郡海陽町久保字板取１２－４", "url": "https://www.kaigokensaku.mhlw.go.jp/36/index.php?action_kouhyou_detail_004_kani=true&JigyosyoCd=3671400350-00&ServiceCd=150&Type=search", "url2": "http://orino.jp/" }, "geometry": { "type": "Point", "coordinates": [ 138.252924, 36.204824 ] } },
{ "type": "Feature", "properties": { "内容": "デイサービスセンター　わしずみ荘【通所介護】徳島県海部郡海陽町宍喰浦字宍喰383番地", "url": "https://www.kaigokensaku.mhlw.go.jp/36/index.php?action_kouhyou_detail_004_kani=true&JigyosyoCd=3671400426-00&ServiceCd=150&Type=search", "url2": "https://www.kaiyo-shakyo.jp/" }, "geometry": { "type": "Point", "coordinates": [ 134.302510100000063, 33.5668438 ] } },
{ "type": "Feature", "properties": { "内容": "デイサービスセンター　さつき荘【通所介護】徳島県海部郡海陽町大里字中須８４番地デイサービスセンター　さつき荘", "url": "https://www.kaigokensaku.mhlw.go.jp/36/index.php?action_kouhyou_detail_004_kani=true&JigyosyoCd=3671400418-00&ServiceCd=150&Type=search", "url2": "https://www.kaiyo-shakyo.jp/" }, "geometry": { "type": "Point", "coordinates": [ 134.3558574, 33.6010461 ] } },
{ "type": "Feature", "properties": { "内容": "せいけいかい指定通所介護事業所【通所介護】徳島県板野郡松茂町笹木野字山東49-1", "url": "https://www.kaigokensaku.mhlw.go.jp/36/index.php?action_kouhyou_detail_004_kani=true&JigyosyoCd=3671500092-00&ServiceCd=150&Type=search", "url2": "http://wako-en.or.jp/" }, "geometry": { "type": "Point", "coordinates": [ 134.595177499999977, 34.124439 ] } },
{ "type": "Feature", "properties": { "内容": "ふくゆうデイサービスセンター【通所介護】徳島県板野郡松茂町笹木野字八北開拓175番地1", "url": "https://www.kaigokensaku.mhlw.go.jp/36/index.php?action_kouhyou_detail_004_kani=true&JigyosyoCd=3671501561-00&ServiceCd=150&Type=search", "url2": "http://www.yujoukai.jp/" }, "geometry": { "type": "Point", "coordinates": [ 134.59451880000006, 34.1434952 ] } },
{ "type": "Feature", "properties": { "内容": "でいさーびす「ちょうせいえん」【通所介護】徳島県板野郡松茂町満穂字満穂開拓79番地1", "url": "https://www.kaigokensaku.mhlw.go.jp/36/index.php?action_kouhyou_detail_004_kani=true&JigyosyoCd=3671501496-00&ServiceCd=150&Type=search", "url2": null }, "geometry": { "type": "Point", "coordinates": [ 134.600188671627052, 34.140233589031595 ] } },
{ "type": "Feature", "properties": { "内容": "灯りデイサービスセンター【通所介護】徳島県板野郡松茂町笹木野字八北開拓25番地住宅型有料老人ホームわたつみ", "url": "https://www.kaigokensaku.mhlw.go.jp/36/index.php?action_kouhyou_detail_004_kani=true&JigyosyoCd=3670105646-00&ServiceCd=150&Type=search", "url2": "http://grandforest.co.jp" }, "geometry": { "type": "Point", "coordinates": [ 134.5862768, 34.135932 ] } },
{ "type": "Feature", "properties": { "内容": "デイサービスセンターふるさと【通所介護】徳島県板野郡北島町北村字大黒6番地1", "url": "https://www.kaigokensaku.mhlw.go.jp/36/index.php?action_kouhyou_detail_004_kani=true&JigyosyoCd=3671502031-00&ServiceCd=150&Type=search", "url2": null }, "geometry": { "type": "Point", "coordinates": [ 134.558184930302417, 34.13806917267398 ] } },
{ "type": "Feature", "properties": { "内容": "デイサービスみらい大黒【通所介護】徳島県板野郡北島町北村字大黒６番地１サービス付き高齢者向け住宅みらい2", "url": "https://www.kaigokensaku.mhlw.go.jp/36/index.php?action_kouhyou_detail_004_kani=true&JigyosyoCd=3671502288-00&ServiceCd=150&Type=search", "url2": "https://tos-serv001.oops.jp/3601000087_mirai/" }, "geometry": { "type": "Point", "coordinates": [ 134.556666799999988, 34.1388373 ] } },
{ "type": "Feature", "properties": { "内容": "(株)ステッチハウスきずなデイサービス【通所介護】徳島県板野郡北島町中村字上地1-2", "url": "https://www.kaigokensaku.mhlw.go.jp/36/index.php?action_kouhyou_detail_004_kani=true&JigyosyoCd=3671500647-00&ServiceCd=150&Type=search", "url2": null }, "geometry": { "type": "Point", "coordinates": [ 134.548728799999907, 34.1271856 ] } },
{ "type": "Feature", "properties": { "内容": "吉野川荘デイサービスセンター【通所介護】徳島県板野郡北島町中村字八丁野４番地１９", "url": "https://www.kaigokensaku.mhlw.go.jp/36/index.php?action_kouhyou_detail_004_kani=true&JigyosyoCd=3671500019-00&ServiceCd=150&Type=search", "url2": "http://care-net.biz/36/yoshi2023/" }, "geometry": { "type": "Point", "coordinates": [ 134.537229700000012, 34.1308213 ] } },
{ "type": "Feature", "properties": { "内容": "介護老人保健施設　敬愛の家【通所介護】徳島県板野郡北島町中村字八丁野22番地の1", "url": "https://www.kaigokensaku.mhlw.go.jp/36/index.php?action_kouhyou_detail_004_kani=true&JigyosyoCd=3651580064-00&ServiceCd=150&Type=search", "url2": "https://syuseikai-group.net/medical" }, "geometry": { "type": "Point", "coordinates": [ 134.537974100000042, 34.1302713 ] } },
{ "type": "Feature", "properties": { "内容": "北島えんじゅデイサービスセンター【通所介護】徳島県板野郡北島町北村字大開５番地７", "url": "https://www.kaigokensaku.mhlw.go.jp/36/index.php?action_kouhyou_detail_004_kani=true&JigyosyoCd=3671501934-00&ServiceCd=150&Type=search", "url2": "https://yujoukai.jp" }, "geometry": { "type": "Point", "coordinates": [ 134.563588, 34.1336426 ] } },
{ "type": "Feature", "properties": { "内容": "デイサービスセンターきたじま【通所介護】徳島県板野郡北島町中村字中内２６", "url": "https://www.kaigokensaku.mhlw.go.jp/36/index.php?action_kouhyou_detail_004_kani=true&JigyosyoCd=3671500902-00&ServiceCd=150&Type=search", "url2": "http://www.ryokujyukai.com" }, "geometry": { "type": "Point", "coordinates": [ 134.556825200000048, 34.128938200000015 ] } },
{ "type": "Feature", "properties": { "内容": "デイサービスセンターほほえみ北島【通所介護】徳島県板野郡北島町北村字千田ノ木66-1", "url": "https://www.kaigokensaku.mhlw.go.jp/36/index.php?action_kouhyou_detail_004_kani=true&JigyosyoCd=3671501918-00&ServiceCd=150&Type=search", "url2": null }, "geometry": { "type": "Point", "coordinates": [ 134.547567462551882, 34.131712967959011 ] } },
{ "type": "Feature", "properties": { "内容": "デイサービス　ウェルネスあいずみ【通所介護】徳島県板野郡藍住町笠木字中野72-1", "url": "https://www.kaigokensaku.mhlw.go.jp/36/index.php?action_kouhyou_detail_004_kani=true&JigyosyoCd=3671502023-00&ServiceCd=150&Type=search", "url2": null }, "geometry": { "type": "Point", "coordinates": [ 134.502013676721219, 34.134827568051435 ] } },
{ "type": "Feature", "properties": { "内容": "デイサービスセンター蘭方【通所介護】徳島県板野郡藍住町矢上字春日１００番地２", "url": "https://www.kaigokensaku.mhlw.go.jp/36/index.php?action_kouhyou_detail_004_kani=true&JigyosyoCd=3671501892-00&ServiceCd=150&Type=search", "url2": null }, "geometry": { "type": "Point", "coordinates": [ 134.490863, 34.1366468 ] } },
{ "type": "Feature", "properties": { "内容": "クレア・デイサービスセンター【通所介護】徳島県板野郡藍住町字藤の木83-2有料老人ホームクレア藍住　西棟1階", "url": "https://www.kaigokensaku.mhlw.go.jp/36/index.php?action_kouhyou_detail_004_kani=true&JigyosyoCd=3671500266-00&ServiceCd=150&Type=search", "url2": null }, "geometry": { "type": "Point", "coordinates": [ 134.502430799999956, 34.126196 ] } },
{ "type": "Feature", "properties": { "内容": "さわやか徳島デイサービスセンター【通所介護】板野郡藍住町富吉字地神60番3", "url": "https://www.kaigokensaku.mhlw.go.jp/36/index.php?action_kouhyou_detail_004_kani=true&JigyosyoCd=3671500233-00&ServiceCd=150&Type=search", "url2": "http://55web.jp/sawayaka/" }, "geometry": { "type": "Point", "coordinates": [ 134.4874489, 34.1374334 ] } },
{ "type": "Feature", "properties": { "内容": "デイサービスセンター　りぶら【通所介護】徳島県板野郡藍住町東中富東傍示44", "url": "https://www.kaigokensaku.mhlw.go.jp/36/index.php?action_kouhyou_detail_004_kani=true&JigyosyoCd=3671502254-00&ServiceCd=150&Type=search", "url2": "hhtps:/www.libra-co.jp/" }, "geometry": { "type": "Point", "coordinates": [ 134.4772701, 34.1205701 ] } },
{ "type": "Feature", "properties": { "内容": "デイサービスゆうひな【通所介護】徳島県板野郡藍住町矢上字北分6番４", "url": "https://www.kaigokensaku.mhlw.go.jp/36/index.php?action_kouhyou_detail_004_kani=true&JigyosyoCd=3671501835-00&ServiceCd=150&Type=search", "url2": null }, "geometry": { "type": "Point", "coordinates": [ 134.494134854974504, 34.1357861899547 ] } },
{ "type": "Feature", "properties": { "内容": "デイサービススマイリング【通所介護】徳島県板野郡藍住町矢上字原190番地１", "url": "https://www.kaigokensaku.mhlw.go.jp/36/index.php?action_kouhyou_detail_004_kani=true&JigyosyoCd=3671502262-00&ServiceCd=150&Type=search", "url2": "https://nodoka-hinata.jp/" }, "geometry": { "type": "Point", "coordinates": [ 134.501180274868801, 34.126883860266595 ] } },
{ "type": "Feature", "properties": { "内容": "RACケアスタジオ藍住【通所介護】徳島県板野郡藍住町住吉字藤ノ木８３－２", "url": "https://www.kaigokensaku.mhlw.go.jp/36/index.php?action_kouhyou_detail_004_kani=true&JigyosyoCd=3671502163-00&ServiceCd=150&Type=search", "url2": "https://www.crea-care.com/rac-care-studio/aizumi/" }, "geometry": { "type": "Point", "coordinates": [ 134.5024535, 34.1262062 ] } },
{ "type": "Feature", "properties": { "内容": "クレア藍住デイサービス【通所介護】徳島県板野郡藍住町住吉字藤ノ木83番地2有料老人ホームクレア藍住", "url": "https://www.kaigokensaku.mhlw.go.jp/36/index.php?action_kouhyou_detail_004_kani=true&JigyosyoCd=3671501082-00&ServiceCd=150&Type=search", "url2": null }, "geometry": { "type": "Point", "coordinates": [ 134.502430799999956, 34.126196 ] } },
{ "type": "Feature", "properties": { "内容": "有限会社オルト商事【通所介護】徳島県板野郡藍住町東中富字権現傍示51－1", "url": "https://www.kaigokensaku.mhlw.go.jp/36/index.php?action_kouhyou_detail_004_kani=true&JigyosyoCd=3671502049-00&ServiceCd=150&Type=search", "url2": null }, "geometry": { "type": "Point", "coordinates": [ 134.4767359, 34.1238716 ] } },
{ "type": "Feature", "properties": { "内容": "デイサービス歩の華【通所介護】徳島県板野郡藍住町徳命字前須東13-1", "url": "https://www.kaigokensaku.mhlw.go.jp/36/index.php?action_kouhyou_detail_004_kani=true&JigyosyoCd=3671502205-00&ServiceCd=150&Type=search", "url2": null }, "geometry": { "type": "Point", "coordinates": [ 134.490466, 34.1171538 ] } },
{ "type": "Feature", "properties": { "内容": "デイサービスセンター恵藍住【通所介護】徳島県板野郡藍住町徳命字新居須80番1", "url": "https://www.kaigokensaku.mhlw.go.jp/36/index.php?action_kouhyou_detail_004_kani=true&JigyosyoCd=3671501728-00&ServiceCd=150&Type=search", "url2": "http://itsumosmile.jp/" }, "geometry": { "type": "Point", "coordinates": [ 134.503640099999984, 34.1144115 ] } },
{ "type": "Feature", "properties": { "内容": "デイセンター日吉丸【通所介護】徳島県板野郡藍住町徳命字小塚北92番地3", "url": "https://www.kaigokensaku.mhlw.go.jp/36/index.php?action_kouhyou_detail_004_kani=true&JigyosyoCd=3671500936-00&ServiceCd=150&Type=search", "url2": "https://www.kenshokai.group" }, "geometry": { "type": "Point", "coordinates": [ 134.487135699999953, 34.1133023 ] } },
{ "type": "Feature", "properties": { "内容": "デイサービス優【通所介護】徳島県板野郡藍住町徳命字新居須65-1ライフコンシェルジェ徳島１階（デイサービス優）", "url": "https://www.kaigokensaku.mhlw.go.jp/36/index.php?action_kouhyou_detail_004_kani=true&JigyosyoCd=3671501074-00&ServiceCd=150&Type=search", "url2": "http://www.seijyukai-med.jp/shimizudayyu/" }, "geometry": { "type": "Point", "coordinates": [ 134.505178099999966, 34.1128584 ] } },
{ "type": "Feature", "properties": { "内容": "デイサービスセンター藍寿苑【通所介護】徳島県板野郡藍住町富吉字穂実66-3", "url": "https://www.kaigokensaku.mhlw.go.jp/36/index.php?action_kouhyou_detail_004_kani=true&JigyosyoCd=3671501769-00&ServiceCd=150&Type=search", "url2": "http://www.ryoun.com" }, "geometry": { "type": "Point", "coordinates": [ 134.488615308975199, 34.1410601622988 ] } },
{ "type": "Feature", "properties": { "内容": "デイサービス優樹【通所介護】徳島県板野郡藍住町東中富字慶長47-1", "url": "https://www.kaigokensaku.mhlw.go.jp/36/index.php?action_kouhyou_detail_004_kani=true&JigyosyoCd=3671502122-00&ServiceCd=150&Type=search", "url2": "http://www.seijukai-med.jp/" }, "geometry": { "type": "Point", "coordinates": [ 134.46853820000004, 34.116966799999986 ] } },
{ "type": "Feature", "properties": { "内容": "清水内科デイサービスセンター【通所介護】徳島県板野郡藍住町徳命字新居須64-2", "url": "https://www.kaigokensaku.mhlw.go.jp/36/index.php?action_kouhyou_detail_004_kani=true&JigyosyoCd=3671500639-00&ServiceCd=150&Type=search", "url2": "http://www.seijyukai-med.jp/shimizuday/" }, "geometry": { "type": "Point", "coordinates": [ 134.504929922090156, 34.112523979123957 ] } },
{ "type": "Feature", "properties": { "内容": "デイサービス彩【通所介護】徳島県板野郡藍住町富吉字豊吉８６－１サービス付き高齢者向け住宅　ライフヴィライース徳島１F", "url": "https://www.kaigokensaku.mhlw.go.jp/36/index.php?action_kouhyou_detail_004_kani=true&JigyosyoCd=3671501405-00&ServiceCd=150&Type=search", "url2": "http://www.seijyukai-med.jp/" }, "geometry": { "type": "Point", "coordinates": [ 134.487790600000039, 34.1330588 ] } },
{ "type": "Feature", "properties": { "内容": "デイサービスセンター蘭方【通所介護】徳島県板野郡藍住町矢上字春日１００－２", "url": "https://www.kaigokensaku.mhlw.go.jp/36/index.php?action_kouhyou_detail_004_kani=true&JigyosyoCd=3671502197-00&ServiceCd=150&Type=search", "url2": null }, "geometry": { "type": "Point", "coordinates": [ 134.490871, 34.13665 ] } },
{ "type": "Feature", "properties": { "内容": "デイサービスいつでも夢を【通所介護】徳島県板野郡藍住町東中富字北傍示４５番地５", "url": "https://www.kaigokensaku.mhlw.go.jp/36/index.php?action_kouhyou_detail_004_kani=true&JigyosyoCd=3671501470-00&ServiceCd=150&Type=search", "url2": "http://いつもここから.com/" }, "geometry": { "type": "Point", "coordinates": [ 134.480141300000014, 34.1331586 ] } },
{ "type": "Feature", "properties": { "内容": "デイサービス　コルマール【通所介護】徳島県板野郡藍住町東中富字朏傍示54番地3アルザスロレーヌ虹の橋　１F", "url": "https://www.kaigokensaku.mhlw.go.jp/36/index.php?action_kouhyou_detail_004_kani=true&JigyosyoCd=3671501660-00&ServiceCd=150&Type=search", "url2": "http://nijinohashikaigo.com/alsace-lorraine/" }, "geometry": { "type": "Point", "coordinates": [ 134.476297499999987, 34.1255954 ] } },
{ "type": "Feature", "properties": { "内容": "デイサービスセンターはるかぜ【通所介護】徳島県板野郡板野町那東字野神南7-1", "url": "https://www.kaigokensaku.mhlw.go.jp/36/index.php?action_kouhyou_detail_004_kani=true&JigyosyoCd=3671501249-00&ServiceCd=150&Type=search", "url2": "http://kondo-naika.jp/" }, "geometry": { "type": "Point", "coordinates": [ 134.438185100000027, 34.1340649 ] } },
{ "type": "Feature", "properties": { "内容": "デイサービス藍【通所介護】徳島県板野郡板野町川端字若王寺51番地2", "url": "https://www.kaigokensaku.mhlw.go.jp/36/index.php?action_kouhyou_detail_004_kani=true&JigyosyoCd=3671501033-00&ServiceCd=150&Type=search", "url2": null }, "geometry": { "type": "Point", "coordinates": [ 134.479913500000066, 34.1477989 ] } },
{ "type": "Feature", "properties": { "内容": "デイサービスセンター　はるかぜ【通所介護】徳島県板野郡板野町那東字野神南７番地１", "url": "https://www.kaigokensaku.mhlw.go.jp/36/index.php?action_kouhyou_detail_004_kani=true&JigyosyoCd=3671501348-00&ServiceCd=150&Type=search", "url2": "http://kondo-naika.jp/" }, "geometry": { "type": "Point", "coordinates": [ 134.438117299999931, 34.1340217 ] } },
{ "type": "Feature", "properties": { "内容": "デイサービス愛Ⅲ【通所介護】徳島県板野郡板野町川端字原端14番地６", "url": "https://www.kaigokensaku.mhlw.go.jp/36/index.php?action_kouhyou_detail_004_kani=true&JigyosyoCd=3671502247-00&ServiceCd=150&Type=search", "url2": null }, "geometry": { "type": "Point", "coordinates": [ 134.4774543, 34.1546244 ] } },
{ "type": "Feature", "properties": { "内容": "デイサービス愛Ⅱ【通所介護】徳島県板野郡板野町川端字若王寺37番地1", "url": "https://www.kaigokensaku.mhlw.go.jp/36/index.php?action_kouhyou_detail_004_kani=true&JigyosyoCd=3671501389-00&ServiceCd=150&Type=search", "url2": null }, "geometry": { "type": "Point", "coordinates": [ 134.4795107, 34.1476601 ] } },
{ "type": "Feature", "properties": { "内容": "穂波園指定通所介護事業所【通所介護】徳島県板野郡板野町吹田字西山68番地10", "url": "https://www.kaigokensaku.mhlw.go.jp/36/index.php?action_kouhyou_detail_004_kani=true&JigyosyoCd=3671500084-00&ServiceCd=150&Type=search", "url2": "https://lumiere-tokushima.com/" }, "geometry": { "type": "Point", "coordinates": [ 134.455471200000034, 34.1460011 ] } },
{ "type": "Feature", "properties": { "内容": "デイサービスアイリス【通所介護】徳島県板野郡板野町犬伏字東川岸2番地2", "url": "https://www.kaigokensaku.mhlw.go.jp/36/index.php?action_kouhyou_detail_004_kani=true&JigyosyoCd=3671501926-00&ServiceCd=150&Type=search", "url2": "http://www.juzenkai-inoue.awk.jp/" }, "geometry": { "type": "Point", "coordinates": [ 134.451069599999983, 34.1377205 ] } },
{ "type": "Feature", "properties": { "内容": "リハビリ・デイサービス　こころ【通所介護】徳島県板野郡上板町西分字山下12-3", "url": "https://www.kaigokensaku.mhlw.go.jp/36/index.php?action_kouhyou_detail_004_kani=true&JigyosyoCd=3671500498-00&ServiceCd=150&Type=search", "url2": null }, "geometry": { "type": "Point", "coordinates": [ 134.426132300000063, 34.1323608 ] } },
{ "type": "Feature", "properties": { "内容": "デイサービスほほ笑み【通所介護】徳島県板野郡上板町泉谷字原地８３番地", "url": "https://www.kaigokensaku.mhlw.go.jp/36/index.php?action_kouhyou_detail_004_kani=true&JigyosyoCd=3671501827-00&ServiceCd=150&Type=search", "url2": null }, "geometry": { "type": "Point", "coordinates": [ 134.394689821514106, 34.133417801659462 ] } },
{ "type": "Feature", "properties": { "内容": "上板町社会福祉協議会デイサービスセンター【通所介護】徳島県板野郡上板町西分字橋西1-11", "url": "https://www.kaigokensaku.mhlw.go.jp/36/index.php?action_kouhyou_detail_004_kani=true&JigyosyoCd=3671500191-00&ServiceCd=150&Type=search", "url2": null }, "geometry": { "type": "Point", "coordinates": [ 134.417699099999936, 34.119108 ] } },
{ "type": "Feature", "properties": { "内容": "デイサービスセンターあおば苑【通所介護】徳島県板野郡上板町西分字橋西1番地10", "url": "https://www.kaigokensaku.mhlw.go.jp/36/index.php?action_kouhyou_detail_004_kani=true&JigyosyoCd=3671500076-00&ServiceCd=150&Type=search", "url2": "http://aobagroup.net/" }, "geometry": { "type": "Point", "coordinates": [ 134.41764749999993, 34.1195179 ] } },
{ "type": "Feature", "properties": { "内容": "こもれびデイサービス【通所介護】徳島県板野郡上板町西分字滝ノ宮南50番1", "url": "https://www.kaigokensaku.mhlw.go.jp/36/index.php?action_kouhyou_detail_004_kani=true&JigyosyoCd=3671501579-00&ServiceCd=150&Type=search", "url2": null }, "geometry": { "type": "Point", "coordinates": [ 134.423538099999973, 34.1327247 ] } },
{ "type": "Feature", "properties": { "内容": "つるぎ町高齢者生活福祉センター百寿荘通所介護事業所【通所介護】美馬郡つるぎ町一宇字赤松９０８－４", "url": "https://www.kaigokensaku.mhlw.go.jp/36/index.php?action_kouhyou_detail_004_kani=true&JigyosyoCd=3671800567-00&ServiceCd=150&Type=search", "url2": null }, "geometry": { "type": "Point", "coordinates": [ 134.056203090213018, 33.955650516738409 ] } },
{ "type": "Feature", "properties": { "内容": "つるぎ町半田地域福祉センター【通所介護】徳島県美馬郡つるぎ町半田字小野５２１番地", "url": "https://www.kaigokensaku.mhlw.go.jp/36/index.php?action_kouhyou_detail_004_kani=true&JigyosyoCd=3671800542-00&ServiceCd=150&Type=search", "url2": null }, "geometry": { "type": "Point", "coordinates": [ 134.030159, 34.039043 ] } },
{ "type": "Feature", "properties": { "内容": "清寿会デイサービスセンターゆうま【通所介護】徳島県美馬郡つるぎ町貞光字中須賀６４番地３", "url": "https://www.kaigokensaku.mhlw.go.jp/36/index.php?action_kouhyou_detail_004_kani=true&JigyosyoCd=3671800146-00&ServiceCd=150&Type=search", "url2": "https://www.seijyukai.org/" }, "geometry": { "type": "Point", "coordinates": [ 134.065079200000014, 34.0400068 ] } },
{ "type": "Feature", "properties": { "内容": "東みよし町デイサービスセンターおおぐす荘【通所介護】徳島県三好郡東みよし町西庄字横手70", "url": "https://www.kaigokensaku.mhlw.go.jp/36/index.php?action_kouhyou_detail_004_kani=true&JigyosyoCd=3671900425-00&ServiceCd=150&Type=search", "url2": "http://shakyo.ict-tokushima.jp/higashimiyoshi/" }, "geometry": { "type": "Point", "coordinates": [ 133.939787199999955, 34.043435 ] } },
{ "type": "Feature", "properties": { "内容": "東みよし町デイサービスセンターさざんか荘【通所介護】徳島県三好郡東みよし町足代2979", "url": "https://www.kaigokensaku.mhlw.go.jp/36/index.php?action_kouhyou_detail_004_kani=true&JigyosyoCd=3671900433-00&ServiceCd=150&Type=search", "url2": "http://shakyo.ict-tokushima.jp/higashimiyoshi/" }, "geometry": { "type": "Point", "coordinates": [ 133.908615200000014, 34.0463152 ] } },
{ "type": "Feature", "properties": { "内容": "デイセンターバタフライ【通所介護】徳島県三好郡東みよし町中庄1653番地1", "url": "https://www.kaigokensaku.mhlw.go.jp/36/index.php?action_kouhyou_detail_004_kani=true&JigyosyoCd=3671900094-00&ServiceCd=150&Type=search", "url2": "http://www.kenshokai.group/" }, "geometry": { "type": "Point", "coordinates": [ 133.96081879999997, 34.0341557 ] } },
{ "type": "Feature", "properties": { "内容": "デイサービスいろり【通所介護】徳島県三好郡東みよし町足代字小原4590番地3住宅型有料老人ホーム　ふるさとの和", "url": "https://www.kaigokensaku.mhlw.go.jp/36/index.php?action_kouhyou_detail_004_kani=true&JigyosyoCd=3671900508-00&ServiceCd=150&Type=search", "url2": "https://care-net.biz/36/yuushin/" }, "geometry": { "type": "Point", "coordinates": [ 133.900743, 34.0556045 ] } }
]
}
