{
"type": "FeatureCollection",
"name": "geo_36_認知症対応型通所介護",
"crs": { "type": "name", "properties": { "name": "urn:ogc:def:crs:OGC:1.3:CRS84" } },
"features": [
{ "type": "Feature", "properties": { "内容": "ハートインライフ住吉【認知症対応型通所介護】徳島県徳島市住吉２丁目９番８", "url": "https://www.kaigokensaku.mhlw.go.jp/36/index.php?action_kouhyou_detail_004_kani=true&JigyosyoCd=3670101611-00&ServiceCd=720&Type=search", "url2": "http://www.heartfulcare.jp/" }, "geometry": { "type": "Point", "coordinates": [ 134.567809099999977, 34.076368700000017 ] } },
{ "type": "Feature", "properties": { "内容": "デイサービスセンターピア【認知症対応型通所介護】徳島県徳島市八万町大野５番地５特別養護老人ホームピア", "url": "https://www.kaigokensaku.mhlw.go.jp/36/index.php?action_kouhyou_detail_004_kani=true&JigyosyoCd=3670100050-00&ServiceCd=720&Type=search", "url2": "https://keirou-group.jp" }, "geometry": { "type": "Point", "coordinates": [ 134.5499855, 34.0438341 ] } },
{ "type": "Feature", "properties": { "内容": "宅老所こころ【認知症対応型通所介護】徳島県徳島市雑賀町西開２４－５３", "url": "https://www.kaigokensaku.mhlw.go.jp/36/index.php?action_kouhyou_detail_004_kani=true&JigyosyoCd=3690100064-00&ServiceCd=720&Type=search", "url2": "http://takurousho-kokoro.net" }, "geometry": { "type": "Point", "coordinates": [ 134.555774299999939, 34.0399841 ] } },
{ "type": "Feature", "properties": { "内容": "社会福祉法人　さわらび会【認知症対応型通所介護】徳島県徳島市名東町２丁目454", "url": "https://www.kaigokensaku.mhlw.go.jp/36/index.php?action_kouhyou_detail_004_kani=true&JigyosyoCd=3690168012-00&ServiceCd=720&Type=search", "url2": "http://www.sawarabikai.or.jp/" }, "geometry": { "type": "Point", "coordinates": [ 134.496137299999987, 34.0591148 ] } },
{ "type": "Feature", "properties": { "内容": "認知症対応デイサービスようこそ【認知症対応型通所介護】徳島県徳島市国府町芝原字南芝原４７番地", "url": "https://www.kaigokensaku.mhlw.go.jp/36/index.php?action_kouhyou_detail_004_kani=true&JigyosyoCd=3690100296-00&ServiceCd=720&Type=search", "url2": "http://www.taoka.or.jp/youkoso/" }, "geometry": { "type": "Point", "coordinates": [ 138.252924, 36.204824 ] } },
{ "type": "Feature", "properties": { "内容": "スローライフ春水【認知症対応型通所介護】徳島県徳島市名東町３丁目１３高齢者住宅春水", "url": "https://www.kaigokensaku.mhlw.go.jp/36/index.php?action_kouhyou_detail_004_kani=true&JigyosyoCd=3690100221-00&ServiceCd=720&Type=search", "url2": "https://kawauchi-clinic.jp/shunsui" }, "geometry": { "type": "Point", "coordinates": [ 134.495102, 34.0587365 ] } },
{ "type": "Feature", "properties": { "内容": "デイサービス然【認知症対応型通所介護】徳島県徳島市安宅2丁目6-9", "url": "https://www.kaigokensaku.mhlw.go.jp/36/index.php?action_kouhyou_detail_004_kani=true&JigyosyoCd=3690168020-00&ServiceCd=720&Type=search", "url2": "http:/ds-zen.link" }, "geometry": { "type": "Point", "coordinates": [ 134.574702800000011, 34.0704053 ] } },
{ "type": "Feature", "properties": { "内容": "デイセンターザトペック【認知症対応型通所介護】徳島県徳島市応神町古川字北36番地", "url": "https://www.kaigokensaku.mhlw.go.jp/36/index.php?action_kouhyou_detail_004_kani=true&JigyosyoCd=3690167931-00&ServiceCd=720&Type=search", "url2": "https://www.kenshokai.group/" }, "geometry": { "type": "Point", "coordinates": [ 134.5481072, 34.1067546 ] } },
{ "type": "Feature", "properties": { "内容": "光風会デイサービスセンター【認知症対応型通所介護】徳島県徳島市下町本丁５９－１９", "url": "https://www.kaigokensaku.mhlw.go.jp/36/index.php?action_kouhyou_detail_004_kani=true&JigyosyoCd=3670100027-00&ServiceCd=720&Type=search", "url2": "http://www.tk2.nmt.ne.jp/" }, "geometry": { "type": "Point", "coordinates": [ 134.486852699999986, 34.0366362 ] } },
{ "type": "Feature", "properties": { "内容": "デイサービスセンターおおつ【認知症対応型通所介護】徳島県鳴門市大津町大代字戎野472番地", "url": "https://www.kaigokensaku.mhlw.go.jp/36/index.php?action_kouhyou_detail_004_kani=true&JigyosyoCd=3670200462-00&ServiceCd=720&Type=search", "url2": "http://www.ryokujyukai.com" }, "geometry": { "type": "Point", "coordinates": [ 134.573879, 34.159638 ] } },
{ "type": "Feature", "properties": { "内容": "こもれびの家・撫養【認知症対応型通所介護】徳島県鳴門市撫養町南浜字浜田１３０番地", "url": "https://www.kaigokensaku.mhlw.go.jp/36/index.php?action_kouhyou_detail_004_kani=true&JigyosyoCd=3690200021-00&ServiceCd=720&Type=search", "url2": "http://www.ogawa-hp.jp" }, "geometry": { "type": "Point", "coordinates": [ 138.252924, 36.204824 ] } },
{ "type": "Feature", "properties": { "内容": "グループホームたんぽぽ【認知症対応型通所介護】徳島県小松島市坂野町字島の内101番地1", "url": "https://www.kaigokensaku.mhlw.go.jp/36/index.php?action_kouhyou_detail_004_kani=true&JigyosyoCd=3690300110-00&ServiceCd=720&Type=search", "url2": "http://fujino.ezdns.jp/" }, "geometry": { "type": "Point", "coordinates": [ 134.6301646, 33.9772516 ] } },
{ "type": "Feature", "properties": { "内容": "千歳苑認知症デイサービスセンター【認知症対応型通所介護】徳島県小松島市小松島町字元根井54番地1", "url": "https://www.kaigokensaku.mhlw.go.jp/36/index.php?action_kouhyou_detail_004_kani=true&JigyosyoCd=3690300029-00&ServiceCd=720&Type=search", "url2": "https://aishinkai-t.com/titoseen/" }, "geometry": { "type": "Point", "coordinates": [ 134.591159599999969, 34.0153574 ] } },
{ "type": "Feature", "properties": { "内容": "デイサービスセンター合歓の木【認知症対応型通所介護】徳島県阿南市新野町西馬場3-3", "url": "https://www.kaigokensaku.mhlw.go.jp/36/index.php?action_kouhyou_detail_004_kani=true&JigyosyoCd=3610410502-00&ServiceCd=720&Type=search", "url2": null }, "geometry": { "type": "Point", "coordinates": [ 134.580932499999989, 33.8476808 ] } },
{ "type": "Feature", "properties": { "内容": "ロイヤルケアセンター認知症対応型通所介護事業所【認知症対応型通所介護】徳島県阿南市羽ノ浦町中庄池ノ上55-1", "url": "https://www.kaigokensaku.mhlw.go.jp/36/index.php?action_kouhyou_detail_004_kani=true&JigyosyoCd=3690400019-00&ServiceCd=720&Type=search", "url2": "http://royal-carecenter.main.jp/" }, "geometry": { "type": "Point", "coordinates": [ 134.635647022080519, 33.95789139797467 ] } },
{ "type": "Feature", "properties": { "内容": "デイサービスセンター花乃苑【認知症対応型通所介護】徳島県阿南市羽ノ浦町中庄大久保78", "url": "https://www.kaigokensaku.mhlw.go.jp/36/index.php?action_kouhyou_detail_004_kani=true&JigyosyoCd=3671300428-00&ServiceCd=720&Type=search", "url2": "https://hananoen-group.com" }, "geometry": { "type": "Point", "coordinates": [ 134.6408489, 33.9507352 ] } },
{ "type": "Feature", "properties": { "内容": "健祥会デイサービスセンター【認知症対応型通所介護】徳島県吉野川市川島町桑村３６８番地１", "url": "https://www.kaigokensaku.mhlw.go.jp/36/index.php?action_kouhyou_detail_004_kani=true&JigyosyoCd=3691700052-00&ServiceCd=720&Type=search", "url2": "https://www.kenshokai.group/" }, "geometry": { "type": "Point", "coordinates": [ 138.252924, 36.204824 ] } },
{ "type": "Feature", "properties": { "内容": "デイサービスセンター　あい【認知症対応型通所介護】徳島県海部郡牟岐町大字川長字山戸４５番地", "url": "https://www.kaigokensaku.mhlw.go.jp/36/index.php?action_kouhyou_detail_004_kani=true&JigyosyoCd=3671400160-00&ServiceCd=720&Type=search", "url2": "http://www.wakahokai.com" }, "geometry": { "type": "Point", "coordinates": [ 134.423188399999958, 33.6755584 ] } },
{ "type": "Feature", "properties": { "内容": "デイサービスセンター　ぽかぽか【認知症対応型通所介護】徳島県海部郡海陽町久保字板取12-1", "url": "https://www.kaigokensaku.mhlw.go.jp/36/index.php?action_kouhyou_detail_004_kani=true&JigyosyoCd=3671400236-00&ServiceCd=720&Type=search", "url2": "http://orino.jp" }, "geometry": { "type": "Point", "coordinates": [ 134.3055958, 33.5698018 ] } },
{ "type": "Feature", "properties": { "内容": "デイサービス　まぜの里【認知症対応型通所介護】徳島県海部郡海陽町大里字吉尾110-4", "url": "https://www.kaigokensaku.mhlw.go.jp/36/index.php?action_kouhyou_detail_004_kani=true&JigyosyoCd=3671400210-00&ServiceCd=720&Type=search", "url2": null }, "geometry": { "type": "Point", "coordinates": [ 134.366823100000033, 33.6144163 ] } }
]
}
