{
"type": "FeatureCollection",
"name": "geo_36_訪問入浴介護",
"crs": { "type": "name", "properties": { "name": "urn:ogc:def:crs:OGC:1.3:CRS84" } },
"features": [
{ "type": "Feature", "properties": { "内容": "ワールド・メディカル訪問入浴介護事業所【訪問入浴介護】徳島県徳島市春日二丁目7-15-3", "url": "https://www.kaigokensaku.mhlw.go.jp/36/index.php?action_kouhyou_detail_004_kani=true&JigyosyoCd=3670105802-00&ServiceCd=120&Type=search", "url2": "worldmedical-ltd.com" }, "geometry": { "type": "Point", "coordinates": [ 134.528910599999989, 34.0932563 ] } },
{ "type": "Feature", "properties": { "内容": "アースサポート徳島【訪問入浴介護】徳島県徳島市徳島町城内6番地の82原田ビル　1階", "url": "https://www.kaigokensaku.mhlw.go.jp/36/index.php?action_kouhyou_detail_004_kani=true&JigyosyoCd=3670102858-00&ServiceCd=120&Type=search", "url2": "http://www.earthsupport.co.jp" }, "geometry": { "type": "Point", "coordinates": [ 134.549388499999964, 34.0775387 ] } },
{ "type": "Feature", "properties": { "内容": "セントケア徳島【訪問入浴介護】徳島県徳島市山城西3丁目20", "url": "https://www.kaigokensaku.mhlw.go.jp/36/index.php?action_kouhyou_detail_004_kani=true&JigyosyoCd=3670103286-00&ServiceCd=120&Type=search", "url2": "http://www.sait-care.com/" }, "geometry": { "type": "Point", "coordinates": [ 134.556238524853512, 34.050372007383245 ] } },
{ "type": "Feature", "properties": { "内容": "徳島訪問入浴サービス【訪問入浴介護】徳島県徳島市万代町5丁目71－4", "url": "https://www.kaigokensaku.mhlw.go.jp/36/index.php?action_kouhyou_detail_004_kani=true&JigyosyoCd=3670105182-00&ServiceCd=120&Type=search", "url2": null }, "geometry": { "type": "Point", "coordinates": [ 134.565635871769871, 34.064479754426472 ] } },
{ "type": "Feature", "properties": { "内容": "あおぞら訪問入浴事業所【訪問入浴介護】徳島県鳴門市撫養町木津字町の南907番地4", "url": "https://www.kaigokensaku.mhlw.go.jp/36/index.php?action_kouhyou_detail_004_kani=true&JigyosyoCd=3670200330-00&ServiceCd=120&Type=search", "url2": null }, "geometry": { "type": "Point", "coordinates": [ 134.585341916137992, 34.169263233393629 ] } },
{ "type": "Feature", "properties": { "内容": "セントケア阿南【訪問入浴介護】徳島県阿南市津乃峰町東分100-7ベイシャトー1階", "url": "https://www.kaigokensaku.mhlw.go.jp/36/index.php?action_kouhyou_detail_004_kani=true&JigyosyoCd=3670400963-00&ServiceCd=120&Type=search", "url2": "http://www.saint-care.com/" }, "geometry": { "type": "Point", "coordinates": [ 134.6520797, 33.8869676 ] } },
{ "type": "Feature", "properties": { "内容": "セントケア吉野川【訪問入浴介護】徳島県吉野川市川島町三ツ島字北新田482", "url": "https://www.kaigokensaku.mhlw.go.jp/36/index.php?action_kouhyou_detail_004_kani=true&JigyosyoCd=3670500291-00&ServiceCd=120&Type=search", "url2": null }, "geometry": { "type": "Point", "coordinates": [ 134.278743488304144, 34.063836579498684 ] } },
{ "type": "Feature", "properties": { "内容": "三好市訪問入浴サービス【訪問入浴介護】三好市西祖谷山村一宇343-4西祖谷老人福祉センター", "url": "https://www.kaigokensaku.mhlw.go.jp/36/index.php?action_kouhyou_detail_004_kani=true&JigyosyoCd=3670600380-00&ServiceCd=120&Type=search", "url2": "http://miyoshicity-shakyo.jp/" }, "geometry": { "type": "Point", "coordinates": [ 133.816706900000014, 33.8932963 ] } },
{ "type": "Feature", "properties": { "内容": "永楽荘在宅介護支援センター【訪問入浴介護】徳島県三好市池田町州津西ノ久保２７３－１永楽荘在宅介護支援センター", "url": "https://www.kaigokensaku.mhlw.go.jp/36/index.php?action_kouhyou_detail_004_kani=true&JigyosyoCd=3671900243-00&ServiceCd=120&Type=search", "url2": "https://www.ikeda-hakuaikai.org/" }, "geometry": { "type": "Point", "coordinates": [ 133.840081700000042, 34.0346411 ] } },
{ "type": "Feature", "properties": { "内容": "神山町社会福祉協議会　訪問入浴介護事業所【訪問入浴介護】徳島県名西郡神山町神領字本上角９３番地１", "url": "https://www.kaigokensaku.mhlw.go.jp/36/index.php?action_kouhyou_detail_004_kani=true&JigyosyoCd=3671200081-00&ServiceCd=120&Type=search", "url2": "https://kamiyama-shakyo.or.jp/" }, "geometry": { "type": "Point", "coordinates": [ 134.370222199999944, 33.9723628 ] } },
{ "type": "Feature", "properties": { "内容": "凌雲ヘルパーステーション【訪問入浴介護】徳島県板野郡藍住町矢上字安任156-1", "url": "https://www.kaigokensaku.mhlw.go.jp/36/index.php?action_kouhyou_detail_004_kani=true&JigyosyoCd=3671500050-00&ServiceCd=120&Type=search", "url2": "http.//www.ryoun.com" }, "geometry": { "type": "Point", "coordinates": [ 134.49742, 34.1374337 ] } }
]
}
