{
"type": "FeatureCollection",
"name": "geo_36_中学校",
"crs": { "type": "name", "properties": { "name": "urn:ogc:def:crs:EPSG::6668" } },
"features": [
{ "type": "Feature", "properties": { "P29_001": "36201", "P29_002": "C136110000017", "P29_003": "16002", "P29_004": "鳴門教育大学附属中学校", "P29_005": "徳島県徳島市中吉野町1-31", "P29_006": "1", "P29_007": "1", "P29_008": "00", "P29_009": null }, "geometry": { "type": "Point", "coordinates": [ 134.557091267868174, 34.08442162724802 ] } },
{ "type": "Feature", "properties": { "P29_001": "36201", "P29_002": "C136220100013", "P29_003": "16002", "P29_004": "徳島市徳島中学校", "P29_005": "徳島県徳島市中前川町3-16", "P29_006": "3", "P29_007": "1", "P29_008": "00", "P29_009": null }, "geometry": { "type": "Point", "coordinates": [ 134.553046593008162, 34.079955147360252 ] } },
{ "type": "Feature", "properties": { "P29_001": "36201", "P29_002": "C136220100022", "P29_003": "16002", "P29_004": "徳島市城西中学校", "P29_005": "徳島県徳島市南矢三町2-7-77", "P29_006": "3", "P29_007": "1", "P29_008": "00", "P29_009": null }, "geometry": { "type": "Point", "coordinates": [ 134.526959000939314, 34.081615001305032 ] } },
{ "type": "Feature", "properties": { "P29_001": "36201", "P29_002": "C136220100031", "P29_003": "16002", "P29_004": "徳島市富田中学校", "P29_005": "徳島県徳島市中昭和町3-77", "P29_006": "3", "P29_007": "1", "P29_008": "00", "P29_009": null }, "geometry": { "type": "Point", "coordinates": [ 134.558556710069865, 34.059967149592957 ] } },
{ "type": "Feature", "properties": { "P29_001": "36201", "P29_002": "C136220100040", "P29_003": "16002", "P29_004": "徳島市城東中学校", "P29_005": "徳島県徳島市安宅3-2-76", "P29_006": "3", "P29_007": "1", "P29_008": "00", "P29_009": null }, "geometry": { "type": "Point", "coordinates": [ 134.577425879423714, 34.069870667842501 ] } },
{ "type": "Feature", "properties": { "P29_001": "36201", "P29_002": "C136220100059", "P29_003": "16002", "P29_004": "徳島市津田中学校", "P29_005": "徳島県徳島市津田西町2-2-14", "P29_006": "3", "P29_007": "1", "P29_008": "00", "P29_009": null }, "geometry": { "type": "Point", "coordinates": [ 134.575527901820465, 34.048712609158102 ] } },
{ "type": "Feature", "properties": { "P29_001": "36201", "P29_002": "C136220100068", "P29_003": "16002", "P29_004": "徳島市加茂名中学校", "P29_005": "徳島県徳島市庄町1-76-1", "P29_006": "3", "P29_007": "1", "P29_008": "00", "P29_009": null }, "geometry": { "type": "Point", "coordinates": [ 134.511900866103758, 34.073384768285734 ] } },
{ "type": "Feature", "properties": { "P29_001": "36201", "P29_002": "C136220100077", "P29_003": "16002", "P29_004": "徳島市八万中学校", "P29_005": "徳島県徳島市城南町3-4-22", "P29_006": "3", "P29_007": "1", "P29_008": "00", "P29_009": null }, "geometry": { "type": "Point", "coordinates": [ 134.538817524453265, 34.053713418193425 ] } },
{ "type": "Feature", "properties": { "P29_001": "36201", "P29_002": "C136220100086", "P29_003": "16002", "P29_004": "徳島市南部中学校", "P29_005": "徳島県徳島市勝占町外敷地62", "P29_006": "3", "P29_007": "1", "P29_008": "00", "P29_009": null }, "geometry": { "type": "Point", "coordinates": [ 134.556373995923536, 34.017040003033202 ] } },
{ "type": "Feature", "properties": { "P29_001": "36201", "P29_002": "C136220100095", "P29_003": "16002", "P29_004": "徳島市不動中学校", "P29_005": "徳島県徳島市不動本町2-124", "P29_006": "3", "P29_007": "1", "P29_008": "00", "P29_009": null }, "geometry": { "type": "Point", "coordinates": [ 134.507729818791631, 34.097409737331937 ] } },
{ "type": "Feature", "properties": { "P29_001": "36201", "P29_002": "C136220100102", "P29_003": "16002", "P29_004": "徳島市上八万中学校", "P29_005": "徳島県徳島市下町本丁131", "P29_006": "3", "P29_007": "1", "P29_008": "00", "P29_009": null }, "geometry": { "type": "Point", "coordinates": [ 134.483206506342867, 34.036906229685727 ] } },
{ "type": "Feature", "properties": { "P29_001": "36201", "P29_002": "C136220100111", "P29_003": "16002", "P29_004": "徳島市入田中学校", "P29_005": "徳島県徳島市入田町春日181-1", "P29_006": "3", "P29_007": "1", "P29_008": "00", "P29_009": null }, "geometry": { "type": "Point", "coordinates": [ 134.442079000441908, 34.041813004427503 ] } },
{ "type": "Feature", "properties": { "P29_001": "36201", "P29_002": "C136220100120", "P29_003": "16002", "P29_004": "徳島市川内中学校", "P29_005": "徳島県徳島市川内町竹須賀151", "P29_006": "3", "P29_007": "1", "P29_008": "00", "P29_009": null }, "geometry": { "type": "Point", "coordinates": [ 134.574148052746921, 34.10811844416596 ] } },
{ "type": "Feature", "properties": { "P29_001": "36201", "P29_002": "C136220100139", "P29_003": "16002", "P29_004": "徳島市応神中学校", "P29_005": "徳島県徳島市応神町吉成字長田130-1", "P29_006": "3", "P29_007": "1", "P29_008": "00", "P29_009": null }, "geometry": { "type": "Point", "coordinates": [ 134.530102266092086, 34.112950590064592 ] } },
{ "type": "Feature", "properties": { "P29_001": "36201", "P29_002": "C136220100148", "P29_003": "16002", "P29_004": "徳島市国府中学校", "P29_005": "徳島県徳島市国府町府中68-1", "P29_006": "3", "P29_007": "1", "P29_008": "00", "P29_009": null }, "geometry": { "type": "Point", "coordinates": [ 134.483671832687463, 34.070937470252147 ] } },
{ "type": "Feature", "properties": { "P29_001": "36201", "P29_002": "C136220100157", "P29_003": "16002", "P29_004": "徳島市北井上中学校", "P29_005": "徳島県徳島市国府町西黒田字南傍示202", "P29_006": "3", "P29_007": "1", "P29_008": "00", "P29_009": null }, "geometry": { "type": "Point", "coordinates": [ 134.465642016634405, 34.097688469864913 ] } },
{ "type": "Feature", "properties": { "P29_001": "36201", "P29_002": "C136220100166", "P29_003": "16002", "P29_004": "徳島県立しらさぎ中学校", "P29_005": "徳島県徳島市北矢三町1-3-8", "P29_006": "2", "P29_007": "1", "P29_008": "00", "P29_009": null }, "geometry": { "type": "Point", "coordinates": [ 134.526857415364674, 34.088078128952503 ] } },
{ "type": "Feature", "properties": { "P29_001": "36202", "P29_002": "C136220200012", "P29_003": "16002", "P29_004": "鳴門市第一中学校", "P29_005": "徳島県鳴門市撫養町南浜字浜田37-1", "P29_006": "3", "P29_007": "1", "P29_008": "00", "P29_009": null }, "geometry": { "type": "Point", "coordinates": [ 134.605613342290241, 34.172507372268505 ] } },
{ "type": "Feature", "properties": { "P29_001": "36202", "P29_002": "C136220200021", "P29_003": "16002", "P29_004": "鳴門市第二中学校", "P29_005": "徳島県鳴門市撫養町立岩字内田150", "P29_006": "3", "P29_007": "1", "P29_008": "00", "P29_009": null }, "geometry": { "type": "Point", "coordinates": [ 134.621861525574815, 34.176699045321236 ] } },
{ "type": "Feature", "properties": { "P29_001": "36202", "P29_002": "C136220200030", "P29_003": "16002", "P29_004": "鳴門市鳴門中学校", "P29_005": "徳島県鳴門市鳴門町三ツ石字芙蓉山下251", "P29_006": "3", "P29_007": "1", "P29_008": "00", "P29_009": null }, "geometry": { "type": "Point", "coordinates": [ 134.610189865353448, 34.202881293195624 ] } },
{ "type": "Feature", "properties": { "P29_001": "36202", "P29_002": "C136220200049", "P29_003": "16002", "P29_004": "鳴門市立瀬戸中学校", "P29_005": "徳島県鳴門市瀬戸町堂浦字地廻り壱96-4", "P29_006": "3", "P29_007": "1", "P29_008": "00", "P29_009": null }, "geometry": { "type": "Point", "coordinates": [ 134.584706741588462, 34.215121673715984 ] } },
{ "type": "Feature", "properties": { "P29_001": "36202", "P29_002": "C136220200058", "P29_003": "16002", "P29_004": "鳴門市大麻中学校", "P29_005": "徳島県鳴門市大麻町池谷字長田105", "P29_006": "3", "P29_007": "1", "P29_008": "00", "P29_009": null }, "geometry": { "type": "Point", "coordinates": [ 134.528497006843679, 34.157355581342564 ] } },
{ "type": "Feature", "properties": { "P29_001": "36202", "P29_002": "C136220200067", "P29_003": "16002", "P29_004": "鳴門市大麻中学校広塚分校", "P29_005": "徳島県鳴門市大麻町板東字広塚42", "P29_006": "3", "P29_007": "1", "P29_008": "00", "P29_009": null }, "geometry": { "type": "Point", "coordinates": [ 134.50652902168909, 34.174212067654501 ] } },
{ "type": "Feature", "properties": { "P29_001": "36203", "P29_002": "C136220300011", "P29_003": "16002", "P29_004": "小松島市小松島中学校", "P29_005": "徳島県小松島市日開野町字弥三次3-1", "P29_006": "3", "P29_007": "1", "P29_008": "00", "P29_009": null }, "geometry": { "type": "Point", "coordinates": [ 134.576721547981151, 34.002691319754241 ] } },
{ "type": "Feature", "properties": { "P29_001": "36203", "P29_002": "C136220300020", "P29_003": "16002", "P29_004": "小松島南中学校", "P29_005": "徳島県小松島市立江町字赤石78-2", "P29_006": "3", "P29_007": "1", "P29_008": "00", "P29_009": null }, "geometry": { "type": "Point", "coordinates": [ 134.606481003495219, 33.978625003183623 ] } },
{ "type": "Feature", "properties": { "P29_001": "36204", "P29_002": "C136220400010", "P29_003": "16002", "P29_004": "徳島県立富岡東中学校", "P29_005": "徳島県阿南市領家町走寄102-2", "P29_006": "2", "P29_007": "1", "P29_008": "00", "P29_009": null }, "geometry": { "type": "Point", "coordinates": [ 134.664937769158485, 33.921550912217945 ] } },
{ "type": "Feature", "properties": { "P29_001": "36204", "P29_002": "C136220400029", "P29_003": "16002", "P29_004": "阿南市立阿南中学校", "P29_005": "徳島県阿南市見能林町南勘高1", "P29_006": "3", "P29_007": "1", "P29_008": "00", "P29_009": null }, "geometry": { "type": "Point", "coordinates": [ 134.665473565080362, 33.90571919935887 ] } },
{ "type": "Feature", "properties": { "P29_001": "36204", "P29_002": "C136220400038", "P29_003": "16002", "P29_004": "阿南市立阿南第一中学校", "P29_005": "徳島県阿南市長生町西方589", "P29_006": "3", "P29_007": "1", "P29_008": "00", "P29_009": null }, "geometry": { "type": "Point", "coordinates": [ 134.624738196808352, 33.92670017580285 ] } },
{ "type": "Feature", "properties": { "P29_001": "36204", "P29_002": "C136220400047", "P29_003": "16002", "P29_004": "阿南市立加茂谷中学校", "P29_005": "徳島県阿南市加茂町南不け1", "P29_006": "3", "P29_007": "1", "P29_008": "00", "P29_009": null }, "geometry": { "type": "Point", "coordinates": [ 134.550289615434224, 33.914073981375253 ] } },
{ "type": "Feature", "properties": { "P29_001": "36204", "P29_002": "C136220400056", "P29_003": "16002", "P29_004": "阿南市立福井中学校", "P29_005": "徳島県阿南市福井町大西141", "P29_006": "3", "P29_007": "1", "P29_008": "00", "P29_009": null }, "geometry": { "type": "Point", "coordinates": [ 134.622995949145576, 33.838683358071833 ] } },
{ "type": "Feature", "properties": { "P29_001": "36204", "P29_002": "C136220400065", "P29_003": "16002", "P29_004": "阿南市立椿町中学校", "P29_005": "徳島県阿南市椿町宮ヶ谷23", "P29_006": "3", "P29_007": "1", "P29_008": "00", "P29_009": null }, "geometry": { "type": "Point", "coordinates": [ 134.681216523492253, 33.834305109236325 ] } },
{ "type": "Feature", "properties": { "P29_001": "36204", "P29_002": "C136220400074", "P29_003": "16002", "P29_004": "阿南市立伊島中学校", "P29_005": "徳島県阿南市伊島町瀬戸3", "P29_006": "3", "P29_007": "9", "P29_008": "00", "P29_009": null }, "geometry": { "type": "Point", "coordinates": [ 134.809154005755119, 33.844563000946714 ] } },
{ "type": "Feature", "properties": { "P29_001": "36204", "P29_002": "C136220400083", "P29_003": "16002", "P29_004": "阿南市立新野中学校", "P29_005": "徳島県阿南市新野町馬見21", "P29_006": "3", "P29_007": "1", "P29_008": "00", "P29_009": null }, "geometry": { "type": "Point", "coordinates": [ 134.579828602059564, 33.844446323983554 ] } },
{ "type": "Feature", "properties": { "P29_001": "36204", "P29_002": "C136220400092", "P29_003": "16002", "P29_004": "阿南市立阿南第二中学校", "P29_005": "徳島県阿南市内原町竹ノ内口143-1", "P29_006": "3", "P29_007": "1", "P29_008": "00", "P29_009": null }, "geometry": { "type": "Point", "coordinates": [ 134.628217190286847, 33.876813653848835 ] } },
{ "type": "Feature", "properties": { "P29_001": "36204", "P29_002": "C136220400109", "P29_003": "16002", "P29_004": "阿南市立那賀川中学校", "P29_005": "徳島県阿南市那賀川町苅屋370-1", "P29_006": "3", "P29_007": "1", "P29_008": "00", "P29_009": null }, "geometry": { "type": "Point", "coordinates": [ 134.662613832989791, 33.948775890912025 ] } },
{ "type": "Feature", "properties": { "P29_001": "36204", "P29_002": "C136220400118", "P29_003": "16002", "P29_004": "阿南市立羽ノ浦中学校", "P29_005": "徳島県阿南市羽ノ浦町宮倉沢田154", "P29_006": "3", "P29_007": "1", "P29_008": "00", "P29_009": null }, "geometry": { "type": "Point", "coordinates": [ 134.617449001877219, 33.953673998628716 ] } },
{ "type": "Feature", "properties": { "P29_001": "36205", "P29_002": "C136220500019", "P29_003": "16002", "P29_004": "徳島県立川島中学校", "P29_005": "徳島県吉野川市川島町桑村367-3", "P29_006": "2", "P29_007": "1", "P29_008": "00", "P29_009": null }, "geometry": { "type": "Point", "coordinates": [ 134.324685159184412, 34.05950934905794 ] } },
{ "type": "Feature", "properties": { "P29_001": "36205", "P29_002": "C136220500028", "P29_003": "16002", "P29_004": "吉野川市立鴨島東中学校", "P29_005": "徳島県吉野川市鴨島町麻植塚215-3", "P29_006": "3", "P29_007": "1", "P29_008": "00", "P29_009": null }, "geometry": { "type": "Point", "coordinates": [ 134.375634305378497, 34.069361000582646 ] } },
{ "type": "Feature", "properties": { "P29_001": "36205", "P29_002": "C136220500037", "P29_003": "16002", "P29_004": "吉野川市立鴨島第一中学校", "P29_005": "徳島県吉野川市鴨島町鴨島633-2", "P29_006": "3", "P29_007": "1", "P29_008": "00", "P29_009": null }, "geometry": { "type": "Point", "coordinates": [ 134.347802459745083, 34.075068441114134 ] } },
{ "type": "Feature", "properties": { "P29_001": "36205", "P29_002": "C136220500046", "P29_003": "16002", "P29_004": "吉野川市立川島中学校", "P29_005": "徳島県吉野川市川島町桑村2558", "P29_006": "3", "P29_007": "1", "P29_008": "00", "P29_009": null }, "geometry": { "type": "Point", "coordinates": [ 134.30271366148159, 34.059030070000027 ] } },
{ "type": "Feature", "properties": { "P29_001": "36205", "P29_002": "C136220500055", "P29_003": "16002", "P29_004": "吉野川市立山川中学校", "P29_005": "徳島県吉野川市山川町前川261", "P29_006": "3", "P29_007": "1", "P29_008": "00", "P29_009": null }, "geometry": { "type": "Point", "coordinates": [ 134.233331048217963, 34.061604363421608 ] } },
{ "type": "Feature", "properties": { "P29_001": "36206", "P29_002": "C136220600018", "P29_003": "16002", "P29_004": "阿波市立吉野中学校", "P29_005": "徳島県阿波市吉野町西条字大西4-1", "P29_006": "3", "P29_007": "1", "P29_008": "00", "P29_009": null }, "geometry": { "type": "Point", "coordinates": [ 134.369829127969211, 34.098959666460921 ] } },
{ "type": "Feature", "properties": { "P29_001": "36206", "P29_002": "C136220600027", "P29_003": "16002", "P29_004": "阿波市立土成中学校", "P29_005": "徳島県阿波市土成町吉田字一本松の二42", "P29_006": "3", "P29_007": "1", "P29_008": "00", "P29_009": null }, "geometry": { "type": "Point", "coordinates": [ 134.348176998509729, 34.113729997464304 ] } },
{ "type": "Feature", "properties": { "P29_001": "36206", "P29_002": "C136220600036", "P29_003": "16002", "P29_004": "阿波市立市場中学校", "P29_005": "徳島県阿波市市場町市場字上野段6-3", "P29_006": "3", "P29_007": "1", "P29_008": "00", "P29_009": null }, "geometry": { "type": "Point", "coordinates": [ 134.286983087467888, 34.098816230170627 ] } },
{ "type": "Feature", "properties": { "P29_001": "36206", "P29_002": "C136220600045", "P29_003": "16002", "P29_004": "阿波市立阿波中学校", "P29_005": "徳島県阿波市阿波町東原230-1", "P29_006": "3", "P29_007": "1", "P29_008": "00", "P29_009": null }, "geometry": { "type": "Point", "coordinates": [ 134.235364003070373, 34.085798003998569 ] } },
{ "type": "Feature", "properties": { "P29_001": "36207", "P29_002": "C136220700017", "P29_003": "16002", "P29_004": "美馬市立江原中学校", "P29_005": "徳島県美馬市脇町字曽江名359-41", "P29_006": "3", "P29_007": "1", "P29_008": "00", "P29_009": null }, "geometry": { "type": "Point", "coordinates": [ 134.171934764975333, 34.089631063329605 ] } },
{ "type": "Feature", "properties": { "P29_001": "36207", "P29_002": "C136220700026", "P29_003": "16002", "P29_004": "美馬市立脇町中学校", "P29_005": "徳島県美馬市脇町大字猪尻字西ノ久保78", "P29_006": "3", "P29_007": "1", "P29_008": "00", "P29_009": null }, "geometry": { "type": "Point", "coordinates": [ 134.153583749110254, 34.070343228692543 ] } },
{ "type": "Feature", "properties": { "P29_001": "36207", "P29_002": "C136220700035", "P29_003": "16002", "P29_004": "美馬市立岩倉中学校", "P29_005": "徳島県美馬市脇町別所3406", "P29_006": "3", "P29_007": "1", "P29_008": "00", "P29_009": null }, "geometry": { "type": "Point", "coordinates": [ 134.107786994644783, 34.061538003552336 ] } },
{ "type": "Feature", "properties": { "P29_001": "36207", "P29_002": "C136220700044", "P29_003": "16002", "P29_004": "美馬市立美馬中学校", "P29_005": "徳島県美馬市美馬町字谷ヨリ西68", "P29_006": "3", "P29_007": "1", "P29_008": "00", "P29_009": null }, "geometry": { "type": "Point", "coordinates": [ 134.049029715523773, 34.053078455904355 ] } },
{ "type": "Feature", "properties": { "P29_001": "36207", "P29_002": "C136220700053", "P29_003": "16002", "P29_004": "美馬市立三島中学校", "P29_005": "徳島県美馬市穴吹町三島字三谷356", "P29_006": "3", "P29_007": "1", "P29_008": "00", "P29_009": null }, "geometry": { "type": "Point", "coordinates": [ 134.127854345581568, 34.055356893989092 ] } },
{ "type": "Feature", "properties": { "P29_001": "36207", "P29_002": "C136220700062", "P29_003": "16002", "P29_004": "美馬市立穴吹中学校", "P29_005": "徳島県美馬市穴吹町穴吹字井口23", "P29_006": "3", "P29_007": "1", "P29_008": "00", "P29_009": null }, "geometry": { "type": "Point", "coordinates": [ 134.167354272657263, 34.043871855229085 ] } },
{ "type": "Feature", "properties": { "P29_001": "36207", "P29_002": "C136220700071", "P29_003": "16002", "P29_004": "美馬市立木屋平中学校", "P29_005": "徳島県美馬市木屋平字谷口235-1", "P29_006": "3", "P29_007": "1", "P29_008": "00", "P29_009": null }, "geometry": { "type": "Point", "coordinates": [ 134.175710069380813, 33.9150766960353 ] } },
{ "type": "Feature", "properties": { "P29_001": "36208", "P29_002": "C136220800016", "P29_003": "16002", "P29_004": "三好市立三野中学校", "P29_005": "徳島県三好市三野町芝生1232", "P29_006": "3", "P29_007": "1", "P29_008": "00", "P29_009": null }, "geometry": { "type": "Point", "coordinates": [ 133.966661179015489, 34.040924407144075 ] } },
{ "type": "Feature", "properties": { "P29_001": "36208", "P29_002": "C136220800025", "P29_003": "16002", "P29_004": "三好市立池田中学校", "P29_005": "徳島県三好市池田町ウエノ2861-1", "P29_006": "3", "P29_007": "1", "P29_008": "00", "P29_009": null }, "geometry": { "type": "Point", "coordinates": [ 133.808187027390773, 34.031125490077137 ] } },
{ "type": "Feature", "properties": { "P29_001": "36208", "P29_002": "C136220800034", "P29_003": "16002", "P29_004": "三好市立山城中学校", "P29_005": "徳島県三好市山城町大川持544", "P29_006": "3", "P29_007": "1", "P29_008": "00", "P29_009": null }, "geometry": { "type": "Point", "coordinates": [ 133.748332956537723, 33.960438272935939 ] } },
{ "type": "Feature", "properties": { "P29_001": "36208", "P29_002": "C136220800043", "P29_003": "16002", "P29_004": "三好市立井川中学校", "P29_005": "徳島県三好市井川町タクミ田100-2", "P29_006": "3", "P29_007": "1", "P29_008": "00", "P29_009": null }, "geometry": { "type": "Point", "coordinates": [ 133.867734924837777, 34.029008190792375 ] } },
{ "type": "Feature", "properties": { "P29_001": "36208", "P29_002": "C136220800052", "P29_003": "16002", "P29_004": "三好市立東祖谷中学校", "P29_005": "徳島県三好市東祖谷下瀬12-1", "P29_006": "3", "P29_007": "1", "P29_008": "00", "P29_009": null }, "geometry": { "type": "Point", "coordinates": [ 133.921839305173847, 33.874975877279248 ] } },
{ "type": "Feature", "properties": { "P29_001": "36208", "P29_002": "C136220800061", "P29_003": "16002", "P29_004": "三好市立西祖谷中学校", "P29_005": "徳島県三好市西祖谷山村東西岡10", "P29_006": "3", "P29_007": "1", "P29_008": "00", "P29_009": null }, "geometry": { "type": "Point", "coordinates": [ 133.778428646122478, 33.881923823853256 ] } },
{ "type": "Feature", "properties": { "P29_001": "36301", "P29_002": "C136230100012", "P29_003": "16002", "P29_004": "勝浦町立勝浦中学校", "P29_005": "徳島県勝浦郡勝浦町大字久国字久保田45-1", "P29_006": "3", "P29_007": "1", "P29_008": "00", "P29_009": null }, "geometry": { "type": "Point", "coordinates": [ 134.510875668995567, 33.933446120516756 ] } },
{ "type": "Feature", "properties": { "P29_001": "36302", "P29_002": "C136230200011", "P29_003": "16002", "P29_004": "上勝町立上勝中学校", "P29_005": "徳島県勝浦郡上勝町大字生実字東戸越73", "P29_006": "3", "P29_007": "1", "P29_008": "00", "P29_009": null }, "geometry": { "type": "Point", "coordinates": [ 134.40366576279888, 33.896333577130392 ] } },
{ "type": "Feature", "properties": { "P29_001": "36321", "P29_002": "C136232100018", "P29_003": "16002", "P29_004": "佐那河内村立佐那河内中学校", "P29_005": "徳島県名東郡佐那河内村下字中川原30", "P29_006": "3", "P29_007": "1", "P29_008": "00", "P29_009": null }, "geometry": { "type": "Point", "coordinates": [ 134.455155817597387, 33.992294775852713 ] } },
{ "type": "Feature", "properties": { "P29_001": "36341", "P29_002": "C136234100014", "P29_003": "16002", "P29_004": "石井町石井中学校", "P29_005": "徳島県名西郡石井町高川原字高川原125-1", "P29_006": "3", "P29_007": "1", "P29_008": "00", "P29_009": null }, "geometry": { "type": "Point", "coordinates": [ 134.439662003274975, 34.074446998430943 ] } },
{ "type": "Feature", "properties": { "P29_001": "36341", "P29_002": "C136234100023", "P29_003": "16002", "P29_004": "石井町高浦中学校", "P29_005": "徳島県名西郡石井町浦庄字国実100", "P29_006": "3", "P29_007": "1", "P29_008": "00", "P29_009": null }, "geometry": { "type": "Point", "coordinates": [ 134.420823652177631, 34.076377687880871 ] } },
{ "type": "Feature", "properties": { "P29_001": "36342", "P29_002": "C136234200013", "P29_003": "16002", "P29_004": "名西郡神山町神山中学校", "P29_005": "徳島県名西郡神山町神領字西上角175-1", "P29_006": "3", "P29_007": "1", "P29_008": "00", "P29_009": null }, "geometry": { "type": "Point", "coordinates": [ 134.359652700569399, 33.969507094737565 ] } },
{ "type": "Feature", "properties": { "P29_001": "36368", "P29_002": "C136236800012", "P29_003": "16002", "P29_004": "那賀町立鷲敷中学校", "P29_005": "徳島県那賀郡那賀町和食郷字南川119", "P29_006": "3", "P29_007": "1", "P29_008": "00", "P29_009": null }, "geometry": { "type": "Point", "coordinates": [ 134.49474998284029, 33.85740846766425 ] } },
{ "type": "Feature", "properties": { "P29_001": "36368", "P29_002": "C136236800021", "P29_003": "16002", "P29_004": "那賀町立相生中学校", "P29_005": "徳島県那賀郡那賀町延野字大原100", "P29_006": "3", "P29_007": "1", "P29_008": "00", "P29_009": null }, "geometry": { "type": "Point", "coordinates": [ 134.482342637103613, 33.821436654504204 ] } },
{ "type": "Feature", "properties": { "P29_001": "36368", "P29_002": "C136236800030", "P29_003": "16002", "P29_004": "那賀町立上那賀中学校", "P29_005": "徳島県那賀郡那賀町小浜197", "P29_006": "3", "P29_007": "1", "P29_008": "00", "P29_009": null }, "geometry": { "type": "Point", "coordinates": [ 134.372599653193845, 33.805175514500164 ] } },
{ "type": "Feature", "properties": { "P29_001": "36368", "P29_002": "C136236800049", "P29_003": "16002", "P29_004": "那賀町立木頭中学校", "P29_005": "徳島県那賀郡那賀町木頭和無田字ナカスジ1", "P29_006": "3", "P29_007": "1", "P29_008": "00", "P29_009": null }, "geometry": { "type": "Point", "coordinates": [ 134.198233211478708, 33.771869533204182 ] } },
{ "type": "Feature", "properties": { "P29_001": "36383", "P29_002": "C136238300013", "P29_003": "16002", "P29_004": "牟岐町立牟岐中学校", "P29_005": "徳島県海部郡牟岐町川長字市宇谷100", "P29_006": "3", "P29_007": "1", "P29_008": "00", "P29_009": null }, "geometry": { "type": "Point", "coordinates": [ 134.426575069837241, 33.672020661882243 ] } },
{ "type": "Feature", "properties": { "P29_001": "36387", "P29_002": "C136238700019", "P29_003": "16002", "P29_004": "美波町立由岐中学校", "P29_005": "徳島県海部郡美波町西の地字谷裏4", "P29_006": "3", "P29_007": "1", "P29_008": "00", "P29_009": null }, "geometry": { "type": "Point", "coordinates": [ 134.597527688269537, 33.777346458860052 ] } },
{ "type": "Feature", "properties": { "P29_001": "36387", "P29_002": "C136238700028", "P29_003": "16002", "P29_004": "美波町立由岐中学校阿部分校", "P29_005": "徳島県海部郡美波町阿部103", "P29_006": "3", "P29_007": "9", "P29_008": "00", "P29_009": null }, "geometry": { "type": "Point", "coordinates": [ 134.639759999599107, 33.790379998006301 ] } },
{ "type": "Feature", "properties": { "P29_001": "36387", "P29_002": "C136238700037", "P29_003": "16002", "P29_004": "美波町立由岐中学校伊座利分校", "P29_005": "徳島県海部郡美波町伊座利354-2", "P29_006": "3", "P29_007": "1", "P29_008": "00", "P29_009": null }, "geometry": { "type": "Point", "coordinates": [ 134.669500996797694, 33.80595600354448 ] } },
{ "type": "Feature", "properties": { "P29_001": "36387", "P29_002": "C136238700046", "P29_003": "16002", "P29_004": "美波町立日和佐中学校", "P29_005": "徳島県海部郡美波町西河内字大久保76-1", "P29_006": "3", "P29_007": "1", "P29_008": "00", "P29_009": null }, "geometry": { "type": "Point", "coordinates": [ 134.531718834240507, 33.738653169868712 ] } },
{ "type": "Feature", "properties": { "P29_001": "36388", "P29_002": "C136238800018", "P29_003": "16002", "P29_004": "海陽町立海陽中学校", "P29_005": "徳島県海部郡海陽町大里字松原34-83", "P29_006": "3", "P29_007": "1", "P29_008": "00", "P29_009": null }, "geometry": { "type": "Point", "coordinates": [ 134.363764768243215, 33.606370015648238 ] } },
{ "type": "Feature", "properties": { "P29_001": "36388", "P29_002": "C136238800027", "P29_003": "16002", "P29_004": "海陽町立宍喰中学校", "P29_005": "徳島県海部郡海陽町久保字北田5", "P29_006": "3", "P29_007": "1", "P29_008": "00", "P29_009": null }, "geometry": { "type": "Point", "coordinates": [ 134.298075356682517, 33.571777229516599 ] } },
{ "type": "Feature", "properties": { "P29_001": "36401", "P29_002": "C136240100011", "P29_003": "16002", "P29_004": "松茂町立松茂中学校", "P29_005": "徳島県板野郡松茂町笹木野字八山開拓186", "P29_006": "3", "P29_007": "1", "P29_008": "00", "P29_009": null }, "geometry": { "type": "Point", "coordinates": [ 134.589956742972618, 34.129467148744048 ] } },
{ "type": "Feature", "properties": { "P29_001": "36402", "P29_002": "C136240200010", "P29_003": "16002", "P29_004": "北島町立北島中学校", "P29_005": "徳島県板野郡北島町高房字東野神ノ本25-3", "P29_006": "3", "P29_007": "1", "P29_008": "00", "P29_009": null }, "geometry": { "type": "Point", "coordinates": [ 134.545219456829074, 34.124243586241548 ] } },
{ "type": "Feature", "properties": { "P29_001": "36403", "P29_002": "C136240300019", "P29_003": "16002", "P29_004": "藍住町立藍住中学校", "P29_005": "徳島県板野郡藍住町奥野字矢上前18-1", "P29_006": "3", "P29_007": "1", "P29_008": "00", "P29_009": null }, "geometry": { "type": "Point", "coordinates": [ 134.49621199985728, 34.125025998276605 ] } },
{ "type": "Feature", "properties": { "P29_001": "36403", "P29_002": "C136240300028", "P29_003": "16002", "P29_004": "藍住町立藍住東中学校", "P29_005": "徳島県板野郡藍住町住吉字若宮49-1", "P29_006": "3", "P29_007": "1", "P29_008": "00", "P29_009": null }, "geometry": { "type": "Point", "coordinates": [ 134.510568377666345, 34.128925894794818 ] } },
{ "type": "Feature", "properties": { "P29_001": "36404", "P29_002": "C136240400018", "P29_003": "16002", "P29_004": "板野町立板野中学校", "P29_005": "徳島県板野郡板野町大寺字郡頭11", "P29_006": "3", "P29_007": "1", "P29_008": "00", "P29_009": null }, "geometry": { "type": "Point", "coordinates": [ 134.461329738023807, 34.140448914833286 ] } },
{ "type": "Feature", "properties": { "P29_001": "36405", "P29_002": "C136240500017", "P29_003": "16002", "P29_004": "上板町立上板中学校", "P29_005": "徳島県板野郡上板町神宅字西金屋44", "P29_006": "3", "P29_007": "1", "P29_008": "00", "P29_009": null }, "geometry": { "type": "Point", "coordinates": [ 134.410748002759192, 34.125163998168802 ] } },
{ "type": "Feature", "properties": { "P29_001": "36468", "P29_002": "C136246800011", "P29_003": "16002", "P29_004": "つるぎ町立半田中学校", "P29_005": "徳島県美馬郡つるぎ町半田字田井282", "P29_006": "3", "P29_007": "1", "P29_008": "00", "P29_009": null }, "geometry": { "type": "Point", "coordinates": [ 134.029939599105603, 34.03093789453299 ] } },
{ "type": "Feature", "properties": { "P29_001": "36468", "P29_002": "C136246800020", "P29_003": "16002", "P29_004": "つるぎ町立八千代中学校", "P29_005": "徳島県美馬郡つるぎ町半田字日開野122", "P29_006": "3", "P29_007": "9", "P29_008": "00", "P29_009": null }, "geometry": { "type": "Point", "coordinates": [ 134.026989996257839, 33.998279997110281 ] } },
{ "type": "Feature", "properties": { "P29_001": "36468", "P29_002": "C136246800039", "P29_003": "16002", "P29_004": "つるぎ町立貞光中学校", "P29_005": "徳島県美馬郡つるぎ町貞光字中須賀52", "P29_006": "3", "P29_007": "1", "P29_008": "00", "P29_009": null }, "geometry": { "type": "Point", "coordinates": [ 134.06541499753834, 34.037798378759618 ] } },
{ "type": "Feature", "properties": { "P29_001": "36468", "P29_002": "C136246800048", "P29_003": "16002", "P29_004": "つるぎ町立一宇中学校", "P29_005": "徳島県美馬郡つるぎ町一宇字太刀之本1", "P29_006": "3", "P29_007": "9", "P29_008": "00", "P29_009": null }, "geometry": { "type": "Point", "coordinates": [ 134.062233168431021, 33.951608771202658 ] } },
{ "type": "Feature", "properties": { "P29_001": "36489", "P29_002": "C136248900016", "P29_003": "16002", "P29_004": "東みよし町立三好中学校", "P29_005": "徳島県三好郡東みよし町昼間1893", "P29_006": "3", "P29_007": "1", "P29_008": "00", "P29_009": null }, "geometry": { "type": "Point", "coordinates": [ 133.875374147702757, 34.038850583154669 ] } },
{ "type": "Feature", "properties": { "P29_001": "36489", "P29_002": "C136248900025", "P29_003": "16002", "P29_004": "東みよし町立三加茂中学校", "P29_005": "徳島県三好郡東みよし町西庄字横手51", "P29_006": "3", "P29_007": "1", "P29_008": "00", "P29_009": null }, "geometry": { "type": "Point", "coordinates": [ 133.938698430345937, 34.042035921750198 ] } },
{ "type": "Feature", "properties": { "P29_001": "36201", "P29_002": "C136320100011", "P29_003": "16002", "P29_004": "学校法人生光学園生光学園中学校", "P29_005": "徳島県徳島市応神町中原字宮ノ前38", "P29_006": "4", "P29_007": "1", "P29_008": "00", "P29_009": null }, "geometry": { "type": "Point", "coordinates": [ 134.533951652198908, 34.109471805663254 ] } },
{ "type": "Feature", "properties": { "P29_001": "36201", "P29_002": "C136320100020", "P29_003": "16002", "P29_004": "徳島文理中学校", "P29_005": "徳島県徳島市山城西4-20", "P29_006": "4", "P29_007": "1", "P29_008": "00", "P29_009": null }, "geometry": { "type": "Point", "coordinates": [ 134.556035686215978, 34.048417490357338 ] } }
]
}
