{
"type": "FeatureCollection",
"name": "geo_36_特別支援学校",
"crs": { "type": "name", "properties": { "name": "urn:ogc:def:crs:EPSG::6668" } },
"features": [
{ "type": "Feature", "properties": { "P29_001": "36201", "P29_002": "E136110000012", "P29_003": "16012", "P29_004": "鳴門教育大学附属特別支援学校", "P29_005": "徳島県徳島市上吉野町2-1", "P29_006": "1", "P29_007": "0", "P29_008": "00", "P29_009": null }, "geometry": { "type": "Point", "coordinates": [ 134.55902208064299, 34.087373892747635 ] } },
{ "type": "Feature", "properties": { "P29_001": "36201", "P29_002": "E136220100018", "P29_003": "16012", "P29_004": "徳島県立徳島視覚支援学校", "P29_005": "徳島県徳島市南二軒屋2-4-55", "P29_006": "2", "P29_007": "0", "P29_008": "00", "P29_009": null }, "geometry": { "type": "Point", "coordinates": [ 134.544549139827723, 34.05369044570724 ] } },
{ "type": "Feature", "properties": { "P29_001": "36201", "P29_002": "E136220100027", "P29_003": "16012", "P29_004": "徳島県立徳島聴覚支援学校", "P29_005": "徳島県徳島市南二軒屋2-4-55", "P29_006": "2", "P29_007": "0", "P29_008": "00", "P29_009": null }, "geometry": { "type": "Point", "coordinates": [ 134.544643458403186, 34.053510691087347 ] } },
{ "type": "Feature", "properties": { "P29_001": "36201", "P29_002": "E136220100036", "P29_003": "16012", "P29_004": "徳島県立国府支援学校", "P29_005": "徳島県徳島市国府町矢野字松木348", "P29_006": "2", "P29_007": "0", "P29_008": "00", "P29_009": null }, "geometry": { "type": "Point", "coordinates": [ 134.47551955781762, 34.064233214345187 ] } },
{ "type": "Feature", "properties": { "P29_001": "36203", "P29_002": "E136220300016", "P29_003": "16012", "P29_004": "徳島県立ひのみね支援学校", "P29_005": "徳島県小松島市中田町新開4-1", "P29_006": "2", "P29_007": "0", "P29_008": "00", "P29_009": null }, "geometry": { "type": "Point", "coordinates": [ 134.582888700093037, 34.015881525020767 ] } },
{ "type": "Feature", "properties": { "P29_001": "36203", "P29_002": "E136220300025", "P29_003": "16012", "P29_004": "徳島県立みなと高等学園", "P29_005": "徳島県小松島市中田町新開28-1", "P29_006": "2", "P29_007": "0", "P29_008": "00", "P29_009": null }, "geometry": { "type": "Point", "coordinates": [ 134.583183578469431, 34.015066191217699 ] } },
{ "type": "Feature", "properties": { "P29_001": "36204", "P29_002": "E136220400015", "P29_003": "16012", "P29_004": "徳島県立阿南支援学校", "P29_005": "徳島県阿南市上大野町大山田52", "P29_006": "2", "P29_007": "0", "P29_008": "00", "P29_009": null }, "geometry": { "type": "Point", "coordinates": [ 134.582084282495032, 33.925669496954399 ] } },
{ "type": "Feature", "properties": { "P29_001": "36205", "P29_002": "E136220500014", "P29_003": "16012", "P29_004": "徳島県立鴨島支援学校", "P29_005": "徳島県吉野川市鴨島町敷地1392-2", "P29_006": "2", "P29_007": "0", "P29_008": "00", "P29_009": null }, "geometry": { "type": "Point", "coordinates": [ 134.337560400226039, 34.053791888759136 ] } },
{ "type": "Feature", "properties": { "P29_001": "36207", "P29_002": "E136220700012", "P29_003": "16012", "P29_004": "徳島県立池田支援学校美馬分校", "P29_005": "徳島県美馬市美馬町字大宮西100-4", "P29_006": "2", "P29_007": "0", "P29_008": "00", "P29_009": null }, "geometry": { "type": "Point", "coordinates": [ 134.049463143381985, 34.048866503812164 ] } },
{ "type": "Feature", "properties": { "P29_001": "36208", "P29_002": "E136220800011", "P29_003": "16012", "P29_004": "徳島県立池田支援学校", "P29_005": "徳島県三好市池田町州津井関1103-3", "P29_006": "2", "P29_007": "0", "P29_008": "00", "P29_009": null }, "geometry": { "type": "Point", "coordinates": [ 133.838110939377088, 34.038921193868724 ] } },
{ "type": "Feature", "properties": { "P29_001": "36387", "P29_002": "E136238700014", "P29_003": "16012", "P29_004": "徳島県立阿南支援学校ひわさ分校", "P29_005": "徳島県海部郡美波町北河内字本村360", "P29_006": "2", "P29_007": "0", "P29_008": "00", "P29_009": null }, "geometry": { "type": "Point", "coordinates": [ 134.531470453161575, 33.745986245376933 ] } },
{ "type": "Feature", "properties": { "P29_001": "36404", "P29_002": "E136240400013", "P29_003": "16012", "P29_004": "徳島県立板野支援学校", "P29_005": "徳島県板野郡板野町大寺字大向北1-2", "P29_006": "2", "P29_007": "0", "P29_008": "00", "P29_009": null }, "geometry": { "type": "Point", "coordinates": [ 134.468270404848937, 34.135339058060445 ] } }
]
}
