{
"type": "FeatureCollection",
"name": "geo_36_専修学校",
"crs": { "type": "name", "properties": { "name": "urn:ogc:def:crs:EPSG::6668" } },
"features": [
{ "type": "Feature", "properties": { "P29_001": "36201", "P29_002": "H136220100012", "P29_003": "16016", "P29_004": "徳島県立総合看護学校", "P29_005": "徳島県徳島市鮎喰町2-41-6", "P29_006": "2", "P29_007": "0", "P29_008": "00", "P29_009": null }, "geometry": { "type": "Point", "coordinates": [ 134.502419652440352, 34.071484396933727 ] } },
{ "type": "Feature", "properties": { "P29_001": "36341", "P29_002": "H136234100013", "P29_003": "16016", "P29_004": "徳島県立農林水産総合技術支援センター農業大学校", "P29_005": "徳島県名西郡石井町石井字石井1660", "P29_006": "2", "P29_007": "0", "P29_008": "00", "P29_009": null }, "geometry": { "type": "Point", "coordinates": [ 134.440178273004705, 34.062437488583143 ] } },
{ "type": "Feature", "properties": { "P29_001": "36201", "P29_002": "H136320100010", "P29_003": "16016", "P29_004": "龍昇経理情報専門学校", "P29_005": "徳島県徳島市蔵本町2-39", "P29_006": "4", "P29_007": "0", "P29_008": "00", "P29_009": null }, "geometry": { "type": "Point", "coordinates": [ 134.517736951677108, 34.078740177002537 ] } },
{ "type": "Feature", "properties": { "P29_001": "36201", "P29_002": "H136320100029", "P29_003": "16016", "P29_004": "徳島歯科学院専門学校", "P29_005": "徳島県徳島市北田宮1-8-65", "P29_006": "4", "P29_007": "0", "P29_008": "00", "P29_009": null }, "geometry": { "type": "Point", "coordinates": [ 134.547252243954944, 34.090316770543637 ] } },
{ "type": "Feature", "properties": { "P29_001": "36201", "P29_002": "H136320100038", "P29_003": "16016", "P29_004": "和晃編物ファッションビジネス専門学校", "P29_005": "徳島県徳島市富田浜1-48-2", "P29_006": "4", "P29_007": "0", "P29_008": "00", "P29_009": null }, "geometry": { "type": "Point", "coordinates": [ 134.550434663038288, 34.067640002487103 ] } },
{ "type": "Feature", "properties": { "P29_001": "36201", "P29_002": "H136320100047", "P29_003": "16016", "P29_004": "専門学校健祥会学園", "P29_005": "徳島県徳島市国府町東高輪字天満369-1", "P29_006": "4", "P29_007": "0", "P29_008": "00", "P29_009": null }, "geometry": { "type": "Point", "coordinates": [ 134.481415975646797, 34.08971360053723 ] } },
{ "type": "Feature", "properties": { "P29_001": "36201", "P29_002": "H136320100056", "P29_003": "16016", "P29_004": "四国歯科衛生士学院専門学校", "P29_005": "徳島県徳島市勝占町外敷地16-36", "P29_006": "4", "P29_007": "0", "P29_008": "00", "P29_009": null }, "geometry": { "type": "Point", "coordinates": [ 134.556620629464959, 34.014846648005559 ] } },
{ "type": "Feature", "properties": { "P29_001": "36201", "P29_002": "H136320100065", "P29_003": "16016", "P29_004": "専門学校徳島穴吹カレッジ", "P29_005": "徳島県徳島市徳島町2-20", "P29_006": "4", "P29_007": "0", "P29_008": "00", "P29_009": null }, "geometry": { "type": "Point", "coordinates": [ 134.557747595759338, 34.073001561168667 ] } },
{ "type": "Feature", "properties": { "P29_001": "36201", "P29_002": "H136320100074", "P29_003": "16016", "P29_004": "平成調理師専門学校", "P29_005": "徳島県徳島市伊賀町2-19-2", "P29_006": "4", "P29_007": "0", "P29_008": "00", "P29_009": null }, "geometry": { "type": "Point", "coordinates": [ 134.544246796690658, 34.065085979498789 ] } },
{ "type": "Feature", "properties": { "P29_001": "36201", "P29_002": "H136320100083", "P29_003": "16016", "P29_004": "徳島県美容学校", "P29_005": "徳島県徳島市佐古二番町3-5", "P29_006": "4", "P29_007": "0", "P29_008": "00", "P29_009": null }, "geometry": { "type": "Point", "coordinates": [ 134.538054514394844, 34.076671573078372 ] } },
{ "type": "Feature", "properties": { "P29_001": "36201", "P29_002": "H136320100092", "P29_003": "16016", "P29_004": "ブレーメン動物専門学校", "P29_005": "徳島県徳島市佐古1-5-4", "P29_006": "4", "P29_007": "0", "P29_008": "00", "P29_009": null }, "geometry": { "type": "Point", "coordinates": [ 134.543063418940079, 34.076485876485279 ] } },
{ "type": "Feature", "properties": { "P29_001": "36202", "P29_002": "H136320200019", "P29_003": "16016", "P29_004": "徳島県鳴門病院附属看護専門学校", "P29_005": "徳島県鳴門市撫養町斉田字見白36-1", "P29_006": "4", "P29_007": "0", "P29_008": "00", "P29_009": null }, "geometry": { "type": "Point", "coordinates": [ 134.595569313746864, 34.181756210640984 ] } },
{ "type": "Feature", "properties": { "P29_001": "36205", "P29_002": "H136320500016", "P29_003": "16016", "P29_004": "鴨島女子専門学校", "P29_005": "徳島県吉野川市鴨島町鴨島385", "P29_006": "4", "P29_007": "0", "P29_008": "00", "P29_009": null }, "geometry": { "type": "Point", "coordinates": [ 134.358185622806985, 34.071191340494522 ] } },
{ "type": "Feature", "properties": { "P29_001": "36301", "P29_002": "H136330100019", "P29_003": "16016", "P29_004": "徳島医療福祉専門学校", "P29_005": "徳島県勝浦郡勝浦町三渓字平128-1", "P29_006": "4", "P29_007": "0", "P29_008": "00", "P29_009": null }, "geometry": { "type": "Point", "coordinates": [ 134.498880254046668, 33.934298677094915 ] } }
]
}
