{
"type": "FeatureCollection",
"name": "geo_36_短期大学",
"crs": { "type": "name", "properties": { "name": "urn:ogc:def:crs:EPSG::6668" } },
"features": [
{ "type": "Feature", "properties": { "P29_001": "36201", "P29_002": "F236310110272", "P29_003": "16006", "P29_004": "四国大学短期大学部", "P29_005": "徳島県徳島市応神町古川字戎子野123-1", "P29_006": "4", "P29_007": "0", "P29_008": "00", "P29_009": null }, "geometry": { "type": "Point", "coordinates": [ 134.553165532684403, 34.103213619396499 ] } },
{ "type": "Feature", "properties": { "P29_001": "36201", "P29_002": "F236310110281", "P29_003": "16006", "P29_004": "徳島文理大学短期大学部", "P29_005": "徳島県徳島市寺島本町東1-8", "P29_006": "4", "P29_007": "0", "P29_008": "01", "P29_009": "学園本部" }, "geometry": { "type": "Point", "coordinates": [ 134.55742015698317, 34.053249815950203 ] } },
{ "type": "Feature", "properties": { "P29_001": "36404", "P29_002": "F236310110290", "P29_003": "16006", "P29_004": "徳島工業短期大学", "P29_005": "徳島県板野郡板野町犬伏字蓮花谷100", "P29_006": "4", "P29_007": "0", "P29_008": "00", "P29_009": null }, "geometry": { "type": "Point", "coordinates": [ 134.445535472890299, 34.142624874000148 ] } },
{ "type": "Feature", "properties": { "P29_001": "36201", "P29_002": "F236310110281", "P29_003": "16006", "P29_004": "徳島文理大学短期大学部", "P29_005": "徳島県徳島市山城町西浜傍示180", "P29_006": "4", "P29_007": "0", "P29_008": "02", "P29_009": "徳島キャンパス" }, "geometry": { "type": "Point", "coordinates": [ 134.558536721306098, 34.052964454262543 ] } }
]
}
