{
"type": "FeatureCollection",
"name": "geo_36_地域密着型通所介護",
"crs": { "type": "name", "properties": { "name": "urn:ogc:def:crs:OGC:1.3:CRS84" } },
"features": [
{ "type": "Feature", "properties": { "内容": "常三島デイサービス【地域密着型通所介護】徳島県徳島市北常三島町1丁目10-3", "url": "https://www.kaigokensaku.mhlw.go.jp/36/index.php?action_kouhyou_detail_004_kani=true&JigyosyoCd=3670103856-00&ServiceCd=780&Type=search", "url2": null }, "geometry": { "type": "Point", "coordinates": [ 134.561212399999931, 34.0810579 ] } },
{ "type": "Feature", "properties": { "内容": "デイサービスきらら苑【地域密着型通所介護】徳島県徳島市北山町岩崎11番地3", "url": "https://www.kaigokensaku.mhlw.go.jp/36/index.php?action_kouhyou_detail_004_kani=true&JigyosyoCd=3670103104-00&ServiceCd=780&Type=search", "url2": null }, "geometry": { "type": "Point", "coordinates": [ 134.5355624, 34.024125 ] } },
{ "type": "Feature", "properties": { "内容": "デイサービスセンター万華鏡【地域密着型通所介護】徳島県徳島市八万町中津浦113-1番地", "url": "https://www.kaigokensaku.mhlw.go.jp/36/index.php?action_kouhyou_detail_004_kani=true&JigyosyoCd=3690168046-00&ServiceCd=780&Type=search", "url2": null }, "geometry": { "type": "Point", "coordinates": [ 134.532854199999946, 34.057121100000032 ] } },
{ "type": "Feature", "properties": { "内容": "デイサービスセンターひまわり【地域密着型通所介護】徳島市かちどき橋２丁目５５番地", "url": "https://www.kaigokensaku.mhlw.go.jp/36/index.php?action_kouhyou_detail_004_kani=true&JigyosyoCd=3690167956-00&ServiceCd=780&Type=search", "url2": null }, "geometry": { "type": "Point", "coordinates": [ 134.5552294, 34.0625475 ] } },
{ "type": "Feature", "properties": { "内容": "内町リハビリデイサービス【地域密着型通所介護】徳島県徳島市南内町３丁目２０－１KAMEYAビル１F", "url": "https://www.kaigokensaku.mhlw.go.jp/36/index.php?action_kouhyou_detail_004_kani=true&JigyosyoCd=3670103740-00&ServiceCd=780&Type=search", "url2": null }, "geometry": { "type": "Point", "coordinates": [ 134.549558199999979, 34.0710561 ] } },
{ "type": "Feature", "properties": { "内容": "リハビリデイサービスもりガーデン国府店【地域密着型通所介護】徳島県徳島市国府町南岩延792-1西陣ビル1F", "url": "https://www.kaigokensaku.mhlw.go.jp/36/index.php?action_kouhyou_detail_004_kani=true&JigyosyoCd=3670104037-00&ServiceCd=780&Type=search", "url2": "http://mori-garden.jp/" }, "geometry": { "type": "Point", "coordinates": [ 134.496113, 34.073132 ] } },
{ "type": "Feature", "properties": { "内容": "デイサービス　響【地域密着型通所介護】徳島県徳島市国府町府中565-6", "url": "https://www.kaigokensaku.mhlw.go.jp/36/index.php?action_kouhyou_detail_004_kani=true&JigyosyoCd=3690168327-00&ServiceCd=780&Type=search", "url2": null }, "geometry": { "type": "Point", "coordinates": [ 134.478449, 34.0711642 ] } },
{ "type": "Feature", "properties": { "内容": "デイサービスとまと問屋町【地域密着型通所介護】徳島県徳島市問屋町19", "url": "https://www.kaigokensaku.mhlw.go.jp/36/index.php?action_kouhyou_detail_004_kani=true&JigyosyoCd=3690168293-00&ServiceCd=780&Type=search", "url2": "https://releap.co.jp/" }, "geometry": { "type": "Point", "coordinates": [ 134.548406199999988, 34.0476563 ] } },
{ "type": "Feature", "properties": { "内容": "デイサービスセンターあゆみ【地域密着型通所介護】徳島市中常三島町3丁目26", "url": "https://www.kaigokensaku.mhlw.go.jp/36/index.php?action_kouhyou_detail_004_kani=true&JigyosyoCd=3670102908-00&ServiceCd=780&Type=search", "url2": "http://www.hp-hashimoto.com" }, "geometry": { "type": "Point", "coordinates": [ 134.564075728836087, 34.078760927240396 ] } },
{ "type": "Feature", "properties": { "内容": "デイサービスあいハート【地域密着型通所介護】徳島県徳島市南内町1丁目41", "url": "https://www.kaigokensaku.mhlw.go.jp/36/index.php?action_kouhyou_detail_004_kani=true&JigyosyoCd=3670104045-00&ServiceCd=780&Type=search", "url2": "http://mikawaclinic.net/dayservice/" }, "geometry": { "type": "Point", "coordinates": [ 134.5531962, 34.0691682 ] } },
{ "type": "Feature", "properties": { "内容": "リハステーション楽【地域密着型通所介護】徳島県徳島市かちどき橋6丁目4番地の1サービス付き高齢者向け住宅　洛Ｋａｃｈｉｄｏｋｉ", "url": "https://www.kaigokensaku.mhlw.go.jp/36/index.php?action_kouhyou_detail_004_kani=true&JigyosyoCd=3670104458-00&ServiceCd=780&Type=search", "url2": null }, "geometry": { "type": "Point", "coordinates": [ 134.553463400000027, 34.057652 ] } },
{ "type": "Feature", "properties": { "内容": "デイコミュニティマドンナ【地域密着型通所介護】新浜町1丁目1-8", "url": "https://www.kaigokensaku.mhlw.go.jp/36/index.php?action_kouhyou_detail_004_kani=true&JigyosyoCd=3690168350-00&ServiceCd=780&Type=search", "url2": null }, "geometry": { "type": "Point", "coordinates": [ 134.545738777107232, 34.050424483111215 ] } },
{ "type": "Feature", "properties": { "内容": "茶話本舗デイサービス末広亭【地域密着型通所介護】徳島県徳島市末広2丁目1－69", "url": "https://www.kaigokensaku.mhlw.go.jp/36/index.php?action_kouhyou_detail_004_kani=true&JigyosyoCd=3690168137-00&ServiceCd=780&Type=search", "url2": null }, "geometry": { "type": "Point", "coordinates": [ 134.57431680000002, 34.064836 ] } },
{ "type": "Feature", "properties": { "内容": "一般社団法人マホロ【地域密着型通所介護】徳島県徳島市仲之町２丁目１４", "url": "https://www.kaigokensaku.mhlw.go.jp/36/index.php?action_kouhyou_detail_004_kani=true&JigyosyoCd=3690168418-00&ServiceCd=780&Type=search", "url2": null }, "geometry": { "type": "Point", "coordinates": [ 134.553250600000013, 34.0665664 ] } },
{ "type": "Feature", "properties": { "内容": "デイサービスセンターForYou【地域密着型通所介護】徳島県徳島市東吉野町二丁目16番地", "url": "https://www.kaigokensaku.mhlw.go.jp/36/index.php?action_kouhyou_detail_004_kani=true&JigyosyoCd=3670103047-00&ServiceCd=780&Type=search", "url2": "http://www.foryou-kai.co.jp/" }, "geometry": { "type": "Point", "coordinates": [ 134.563658290419028, 34.084310583377558 ] } },
{ "type": "Feature", "properties": { "内容": "デイサービスセンターColore【地域密着型通所介護】国府町西黒田字南傍示243-1", "url": "https://www.kaigokensaku.mhlw.go.jp/36/index.php?action_kouhyou_detail_004_kani=true&JigyosyoCd=3690168400-00&ServiceCd=780&Type=search", "url2": null }, "geometry": { "type": "Point", "coordinates": [ 134.4684093, 34.1007889 ] } },
{ "type": "Feature", "properties": { "内容": "ライフケア　アライブ【地域密着型通所介護】徳島県徳島市八万町千鳥２０－１３パレスイーズ1F", "url": "https://www.kaigokensaku.mhlw.go.jp/36/index.php?action_kouhyou_detail_004_kani=true&JigyosyoCd=3670104136-00&ServiceCd=780&Type=search", "url2": "https://www.lifecare-alive.com" }, "geometry": { "type": "Point", "coordinates": [ 134.535976099999971, 34.0506496 ] } },
{ "type": "Feature", "properties": { "内容": "ヒラックス南田宮【地域密着型通所介護】南田宮２丁目７－４", "url": "https://www.kaigokensaku.mhlw.go.jp/36/index.php?action_kouhyou_detail_004_kani=true&JigyosyoCd=3690168467-00&ServiceCd=780&Type=search", "url2": "https://www.sps-kamakura.com/healax-minamitamiya" }, "geometry": { "type": "Point", "coordinates": [ 134.542054799999988, 34.08169 ] } },
{ "type": "Feature", "properties": { "内容": "然クロス【地域密着型通所介護】徳島県徳島市大和町1丁目132-2", "url": "https://www.kaigokensaku.mhlw.go.jp/36/index.php?action_kouhyou_detail_004_kani=true&JigyosyoCd=3690168368-00&ServiceCd=780&Type=search", "url2": "https://zencross.link/" }, "geometry": { "type": "Point", "coordinates": [ 134.571246699999989, 34.0677024 ] } },
{ "type": "Feature", "properties": { "内容": "アシストケアクラブ徳島住吉【地域密着型通所介護】徳島県徳島市住吉3丁目1番23号第3三宅ビル1F", "url": "https://www.kaigokensaku.mhlw.go.jp/36/index.php?action_kouhyou_detail_004_kani=true&JigyosyoCd=3670104474-00&ServiceCd=780&Type=search", "url2": "http://coo-sys.jp/assist/member/tokushimasumiyoshi/" }, "geometry": { "type": "Point", "coordinates": [ 134.57076440000003, 34.0775944 ] } },
{ "type": "Feature", "properties": { "内容": "デイサービス余韻【地域密着型通所介護】中吉野町３丁目８６−５", "url": "https://www.kaigokensaku.mhlw.go.jp/36/index.php?action_kouhyou_detail_004_kani=true&JigyosyoCd=3690168384-00&ServiceCd=780&Type=search", "url2": null }, "geometry": { "type": "Point", "coordinates": [ 134.554752288885538, 34.087282617289489 ] } },
{ "type": "Feature", "properties": { "内容": "社会福祉法人白寿会　白寿会西部デイサービスセンター【地域密着型通所介護】徳島県徳島市不動西町3丁目1197-1", "url": "https://www.kaigokensaku.mhlw.go.jp/36/index.php?action_kouhyou_detail_004_kani=true&JigyosyoCd=3690168376-00&ServiceCd=780&Type=search", "url2": "http://www.hakuju-kai.or.jp/" }, "geometry": { "type": "Point", "coordinates": [ 134.494534, 34.0875542 ] } },
{ "type": "Feature", "properties": { "内容": "元気の学校【地域密着型通所介護】徳島県徳島市上八万町西山1430-2", "url": "https://www.kaigokensaku.mhlw.go.jp/36/index.php?action_kouhyou_detail_004_kani=true&JigyosyoCd=3670101561-00&ServiceCd=780&Type=search", "url2": "http://www.npo-nanohana.or.jp" }, "geometry": { "type": "Point", "coordinates": [ 134.490516299999967, 34.0314869 ] } },
{ "type": "Feature", "properties": { "内容": "デイサービスセンターゆうき【地域密着型通所介護】徳島県徳島市国府町４４８番地", "url": "https://www.kaigokensaku.mhlw.go.jp/36/index.php?action_kouhyou_detail_004_kani=true&JigyosyoCd=3690168442-00&ServiceCd=780&Type=search", "url2": null }, "geometry": { "type": "Point", "coordinates": [ 134.4802918, 34.0717249 ] } },
{ "type": "Feature", "properties": { "内容": "然フィット【地域密着型通所介護】徳島県徳島市安宅3丁目6-37渭東レジデンス1階", "url": "https://www.kaigokensaku.mhlw.go.jp/36/index.php?action_kouhyou_detail_004_kani=true&JigyosyoCd=3690168186-00&ServiceCd=780&Type=search", "url2": "https://www.zenfit.link" }, "geometry": { "type": "Point", "coordinates": [ 134.58089480000001, 34.0680784 ] } },
{ "type": "Feature", "properties": { "内容": "リハビリレストラン空と海【地域密着型通所介護】徳島県徳島市南末広町37-2", "url": "https://www.kaigokensaku.mhlw.go.jp/36/index.php?action_kouhyou_detail_004_kani=true&JigyosyoCd=3670104326-00&ServiceCd=780&Type=search", "url2": "http://www.okagawa-g.com/soratoumi/" }, "geometry": { "type": "Point", "coordinates": [ 134.5742669, 34.0593131 ] } },
{ "type": "Feature", "properties": { "内容": "藍華苑デイサービス【地域密着型通所介護】徳島県徳島市国府町和田字居内５５番地の１", "url": "https://www.kaigokensaku.mhlw.go.jp/36/index.php?action_kouhyou_detail_004_kani=true&JigyosyoCd=3670104334-00&ServiceCd=780&Type=search", "url2": null }, "geometry": { "type": "Point", "coordinates": [ 134.490805200000068, 34.0733763 ] } },
{ "type": "Feature", "properties": { "内容": "デイサービス　八万苑【地域密着型通所介護】徳島県徳島市八万町下長谷234番地の1", "url": "https://www.kaigokensaku.mhlw.go.jp/36/index.php?action_kouhyou_detail_004_kani=true&JigyosyoCd=3690167998-00&ServiceCd=780&Type=search", "url2": null }, "geometry": { "type": "Point", "coordinates": [ 134.513690700000012, 34.0449942 ] } },
{ "type": "Feature", "properties": { "内容": "デイサービス　おひさま【地域密着型通所介護】徳島県徳島市八百屋町２-16齋藤醫院ビル　５階", "url": "https://www.kaigokensaku.mhlw.go.jp/36/index.php?action_kouhyou_detail_004_kani=true&JigyosyoCd=3670103260-00&ServiceCd=780&Type=search", "url2": "http://day-ohisama.com/" }, "geometry": { "type": "Point", "coordinates": [ 134.559480200000081, 34.0707266 ] } },
{ "type": "Feature", "properties": { "内容": "デイサービスゆるり【地域密着型通所介護】徳島県徳島市中吉野二丁目31番地1", "url": "https://www.kaigokensaku.mhlw.go.jp/36/index.php?action_kouhyou_detail_004_kani=true&JigyosyoCd=3690168335-00&ServiceCd=780&Type=search", "url2": "https://linkle-group.co.jp/" }, "geometry": { "type": "Point", "coordinates": [ 134.556702671163947, 34.086147085578084 ] } },
{ "type": "Feature", "properties": { "内容": "茶話本舗デイサービス法花亭【地域密着型通所介護】徳島県徳島市大谷町新堤45-3", "url": "https://www.kaigokensaku.mhlw.go.jp/36/index.php?action_kouhyou_detail_004_kani=true&JigyosyoCd=3690168129-00&ServiceCd=780&Type=search", "url2": null }, "geometry": { "type": "Point", "coordinates": [ 134.540426599999989, 34.0364136 ] } },
{ "type": "Feature", "properties": { "内容": "デイサービスセンターぽてと徳島【地域密着型通所介護】徳島県徳島市三軒屋町下分46-1", "url": "https://www.kaigokensaku.mhlw.go.jp/36/index.php?action_kouhyou_detail_004_kani=true&JigyosyoCd=3670103534-00&ServiceCd=780&Type=search", "url2": "http://dayservice-poteto.com/" }, "geometry": { "type": "Point", "coordinates": [ 134.551821823942589, 34.037330209303043 ] } },
{ "type": "Feature", "properties": { "内容": "デイサービスセンターセレブ【地域密着型通所介護】徳島市沖浜東２丁目３０", "url": "https://www.kaigokensaku.mhlw.go.jp/36/index.php?action_kouhyou_detail_004_kani=true&JigyosyoCd=3670102981-00&ServiceCd=780&Type=search", "url2": "http://www.royalceleb.sakura.ne.jp/" }, "geometry": { "type": "Point", "coordinates": [ 134.55550489999996, 34.0527858 ] } },
{ "type": "Feature", "properties": { "内容": "デイサービスそのせ【地域密着型通所介護】徳島市八万町下長谷259-1福祉ステーションそのせ", "url": "https://www.kaigokensaku.mhlw.go.jp/36/index.php?action_kouhyou_detail_004_kani=true&JigyosyoCd=3670103476-00&ServiceCd=780&Type=search", "url2": "http://www.shizenha.ne.jp" }, "geometry": { "type": "Point", "coordinates": [ 134.517683764580994, 34.044708018777165 ] } },
{ "type": "Feature", "properties": { "内容": "とくしま健生デイサービスセンター【地域密着型通所介護】徳島県徳島市吉野本町6丁目30-4健生在宅ケアセンター1階", "url": "https://www.kaigokensaku.mhlw.go.jp/36/index.php?action_kouhyou_detail_004_kani=true&JigyosyoCd=3690168178-00&ServiceCd=780&Type=search", "url2": "http:／／www2.tch.ne.jp/～ｈcoopt" }, "geometry": { "type": "Point", "coordinates": [ 134.552474100000012, 34.0868015 ] } },
{ "type": "Feature", "properties": { "内容": "デイサービスセンターそよかぜ２号館幸町【地域密着型通所介護】徳島県徳島市幸町三丁目９７番地尾賀ビル１階１号室", "url": "https://www.kaigokensaku.mhlw.go.jp/36/index.php?action_kouhyou_detail_004_kani=true&JigyosyoCd=3690168277-00&ServiceCd=780&Type=search", "url2": null }, "geometry": { "type": "Point", "coordinates": [ 134.555284199999988, 34.0682722 ] } },
{ "type": "Feature", "properties": { "内容": "デイサービスセンター満福【地域密着型通所介護】徳島市東新町2丁目20番地", "url": "https://www.kaigokensaku.mhlw.go.jp/36/index.php?action_kouhyou_detail_004_kani=true&JigyosyoCd=3690168459-00&ServiceCd=780&Type=search", "url2": "https://group-living.com/" }, "geometry": { "type": "Point", "coordinates": [ 134.549316, 34.0687759 ] } },
{ "type": "Feature", "properties": { "内容": "デイサービス日向【地域密着型通所介護】徳島市新浜町一丁目1-8", "url": "https://www.kaigokensaku.mhlw.go.jp/36/index.php?action_kouhyou_detail_004_kani=true&JigyosyoCd=3690168434-00&ServiceCd=780&Type=search", "url2": null }, "geometry": { "type": "Point", "coordinates": [ 134.571096899999986, 34.0529822 ] } },
{ "type": "Feature", "properties": { "内容": "山城デイサービスセンター【地域密着型通所介護】徳島県徳島市沖浜町北川730番地沖浜シルバーハイツ", "url": "https://www.kaigokensaku.mhlw.go.jp/36/index.php?action_kouhyou_detail_004_kani=true&JigyosyoCd=3690168285-00&ServiceCd=780&Type=search", "url2": "https://yamashiro-clinic.jp/home-care" }, "geometry": { "type": "Point", "coordinates": [ 134.552094399999987, 34.056443499999986 ] } },
{ "type": "Feature", "properties": { "内容": "べんり堂みんなの家【地域密着型通所介護】徳島県徳島市北矢三町２丁目３番地２６号", "url": "https://www.kaigokensaku.mhlw.go.jp/36/index.php?action_kouhyou_detail_004_kani=true&JigyosyoCd=3670101892-00&ServiceCd=780&Type=search", "url2": "http://www.benrido.net/" }, "geometry": { "type": "Point", "coordinates": [ 134.522647051784986, 34.08727231377695 ] } },
{ "type": "Feature", "properties": { "内容": "レッツ倶楽部鳴門【地域密着型通所介護】徳島県鳴門市撫養町小桑島字前浜58", "url": "https://www.kaigokensaku.mhlw.go.jp/36/index.php?action_kouhyou_detail_004_kani=true&JigyosyoCd=3670200942-00&ServiceCd=780&Type=search", "url2": null }, "geometry": { "type": "Point", "coordinates": [ 134.606833300000062, 34.178617 ] } },
{ "type": "Feature", "properties": { "内容": "デイサービス奈桜【地域密着型通所介護】徳島県鳴門市撫養町斎田字西発11番地2", "url": "https://www.kaigokensaku.mhlw.go.jp/36/index.php?action_kouhyou_detail_004_kani=true&JigyosyoCd=3690200112-00&ServiceCd=780&Type=search", "url2": null }, "geometry": { "type": "Point", "coordinates": [ 134.602168822090135, 34.171988964681965 ] } },
{ "type": "Feature", "properties": { "内容": "CoCoデイサービス【地域密着型通所介護】徳島県鳴門市大津町矢倉字裏15-9", "url": "https://www.kaigokensaku.mhlw.go.jp/36/index.php?action_kouhyou_detail_004_kani=true&JigyosyoCd=3690200088-00&ServiceCd=780&Type=search", "url2": null }, "geometry": { "type": "Point", "coordinates": [ 134.592787, 34.1583753 ] } },
{ "type": "Feature", "properties": { "内容": "デイサービス　こだぬき【地域密着型通所介護】鳴門市鳴門町高島字南370番地", "url": "https://www.kaigokensaku.mhlw.go.jp/36/index.php?action_kouhyou_detail_004_kani=true&JigyosyoCd=3690200047-00&ServiceCd=780&Type=search", "url2": "http://www13.plala.or.jp/tanukideikoi/kodanuki001.html" }, "geometry": { "type": "Point", "coordinates": [ 134.593687400000022, 34.2013408 ] } },
{ "type": "Feature", "properties": { "内容": "リハビリ型ディサービス　ヒューマニー【地域密着型通所介護】徳島県鳴門市撫養町斎田字北浜37-5中野ビル1階", "url": "https://www.kaigokensaku.mhlw.go.jp/36/index.php?action_kouhyou_detail_004_kani=true&JigyosyoCd=3670200769-00&ServiceCd=780&Type=search", "url2": "URL:www.humany.biz" }, "geometry": { "type": "Point", "coordinates": [ 134.605463800000052, 34.1778237 ] } },
{ "type": "Feature", "properties": { "内容": "はーとデイサービス【地域密着型通所介護】鳴門町高島字浜中205番地", "url": "https://www.kaigokensaku.mhlw.go.jp/36/index.php?action_kouhyou_detail_004_kani=true&JigyosyoCd=3690200138-00&ServiceCd=780&Type=search", "url2": null }, "geometry": { "type": "Point", "coordinates": [ 134.591868299999987, 34.2065515 ] } },
{ "type": "Feature", "properties": { "内容": "デイサービスセンターそよかぜ【地域密着型通所介護】瀬戸町明神字上本城77-2", "url": "https://www.kaigokensaku.mhlw.go.jp/36/index.php?action_kouhyou_detail_004_kani=true&JigyosyoCd=3690200013-00&ServiceCd=780&Type=search", "url2": "https://shikoku-ms.com/soyokaze/" }, "geometry": { "type": "Point", "coordinates": [ 134.5828085, 34.210721 ] } },
{ "type": "Feature", "properties": { "内容": "デイサービス　ハッピーズ【地域密着型通所介護】徳島県鳴門市撫養町斎田字北浜46-1", "url": "https://www.kaigokensaku.mhlw.go.jp/36/index.php?action_kouhyou_detail_004_kani=true&JigyosyoCd=3670200348-00&ServiceCd=780&Type=search", "url2": null }, "geometry": { "type": "Point", "coordinates": [ 134.605361300000027, 34.1784003 ] } },
{ "type": "Feature", "properties": { "内容": "あかりデイサービス瀬戸【地域密着型通所介護】徳島県鳴門市瀬戸町堂浦字地回り壱26番地５", "url": "https://www.kaigokensaku.mhlw.go.jp/36/index.php?action_kouhyou_detail_004_kani=true&JigyosyoCd=3670200710-00&ServiceCd=780&Type=search", "url2": "https://www.akari-dayservice.com/" }, "geometry": { "type": "Point", "coordinates": [ 134.579298, 34.2119284 ] } },
{ "type": "Feature", "properties": { "内容": "デイサービスセンター花雲【地域密着型通所介護】徳島県鳴門市撫養町小桑島字前浜197番地サービス付き高齢者向け住宅しあわせ家族内", "url": "https://www.kaigokensaku.mhlw.go.jp/36/index.php?action_kouhyou_detail_004_kani=true&JigyosyoCd=3670200926-00&ServiceCd=780&Type=search", "url2": "http://www.kaun-shiawase.com" }, "geometry": { "type": "Point", "coordinates": [ 134.605958399999963, 34.1819388 ] } },
{ "type": "Feature", "properties": { "内容": "デイサービスセンター花雲高島【地域密着型通所介護】鳴門町高島字浜中74番地", "url": "https://www.kaigokensaku.mhlw.go.jp/36/index.php?action_kouhyou_detail_004_kani=true&JigyosyoCd=3690200070-00&ServiceCd=780&Type=search", "url2": "http://www.kaun-shiawase.com" }, "geometry": { "type": "Point", "coordinates": [ 134.590031254735379, 34.203770187550113 ] } },
{ "type": "Feature", "properties": { "内容": "通所介護事業所　たんぽぽはうす【地域密着型通所介護】徳島県鳴門市大麻町姫田字久保ノ内26-18", "url": "https://www.kaigokensaku.mhlw.go.jp/36/index.php?action_kouhyou_detail_004_kani=true&JigyosyoCd=3670200801-00&ServiceCd=780&Type=search", "url2": null }, "geometry": { "type": "Point", "coordinates": [ 134.55775170000004, 34.1649227 ] } },
{ "type": "Feature", "properties": { "内容": "社会福祉法人緑会　デイサービス斎田【地域密着型通所介護】徳島県鳴門市撫養町斎田字浜端南106", "url": "https://www.kaigokensaku.mhlw.go.jp/36/index.php?action_kouhyou_detail_004_kani=true&JigyosyoCd=3690200153-00&ServiceCd=780&Type=search", "url2": "midorikai-naruto.jp" }, "geometry": { "type": "Point", "coordinates": [ 134.6039575, 34.1776072 ] } },
{ "type": "Feature", "properties": { "内容": "緑会デイサービスセンター【地域密着型通所介護】徳島県鳴門市鳴門町三ツ石字江尻山74番地", "url": "https://www.kaigokensaku.mhlw.go.jp/36/index.php?action_kouhyou_detail_004_kani=true&JigyosyoCd=3690200096-00&ServiceCd=780&Type=search", "url2": "http://www.carehouse-naruto.jp/" }, "geometry": { "type": "Point", "coordinates": [ 134.6050545, 34.1976428 ] } },
{ "type": "Feature", "properties": { "内容": "デイサービスすみれ【地域密着型通所介護】徳島県鳴門市大津町吉永字三石野777番地", "url": "https://www.kaigokensaku.mhlw.go.jp/36/index.php?action_kouhyou_detail_004_kani=true&JigyosyoCd=3670200686-00&ServiceCd=780&Type=search", "url2": "http://www.hashimoto-clinic.jp" }, "geometry": { "type": "Point", "coordinates": [ 134.603092299999958, 34.1639853 ] } },
{ "type": "Feature", "properties": { "内容": "デイサービスぱんどらのはこ【地域密着型通所介護】徳島県鳴門市撫養町弁財天字ハマ１１－１", "url": "https://www.kaigokensaku.mhlw.go.jp/36/index.php?action_kouhyou_detail_004_kani=true&JigyosyoCd=3690200039-00&ServiceCd=780&Type=search", "url2": null }, "geometry": { "type": "Point", "coordinates": [ 134.616544560049448, 34.179950575073754 ] } },
{ "type": "Feature", "properties": { "内容": "デイサービスたぬき【地域密着型通所介護】徳島県鳴門市瀬戸町明神字下本城262-1", "url": "https://www.kaigokensaku.mhlw.go.jp/36/index.php?action_kouhyou_detail_004_kani=true&JigyosyoCd=3670200850-00&ServiceCd=780&Type=search", "url2": "http://www13.plala.or.jp/tanukideikoi/index.html" }, "geometry": { "type": "Point", "coordinates": [ 134.578493900000012, 34.2090084 ] } },
{ "type": "Feature", "properties": { "内容": "デイサービスセンターぽてと鳴門【地域密着型通所介護】徳島県鳴門市大麻町池谷字柳の本81-3", "url": "https://www.kaigokensaku.mhlw.go.jp/36/index.php?action_kouhyou_detail_004_kani=true&JigyosyoCd=3670200900-00&ServiceCd=780&Type=search", "url2": "http://dayservice-poteto.com/" }, "geometry": { "type": "Point", "coordinates": [ 134.5318537, 34.1558557 ] } },
{ "type": "Feature", "properties": { "内容": "株式会社楓雅　デイサービスどんぐり【地域密着型通所介護】徳島県鳴門市撫養町黒崎字八幡６８－6", "url": "https://www.kaigokensaku.mhlw.go.jp/36/index.php?action_kouhyou_detail_004_kani=true&JigyosyoCd=3670200991-00&ServiceCd=780&Type=search", "url2": "https://www.donguri-fuga.com/" }, "geometry": { "type": "Point", "coordinates": [ 134.597798499999953, 34.1843272 ] } },
{ "type": "Feature", "properties": { "内容": "デイサービス　しおかぜ【地域密着型通所介護】徳島県小松島市和田島町字浜塚134番地13", "url": "https://www.kaigokensaku.mhlw.go.jp/36/index.php?action_kouhyou_detail_004_kani=true&JigyosyoCd=3610310066-00&ServiceCd=780&Type=search", "url2": "https://meiwaen.rouken.jp/" }, "geometry": { "type": "Point", "coordinates": [ 134.635587671827693, 33.992246232121325 ] } },
{ "type": "Feature", "properties": { "内容": "リハビリここらday【地域密着型通所介護】徳島県小松島市中田町字新開44-1光ビル1Fテナント", "url": "https://www.kaigokensaku.mhlw.go.jp/36/index.php?action_kouhyou_detail_004_kani=true&JigyosyoCd=3690300086-00&ServiceCd=780&Type=search", "url2": "https://www.cocora-day.com" }, "geometry": { "type": "Point", "coordinates": [ 134.5839983, 34.0129471 ] } },
{ "type": "Feature", "properties": { "内容": "デイサービス　にこにこ苑【地域密着型通所介護】徳島県小松島市金磯町11番100号デイサービスにこにこ苑", "url": "https://www.kaigokensaku.mhlw.go.jp/36/index.php?action_kouhyou_detail_004_kani=true&JigyosyoCd=3690300060-00&ServiceCd=780&Type=search", "url2": "http://a-zerokaigo.com" }, "geometry": { "type": "Point", "coordinates": [ 134.5998975, 33.994727 ] } },
{ "type": "Feature", "properties": { "内容": "老人デイサービスセンターひかり苑【地域密着型通所介護】小松島市坂野町字樫のべ32番地の1", "url": "https://www.kaigokensaku.mhlw.go.jp/36/index.php?action_kouhyou_detail_004_kani=true&JigyosyoCd=3670300049-00&ServiceCd=780&Type=search", "url2": "http://fujino.ezdns.jp/keikouen/index.htm" }, "geometry": { "type": "Point", "coordinates": [ 134.625527, 33.969655500000023 ] } },
{ "type": "Feature", "properties": { "内容": "リハビリ専科らいず【地域密着型通所介護】徳島県阿南市羽ノ浦町宮倉日開元19番地5", "url": "https://www.kaigokensaku.mhlw.go.jp/36/index.php?action_kouhyou_detail_004_kani=true&JigyosyoCd=3670400773-00&ServiceCd=780&Type=search", "url2": null }, "geometry": { "type": "Point", "coordinates": [ 134.62123310000004, 33.9629566 ] } },
{ "type": "Feature", "properties": { "内容": "デイセンター富士【地域密着型通所介護】徳島県阿南市新野町西馬場３番地３", "url": "https://www.kaigokensaku.mhlw.go.jp/36/index.php?action_kouhyou_detail_004_kani=true&JigyosyoCd=3610410502-00&ServiceCd=780&Type=search", "url2": "http://fuji-clinic.net/" }, "geometry": { "type": "Point", "coordinates": [ 134.580932500000017, 33.8476808 ] } },
{ "type": "Feature", "properties": { "内容": "デイサービスセンターなかがわ苑【地域密着型通所介護】徳島県阿南市那賀川町大京原225-1デイサービスセンターなかがわ苑", "url": "https://www.kaigokensaku.mhlw.go.jp/36/index.php?action_kouhyou_detail_004_kani=true&JigyosyoCd=3670400575-00&ServiceCd=780&Type=search", "url2": null }, "geometry": { "type": "Point", "coordinates": [ 134.648774900000035, 33.944403 ] } },
{ "type": "Feature", "properties": { "内容": "有限会社すえひさ　デイサービスセンター杏の丘【地域密着型通所介護】徳島県阿南市内原町宮国33番地", "url": "https://www.kaigokensaku.mhlw.go.jp/36/index.php?action_kouhyou_detail_004_kani=true&JigyosyoCd=3670400526-00&ServiceCd=780&Type=search", "url2": "https://anzunooka.com/" }, "geometry": { "type": "Point", "coordinates": [ 134.635548699999958, 33.8845224 ] } },
{ "type": "Feature", "properties": { "内容": "心和会　デイサービスセンター悠和【地域密着型通所介護】徳島県阿南市新野町信里65ケアハウス悠和館", "url": "https://www.kaigokensaku.mhlw.go.jp/36/index.php?action_kouhyou_detail_004_kani=true&JigyosyoCd=3690400191-00&ServiceCd=780&Type=search", "url2": null }, "geometry": { "type": "Point", "coordinates": [ 134.599424664418024, 33.846584168327531 ] } },
{ "type": "Feature", "properties": { "内容": "デイセンターワーグナー【地域密着型通所介護】徳島県阿南市那賀川町苅屋289番地2", "url": "https://www.kaigokensaku.mhlw.go.jp/36/index.php?action_kouhyou_detail_004_kani=true&JigyosyoCd=3671300287-00&ServiceCd=780&Type=search", "url2": "https://www.kenshokai.group/" }, "geometry": { "type": "Point", "coordinates": [ 134.659604700000045, 33.9504324 ] } },
{ "type": "Feature", "properties": { "内容": "デイセンター緑風会尊氏【地域密着型通所介護】徳島県阿南市下大野町五反畑126番地1", "url": "https://www.kaigokensaku.mhlw.go.jp/36/index.php?action_kouhyou_detail_004_kani=true&JigyosyoCd=3690400167-00&ServiceCd=780&Type=search", "url2": "http://www.ryokufu1984.or.jp/" }, "geometry": { "type": "Point", "coordinates": [ 134.609596799999963, 33.9301753 ] } },
{ "type": "Feature", "properties": { "内容": "デイサービスセンター那賀川たんぽぽ【地域密着型通所介護】徳島県阿南市那賀川町今津浦宮面71番地１", "url": "https://www.kaigokensaku.mhlw.go.jp/36/index.php?action_kouhyou_detail_004_kani=true&JigyosyoCd=3670400427-00&ServiceCd=780&Type=search", "url2": "http://fujino.ezdns.jp" }, "geometry": { "type": "Point", "coordinates": [ 134.655459800000017, 33.9613086 ] } },
{ "type": "Feature", "properties": { "内容": "双葉会デイサービスセンター【地域密着型通所介護】徳島県阿南市見能林町南林260番地の7", "url": "https://www.kaigokensaku.mhlw.go.jp/36/index.php?action_kouhyou_detail_004_kani=true&JigyosyoCd=3690400217-00&ServiceCd=780&Type=search", "url2": "http://www.futabakai.inho/" }, "geometry": { "type": "Point", "coordinates": [ 134.681751, 33.8948729 ] } },
{ "type": "Feature", "properties": { "内容": "デイサービスらいず【地域密着型通所介護】徳島県阿南市見能林町ふちう2番地3", "url": "https://www.kaigokensaku.mhlw.go.jp/36/index.php?action_kouhyou_detail_004_kani=true&JigyosyoCd=3670400567-00&ServiceCd=780&Type=search", "url2": "https://www.yuai-anan.com/" }, "geometry": { "type": "Point", "coordinates": [ 134.66768449999995, 33.900776 ] } },
{ "type": "Feature", "properties": { "内容": "健生リハビリデイサービス【地域密着型通所介護】徳島県阿南市津乃峰町新浜12", "url": "https://www.kaigokensaku.mhlw.go.jp/36/index.php?action_kouhyou_detail_004_kani=true&JigyosyoCd=3690400209-00&ServiceCd=780&Type=search", "url2": "http://kensei-anan.com/" }, "geometry": { "type": "Point", "coordinates": [ 134.6618033, 33.8859613 ] } },
{ "type": "Feature", "properties": { "内容": "デイセンターモナ・リザ【地域密着型通所介護】徳島県阿南市福井町湊1番地8", "url": "https://www.kaigokensaku.mhlw.go.jp/36/index.php?action_kouhyou_detail_004_kani=true&JigyosyoCd=3690400175-00&ServiceCd=780&Type=search", "url2": "http://www.ryokufu1984.or.jp/" }, "geometry": { "type": "Point", "coordinates": [ 134.623885, 33.8494026 ] } },
{ "type": "Feature", "properties": { "内容": "真　二号館【地域密着型通所介護】徳島県吉野川市鴨島町飯尾1614番地20", "url": "https://www.kaigokensaku.mhlw.go.jp/36/index.php?action_kouhyou_detail_004_kani=true&JigyosyoCd=3691700094-00&ServiceCd=780&Type=search", "url2": "https://care-net.biz/36/makoto/" }, "geometry": { "type": "Point", "coordinates": [ 134.352148708845533, 34.053261083212483 ] } },
{ "type": "Feature", "properties": { "内容": "真一号館【地域密着型通所介護】徳島県吉野川市鴨島町敷地514-1", "url": "https://www.kaigokensaku.mhlw.go.jp/36/index.php?action_kouhyou_detail_004_kani=true&JigyosyoCd=3691700086-00&ServiceCd=780&Type=search", "url2": "https://care-net.biz/36/makoto/" }, "geometry": { "type": "Point", "coordinates": [ 134.348615500000051, 34.0554629 ] } },
{ "type": "Feature", "properties": { "内容": "ミニデイ・はらだ【地域密着型通所介護】徳島県吉野川市山川町前川１２－２", "url": "https://www.kaigokensaku.mhlw.go.jp/36/index.php?action_kouhyou_detail_004_kani=true&JigyosyoCd=3691700110-00&ServiceCd=780&Type=search", "url2": "http://haradaseikotsu.com/miniday/" }, "geometry": { "type": "Point", "coordinates": [ 134.247968500000013, 34.059307 ] } },
{ "type": "Feature", "properties": { "内容": "通所介護さくら【地域密着型通所介護】徳島県吉野川市山川町212-3", "url": "https://www.kaigokensaku.mhlw.go.jp/36/index.php?action_kouhyou_detail_004_kani=true&JigyosyoCd=3671700577-00&ServiceCd=780&Type=search", "url2": null }, "geometry": { "type": "Point", "coordinates": [ 134.2230183, 34.0491667 ] } },
{ "type": "Feature", "properties": { "内容": "デイサービスセンターせせらぎ【地域密着型通所介護】徳島県吉野川市鴨島町上下島440-3", "url": "https://www.kaigokensaku.mhlw.go.jp/36/index.php?action_kouhyou_detail_004_kani=true&JigyosyoCd=3691700136-00&ServiceCd=780&Type=search", "url2": "https://www.mima-gr.jp/mima/" }, "geometry": { "type": "Point", "coordinates": [ 134.350298400000014, 34.0718051 ] } },
{ "type": "Feature", "properties": { "内容": "デイサービスセンターあわ【地域密着型通所介護】徳島県吉野川市鴨島町鴨島538番地の8", "url": "https://www.kaigokensaku.mhlw.go.jp/36/index.php?action_kouhyou_detail_004_kani=true&JigyosyoCd=3671700411-00&ServiceCd=780&Type=search", "url2": "day.awa.itokawa@gmail.com" }, "geometry": { "type": "Point", "coordinates": [ 134.3555258, 34.0732936 ] } },
{ "type": "Feature", "properties": { "内容": "ナーシングホームあおいそら【地域密着型通所介護】徳島県吉野川市鴨島町鴨島876番地", "url": "https://www.kaigokensaku.mhlw.go.jp/36/index.php?action_kouhyou_detail_004_kani=true&JigyosyoCd=3671700767-00&ServiceCd=780&Type=search", "url2": "https://www.harenohi0515.com/" }, "geometry": { "type": "Point", "coordinates": [ 134.350620400000025, 34.0764323 ] } },
{ "type": "Feature", "properties": { "内容": "デイサービスセンター　なごみの家【地域密着型通所介護】徳島県阿波市土成町土成字大法寺283-9", "url": "https://www.kaigokensaku.mhlw.go.jp/36/index.php?action_kouhyou_detail_004_kani=true&JigyosyoCd=3671600462-00&ServiceCd=780&Type=search", "url2": null }, "geometry": { "type": "Point", "coordinates": [ 134.33296770000004, 34.1182333 ] } },
{ "type": "Feature", "properties": { "内容": "すだちのさと【地域密着型通所介護】阿波町南五味知104-4", "url": "https://www.kaigokensaku.mhlw.go.jp/36/index.php?action_kouhyou_detail_004_kani=true&JigyosyoCd=3671600355-00&ServiceCd=780&Type=search", "url2": "http://awasudachi.net/" }, "geometry": { "type": "Point", "coordinates": [ 134.236503558347835, 34.089911609043831 ] } },
{ "type": "Feature", "properties": { "内容": "デイサービスセンターよしの【地域密着型通所介護】徳島県阿波市吉野町柿原字二条146番地1", "url": "https://www.kaigokensaku.mhlw.go.jp/36/index.php?action_kouhyou_detail_004_kani=true&JigyosyoCd=3691600054-00&ServiceCd=780&Type=search", "url2": "http://www.hakuju-kai.or.jp" }, "geometry": { "type": "Point", "coordinates": [ 134.348279600000012, 34.0932696 ] } },
{ "type": "Feature", "properties": { "内容": "デイサービスセンター安樹【地域密着型通所介護】徳島県阿波市土成町吉田字原田市の一63番地4", "url": "https://www.kaigokensaku.mhlw.go.jp/36/index.php?action_kouhyou_detail_004_kani=true&JigyosyoCd=3671600371-00&ServiceCd=780&Type=search", "url2": "https://shinohara-shoji.com/" }, "geometry": { "type": "Point", "coordinates": [ 134.353611600000022, 34.1049986 ] } },
{ "type": "Feature", "properties": { "内容": "デイサービス百福【地域密着型通所介護】徳島県阿波市市場町上喜来字正田925番地1", "url": "https://www.kaigokensaku.mhlw.go.jp/36/index.php?action_kouhyou_detail_004_kani=true&JigyosyoCd=3671600538-00&ServiceCd=780&Type=search", "url2": null }, "geometry": { "type": "Point", "coordinates": [ 134.274438462771485, 34.105169739565625 ] } },
{ "type": "Feature", "properties": { "内容": "デイサービスセンターみどり【地域密着型通所介護】徳島県阿波市市場町香美字秋葉本80番地1", "url": "https://www.kaigokensaku.mhlw.go.jp/36/index.php?action_kouhyou_detail_004_kani=true&JigyosyoCd=3671600108-00&ServiceCd=780&Type=search", "url2": "http://www.yotsubakai-midori.jp" }, "geometry": { "type": "Point", "coordinates": [ 134.283944199999951, 34.0852037 ] } },
{ "type": "Feature", "properties": { "内容": "デイサービス若宮【地域密着型通所介護】徳島県美馬市脇町大字猪尻若宮南79-1", "url": "https://www.kaigokensaku.mhlw.go.jp/36/index.php?action_kouhyou_detail_004_kani=true&JigyosyoCd=3670500390-00&ServiceCd=780&Type=search", "url2": null }, "geometry": { "type": "Point", "coordinates": [ 134.158606400000053, 34.0681072 ] } },
{ "type": "Feature", "properties": { "内容": "でいさーびすなかはちのおか【地域密着型通所介護】徳島県美馬市脇町木ノ内字岡ノ西3945番地5", "url": "https://www.kaigokensaku.mhlw.go.jp/36/index.php?action_kouhyou_detail_004_kani=true&JigyosyoCd=3670500333-00&ServiceCd=780&Type=search", "url2": null }, "geometry": { "type": "Point", "coordinates": [ 134.101972599999954, 34.0565461 ] } },
{ "type": "Feature", "properties": { "内容": "ケアホームやすらぎの丘デイサービスセンター【地域密着型通所介護】徳島県美馬市脇町字拝原1780番地1", "url": "https://www.kaigokensaku.mhlw.go.jp/36/index.php?action_kouhyou_detail_004_kani=true&JigyosyoCd=3670500424-00&ServiceCd=780&Type=search", "url2": null }, "geometry": { "type": "Point", "coordinates": [ 134.168141399999968, 34.0620552 ] } },
{ "type": "Feature", "properties": { "内容": "デイサービスセンターぽっかぽか【地域密着型通所介護】美馬市美馬町字中通131番地1", "url": "https://www.kaigokensaku.mhlw.go.jp/36/index.php?action_kouhyou_detail_004_kani=true&JigyosyoCd=3670500259-00&ServiceCd=780&Type=search", "url2": null }, "geometry": { "type": "Point", "coordinates": [ 134.023990300000037, 34.0485002 ] } },
{ "type": "Feature", "properties": { "内容": "美馬市木屋平デイサービスセンター「つるぎの里」【地域密着型通所介護】徳島県美馬市木屋平字谷口257番地4", "url": "https://www.kaigokensaku.mhlw.go.jp/36/index.php?action_kouhyou_detail_004_kani=true&JigyosyoCd=3670500051-00&ServiceCd=780&Type=search", "url2": "https://shakyo-mima.e-tokushima.or.jp/" }, "geometry": { "type": "Point", "coordinates": [ 134.177514411457793, 33.91535200434847 ] } },
{ "type": "Feature", "properties": { "内容": "美馬市脇町西部デイサービスセンター【地域密着型通所介護】徳島県美馬市脇町字小星672-2", "url": "https://www.kaigokensaku.mhlw.go.jp/36/index.php?action_kouhyou_detail_004_kani=true&JigyosyoCd=3671800047-00&ServiceCd=780&Type=search", "url2": "http://www.koboshien.com/" }, "geometry": { "type": "Point", "coordinates": [ 134.096362626983591, 34.062532133787883 ] } },
{ "type": "Feature", "properties": { "内容": "美馬市脇町デイサービスセンター「おちあい荘」【地域密着型通所介護】徳島県美馬市脇町字西赤谷2232番地12", "url": "https://www.kaigokensaku.mhlw.go.jp/36/index.php?action_kouhyou_detail_004_kani=true&JigyosyoCd=3690500040-00&ServiceCd=780&Type=search", "url2": "http://syakyo.ict-tokushima.jp/mima/" }, "geometry": { "type": "Point", "coordinates": [ 134.1726018, 34.1097842 ] } },
{ "type": "Feature", "properties": { "内容": "紅葉温泉デイサービスセンター【地域密着型通所介護】徳島県三好市三野町加茂野宮1803番地11", "url": "https://www.kaigokensaku.mhlw.go.jp/36/index.php?action_kouhyou_detail_004_kani=true&JigyosyoCd=3690600105-00&ServiceCd=780&Type=search", "url2": "miyoshicity-shyakyo.jp" }, "geometry": { "type": "Point", "coordinates": [ 133.988814740753185, 34.064427455707218 ] } },
{ "type": "Feature", "properties": { "内容": "ﾗｲﾌｻﾎﾟｰﾄｾﾝﾀｰ　桜【地域密着型通所介護】徳島県三好市三野町芝生859-1", "url": "https://www.kaigokensaku.mhlw.go.jp/36/index.php?action_kouhyou_detail_004_kani=true&JigyosyoCd=3671900359-00&ServiceCd=780&Type=search", "url2": null }, "geometry": { "type": "Point", "coordinates": [ 133.967696899999964, 34.0459078 ] } },
{ "type": "Feature", "properties": { "内容": "デイサービス西山笑楽校【地域密着型通所介護】徳島県三好市池田町西山岡屋敷3563-1", "url": "https://www.kaigokensaku.mhlw.go.jp/36/index.php?action_kouhyou_detail_004_kani=true&JigyosyoCd=3670600299-00&ServiceCd=780&Type=search", "url2": null }, "geometry": { "type": "Point", "coordinates": [ 133.8052801, 34.0440054 ] } },
{ "type": "Feature", "properties": { "内容": "西祖谷ﾃﾞｲｻｰﾋﾞｽｾﾝﾀｰ【地域密着型通所介護】徳島県三好市西祖谷山村一宇343-1", "url": "https://www.kaigokensaku.mhlw.go.jp/36/index.php?action_kouhyou_detail_004_kani=true&JigyosyoCd=3690600089-00&ServiceCd=780&Type=search", "url2": "http://miyoshicity-shakyo.jp/" }, "geometry": { "type": "Point", "coordinates": [ 133.816698699999961, 33.8934584 ] } },
{ "type": "Feature", "properties": { "内容": "東祖谷デイサービスセンター【地域密着型通所介護】徳島県三好市東祖谷京上１４番地３", "url": "https://www.kaigokensaku.mhlw.go.jp/36/index.php?action_kouhyou_detail_004_kani=true&JigyosyoCd=3690600071-00&ServiceCd=780&Type=search", "url2": "http://miyoshcity-shakyo.jp/" }, "geometry": { "type": "Point", "coordinates": [ 133.906496699999934, 33.8680861 ] } },
{ "type": "Feature", "properties": { "内容": "社会福祉法人　三美厚生団　みのだデイサービスセンター【地域密着型通所介護】井川町大佐古２０番地１みのだデイサービスセンター", "url": "https://www.kaigokensaku.mhlw.go.jp/36/index.php?action_kouhyou_detail_004_kani=true&JigyosyoCd=3671900029-00&ServiceCd=780&Type=search", "url2": "http://minodaen.com/" }, "geometry": { "type": "Point", "coordinates": [ 133.885496200000034, 34.031339 ] } },
{ "type": "Feature", "properties": { "内容": "山城会デイサービスセンター【地域密着型通所介護】徳島県三好市山城町西宇1225-2", "url": "https://www.kaigokensaku.mhlw.go.jp/36/index.php?action_kouhyou_detail_004_kani=true&JigyosyoCd=3690600113-00&ServiceCd=780&Type=search", "url2": "https://www.yamashirokai.or.jp/" }, "geometry": { "type": "Point", "coordinates": [ 133.7477743, 33.9071348 ] } },
{ "type": "Feature", "properties": { "内容": "健生西部デイサービスなでしこ【地域密着型通所介護】徳島県三好市池田町サラダ1877-1", "url": "https://www.kaigokensaku.mhlw.go.jp/36/index.php?action_kouhyou_detail_004_kani=true&JigyosyoCd=3670600224-00&ServiceCd=780&Type=search", "url2": null }, "geometry": { "type": "Point", "coordinates": [ 133.80369010000004, 34.0262091 ] } },
{ "type": "Feature", "properties": { "内容": "さくらの里【地域密着型通所介護】徳島県三好市三野町太刀野山3796番地", "url": "https://www.kaigokensaku.mhlw.go.jp/36/index.php?action_kouhyou_detail_004_kani=true&JigyosyoCd=3670600281-00&ServiceCd=780&Type=search", "url2": null }, "geometry": { "type": "Point", "coordinates": [ 133.9393579, 34.071839600000025 ] } },
{ "type": "Feature", "properties": { "内容": "デイサービスセンターオレンジ荘【地域密着型通所介護】徳島県勝浦郡勝浦町大字棚野字竹国１３番地の１", "url": "https://www.kaigokensaku.mhlw.go.jp/36/index.php?action_kouhyou_detail_004_kani=true&JigyosyoCd=3691000016-00&ServiceCd=780&Type=search", "url2": "https://syoujukai.or.jp" }, "geometry": { "type": "Point", "coordinates": [ 134.504930800000011, 33.9327438 ] } },
{ "type": "Feature", "properties": { "内容": "デイセンターウィリアムテル【地域密着型通所介護】徳島県名東郡佐那河内村上字大黒２３番地１", "url": "https://www.kaigokensaku.mhlw.go.jp/36/index.php?action_kouhyou_detail_004_kani=true&JigyosyoCd=3691100014-00&ServiceCd=780&Type=search", "url2": "https://www.kenshokai.group/" }, "geometry": { "type": "Point", "coordinates": [ 134.4516351, 33.9923727 ] } },
{ "type": "Feature", "properties": { "内容": "医療法人青鳳会　デイサービスくつろぎ【地域密着型通所介護】徳島県名西郡石井町浦庄字上浦524-10", "url": "https://www.kaigokensaku.mhlw.go.jp/36/index.php?action_kouhyou_detail_004_kani=true&JigyosyoCd=3671200487-00&ServiceCd=780&Type=search", "url2": "ishii@mima-gr.jp" }, "geometry": { "type": "Point", "coordinates": [ 134.408735200000024, 34.0694323 ] } },
{ "type": "Feature", "properties": { "内容": "合同会社徳島県ふれあい介護支援センター　通所介護事業所【地域密着型通所介護】徳島県石井町高川原字天神671番地3", "url": "https://www.kaigokensaku.mhlw.go.jp/36/index.php?action_kouhyou_detail_004_kani=true&JigyosyoCd=3671200347-00&ServiceCd=780&Type=search", "url2": null }, "geometry": { "type": "Point", "coordinates": [ 134.442425100000037, 34.0823079 ] } },
{ "type": "Feature", "properties": { "内容": "デイサービスセンターひかりの家【地域密着型通所介護】徳島県名西郡石井町藍畑字東覚円２０２番地", "url": "https://www.kaigokensaku.mhlw.go.jp/36/index.php?action_kouhyou_detail_004_kani=true&JigyosyoCd=3671200412-00&ServiceCd=780&Type=search", "url2": null }, "geometry": { "type": "Point", "coordinates": [ 134.434018599999945, 34.0965911 ] } },
{ "type": "Feature", "properties": { "内容": "明日香デイサービスセンター【地域密着型通所介護】徳島県名西郡石井町浦庄字下浦342番地1", "url": "https://www.kaigokensaku.mhlw.go.jp/36/index.php?action_kouhyou_detail_004_kani=true&JigyosyoCd=3671200495-00&ServiceCd=780&Type=search", "url2": "https://asuka-lifecare.com/index.html" }, "geometry": { "type": "Point", "coordinates": [ 134.411951499999958, 34.06822420000001 ] } },
{ "type": "Feature", "properties": { "内容": "那賀町木沢デイサービスセンター【地域密着型通所介護】徳島県那賀郡那賀町木頭字前田５２－１那賀町木沢デイサービスセンター", "url": "https://www.kaigokensaku.mhlw.go.jp/36/index.php?action_kouhyou_detail_004_kani=true&JigyosyoCd=3671300519-00&ServiceCd=780&Type=search", "url2": null }, "geometry": { "type": "Point", "coordinates": [ 134.302007, 33.8242241 ] } },
{ "type": "Feature", "properties": { "内容": "水の花デイサービスセンター【地域密着型通所介護】徳島県那賀郡那賀町延野字大原４０番地１", "url": "https://www.kaigokensaku.mhlw.go.jp/36/index.php?action_kouhyou_detail_004_kani=true&JigyosyoCd=3671300048-00&ServiceCd=780&Type=search", "url2": "http://care-net.biz/36/suinohana/" }, "geometry": { "type": "Point", "coordinates": [ 134.483643, 33.8195273 ] } },
{ "type": "Feature", "properties": { "内容": "チロルデイサービスセンター【地域密着型通所介護】徳島県那賀郡那賀町成瀬字小谷口2番地", "url": "https://www.kaigokensaku.mhlw.go.jp/36/index.php?action_kouhyou_detail_004_kani=true&JigyosyoCd=3691300044-00&ServiceCd=780&Type=search", "url2": "http://www.ryokufu1984.or.jp/" }, "geometry": { "type": "Point", "coordinates": [ 134.285005700000056, 33.7829418 ] } },
{ "type": "Feature", "properties": { "内容": "デイサービスセンター浦島【地域密着型通所介護】徳島県海部郡美波町赤松字野田６１番地", "url": "https://www.kaigokensaku.mhlw.go.jp/36/index.php?action_kouhyou_detail_004_kani=true&JigyosyoCd=3691400091-00&ServiceCd=780&Type=search", "url2": "http://toukoukai.com/" }, "geometry": { "type": "Point", "coordinates": [ 134.499414800000011, 33.77121480000001 ] } },
{ "type": "Feature", "properties": { "内容": "えんじゅデイサービスセンター【地域密着型通所介護】徳島県板野郡松茂町広島字四番越５番地１", "url": "https://www.kaigokensaku.mhlw.go.jp/36/index.php?action_kouhyou_detail_004_kani=true&JigyosyoCd=3671500134-00&ServiceCd=780&Type=search", "url2": "https://yujoukai.jp" }, "geometry": { "type": "Point", "coordinates": [ 134.582551200000012, 34.1370468 ] } },
{ "type": "Feature", "properties": { "内容": "ふくゆうデイサービスセンター【地域密着型通所介護】徳島県板野郡松茂町笹木野字八北開拓175番地1", "url": "https://www.kaigokensaku.mhlw.go.jp/36/index.php?action_kouhyou_detail_004_kani=true&JigyosyoCd=3671501561-00&ServiceCd=780&Type=search", "url2": "https://www.yujoukai.jp/" }, "geometry": { "type": "Point", "coordinates": [ 134.591960100000051, 34.1394398 ] } },
{ "type": "Feature", "properties": { "内容": "せいけいかい指定通所介護事業所【地域密着型通所介護】徳島県板野郡松茂町笹木野字山東49-1", "url": "https://www.kaigokensaku.mhlw.go.jp/36/index.php?action_kouhyou_detail_004_kani=true&JigyosyoCd=3671500092-00&ServiceCd=780&Type=search", "url2": "http://wako-en.or.jp/" }, "geometry": { "type": "Point", "coordinates": [ 134.595426, 34.1243262 ] } },
{ "type": "Feature", "properties": { "内容": "デイサービスセンターかのん【地域密着型通所介護】徳島県板野郡藍住町住吉字藤ノ木61番地1", "url": "https://www.kaigokensaku.mhlw.go.jp/36/index.php?action_kouhyou_detail_004_kani=true&JigyosyoCd=3671501629-00&ServiceCd=780&Type=search", "url2": null }, "geometry": { "type": "Point", "coordinates": [ 134.504093319757771, 34.126277947870435 ] } },
{ "type": "Feature", "properties": { "内容": "デイサービスかるがも苑【地域密着型通所介護】徳島県板野郡藍住町奥野字乾４０－３", "url": "https://www.kaigokensaku.mhlw.go.jp/36/index.php?action_kouhyou_detail_004_kani=true&JigyosyoCd=3671501322-00&ServiceCd=780&Type=search", "url2": null }, "geometry": { "type": "Point", "coordinates": [ 134.490585900000013, 34.1295748 ] } },
{ "type": "Feature", "properties": { "内容": "デイサービスセンター藍【地域密着型通所介護】徳島県板野郡藍住町乙瀬字中田98-20", "url": "https://www.kaigokensaku.mhlw.go.jp/36/index.php?action_kouhyou_detail_004_kani=true&JigyosyoCd=3691500080-00&ServiceCd=780&Type=search", "url2": "http://www.ryoun.com/" }, "geometry": { "type": "Point", "coordinates": [ 134.497159499999952, 34.1393096 ] } },
{ "type": "Feature", "properties": { "内容": "デイサービスオアシス【地域密着型通所介護】徳島県板野郡板野町中久保字中須賀19番地", "url": "https://www.kaigokensaku.mhlw.go.jp/36/index.php?action_kouhyou_detail_004_kani=true&JigyosyoCd=3671501702-00&ServiceCd=780&Type=search", "url2": null }, "geometry": { "type": "Point", "coordinates": [ 134.451345603041091, 34.118292265954501 ] } },
{ "type": "Feature", "properties": { "内容": "つるぎ町高齢者生活福祉センター百寿荘【地域密着型通所介護】徳島県美馬郡つるぎ町一宇字赤松９０８－４", "url": "https://www.kaigokensaku.mhlw.go.jp/36/index.php?action_kouhyou_detail_004_kani=true&JigyosyoCd=3671800567-00&ServiceCd=780&Type=search", "url2": null }, "geometry": { "type": "Point", "coordinates": [ 134.056063699999982, 33.9556327 ] } }
]
}
