{
"type": "FeatureCollection",
"name": "geo_36_短期入所生活介護",
"crs": { "type": "name", "properties": { "name": "urn:ogc:def:crs:OGC:1.3:CRS84" } },
"features": [
{ "type": "Feature", "properties": { "内容": "特別養護老人ホーム大神子園【短期入所生活介護】徳島市大原町大神子19番", "url": "https://www.kaigokensaku.mhlw.go.jp/36/index.php?action_kouhyou_detail_004_kani=true&JigyosyoCd=3670103450-00&ServiceCd=210&Type=search", "url2": "https://www.sudachikai.jp/" }, "geometry": { "type": "Point", "coordinates": [ 134.584605108598339, 34.028418136896924 ] } },
{ "type": "Feature", "properties": { "内容": "特別養護老人ホーム　ライム【短期入所生活介護】徳島県徳島市国府町中字松ﾉ本28-1", "url": "https://www.kaigokensaku.mhlw.go.jp/36/index.php?action_kouhyou_detail_004_kani=true&JigyosyoCd=3670102619-00&ServiceCd=210&Type=search", "url2": "http://www.lemon.or.jp/" }, "geometry": { "type": "Point", "coordinates": [ 134.480856099999983, 34.0682185 ] } },
{ "type": "Feature", "properties": { "内容": "介護老人福祉施設　令陽【短期入所生活介護】徳島県徳島市川内町北原40番地", "url": "https://www.kaigokensaku.mhlw.go.jp/36/index.php?action_kouhyou_detail_004_kani=true&JigyosyoCd=3670105380-00&ServiceCd=210&Type=search", "url2": "https://www.lemon.or.jp/lime/reiyo/index.html" }, "geometry": { "type": "Point", "coordinates": [ 134.561642320901512, 34.10218035852504 ] } },
{ "type": "Feature", "properties": { "内容": "光の園ショートステイ【短期入所生活介護】徳島県徳島市渋野町西池27-1", "url": "https://www.kaigokensaku.mhlw.go.jp/36/index.php?action_kouhyou_detail_004_kani=true&JigyosyoCd=3670101553-00&ServiceCd=210&Type=search", "url2": "http://seiyohkai.jp" }, "geometry": { "type": "Point", "coordinates": [ 134.536261887033106, 34.003745940511543 ] } },
{ "type": "Feature", "properties": { "内容": "青葉荘短期入所生活介護事業所【短期入所生活介護】徳島県徳島市飯谷町上里42番地１", "url": "https://www.kaigokensaku.mhlw.go.jp/36/index.php?action_kouhyou_detail_004_kani=true&JigyosyoCd=3670100019-00&ServiceCd=210&Type=search", "url2": "htt://seiyohkai.jp/" }, "geometry": { "type": "Point", "coordinates": [ 134.5485645, 33.9662956 ] } },
{ "type": "Feature", "properties": { "内容": "平成アメニティ【短期入所生活介護】徳島県徳島市勝占町惣田17-1", "url": "https://www.kaigokensaku.mhlw.go.jp/36/index.php?action_kouhyou_detail_004_kani=true&JigyosyoCd=3650180239-00&ServiceCd=210&Type=search", "url2": "http://amenity.rouken.jp" }, "geometry": { "type": "Point", "coordinates": [ 134.550353, 34.0216394 ] } },
{ "type": "Feature", "properties": { "内容": "かもな園短期入所生活介護【短期入所生活介護】徳島県徳島市名東町２丁目４５４番地特別養護老人ホームかもな園", "url": "https://www.kaigokensaku.mhlw.go.jp/36/index.php?action_kouhyou_detail_004_kani=true&JigyosyoCd=3670100035-00&ServiceCd=210&Type=search", "url2": "http://www.sawarabikai.or.jp/" }, "geometry": { "type": "Point", "coordinates": [ 134.496129699999983, 34.0591143 ] } },
{ "type": "Feature", "properties": { "内容": "KAGOYAResort【短期入所生活介護】徳島市大原町外籠３８番地", "url": "https://www.kaigokensaku.mhlw.go.jp/36/index.php?action_kouhyou_detail_004_kani=true&JigyosyoCd=3670104979-00&ServiceCd=210&Type=search", "url2": "http://www.asagao-fukushikai.jp" }, "geometry": { "type": "Point", "coordinates": [ 134.568169282664485, 34.033356367988759 ] } },
{ "type": "Feature", "properties": { "内容": "ショートステイ春水【短期入所生活介護】徳島県徳島市名東町３丁目１３高齢者住宅春水", "url": "https://www.kaigokensaku.mhlw.go.jp/36/index.php?action_kouhyou_detail_004_kani=true&JigyosyoCd=3670103070-00&ServiceCd=210&Type=search", "url2": "https://kawauchi-clinic.jp/shunsui" }, "geometry": { "type": "Point", "coordinates": [ 134.495102, 34.0587365 ] } },
{ "type": "Feature", "properties": { "内容": "特別養護老人ホーム青香園【短期入所生活介護】徳島市川内町平石住吉183番地", "url": "https://www.kaigokensaku.mhlw.go.jp/36/index.php?action_kouhyou_detail_004_kani=true&JigyosyoCd=3670100209-00&ServiceCd=210&Type=search", "url2": "http://www.seikahukushikai.jp" }, "geometry": { "type": "Point", "coordinates": [ 134.585925800000041, 34.1140428 ] } },
{ "type": "Feature", "properties": { "内容": "ショートステイジラソーレ大松【短期入所生活介護】徳島県徳島市大松町榎原外50-1ジラソーレ大松", "url": "https://www.kaigokensaku.mhlw.go.jp/36/index.php?action_kouhyou_detail_004_kani=true&JigyosyoCd=3610127122-00&ServiceCd=210&Type=search", "url2": "http://himawari-gi.com" }, "geometry": { "type": "Point", "coordinates": [ 134.555948110975606, 34.024784839008142 ] } },
{ "type": "Feature", "properties": { "内容": "ショートステイベクセル余慶【短期入所生活介護】徳島県徳島市大原町余慶１番地５", "url": "https://www.kaigokensaku.mhlw.go.jp/36/index.php?action_kouhyou_detail_004_kani=true&JigyosyoCd=3670105588-00&ServiceCd=210&Type=search", "url2": "https//www.sudachikai.jp" }, "geometry": { "type": "Point", "coordinates": [ 134.5724698, 34.0275645 ] } },
{ "type": "Feature", "properties": { "内容": "ショートステイ国府【短期入所生活介護】徳島県徳島市国府町早淵７３４", "url": "https://www.kaigokensaku.mhlw.go.jp/36/index.php?action_kouhyou_detail_004_kani=true&JigyosyoCd=3670103922-00&ServiceCd=210&Type=search", "url2": "https://yuseikai.net/sskokufu/" }, "geometry": { "type": "Point", "coordinates": [ 134.483161399999972, 34.0592946 ] } },
{ "type": "Feature", "properties": { "内容": "ショートステイ　グランふく富久【短期入所生活介護】徳島県徳島市川内町富久102番地4", "url": "https://www.kaigokensaku.mhlw.go.jp/36/index.php?action_kouhyou_detail_004_kani=true&JigyosyoCd=3670104714-00&ServiceCd=210&Type=search", "url2": "fuku.nozomihp.com" }, "geometry": { "type": "Point", "coordinates": [ 134.591484029360942, 34.104602209631778 ] } },
{ "type": "Feature", "properties": { "内容": "特別養護老人ホーム大神子園【短期入所生活介護】徳島市大原町大神子１９番", "url": "https://www.kaigokensaku.mhlw.go.jp/36/index.php?action_kouhyou_detail_004_kani=true&JigyosyoCd=3670100191-00&ServiceCd=210&Type=search", "url2": "https://www.sudachikai.jp/" }, "geometry": { "type": "Point", "coordinates": [ 134.58470812914274, 34.028504771274037 ] } },
{ "type": "Feature", "properties": { "内容": "地域密着型特別養護老人ホーム陽香【短期入所生活介護】川内町平石住吉183番地地域密着型特別養護老人ホーム陽香", "url": "https://www.kaigokensaku.mhlw.go.jp/36/index.php?action_kouhyou_detail_004_kani=true&JigyosyoCd=3670104177-00&ServiceCd=210&Type=search", "url2": "www.seikahukushikai.jp" }, "geometry": { "type": "Point", "coordinates": [ 134.5859787, 34.113915 ] } },
{ "type": "Feature", "properties": { "内容": "ショートステイ幸鈴園【短期入所生活介護】徳島市北島田町1丁目162番地", "url": "https://www.kaigokensaku.mhlw.go.jp/36/index.php?action_kouhyou_detail_004_kani=true&JigyosyoCd=3610125340-00&ServiceCd=210&Type=search", "url2": "http://www.toyohosp.jp/" }, "geometry": { "type": "Point", "coordinates": [ 134.515352500000063, 34.0894446 ] } },
{ "type": "Feature", "properties": { "内容": "特別養護老人ホームなつめ荘【短期入所生活介護】徳島県徳島市新浜本町1丁目7番70号特別養護老人ホームなつめ荘", "url": "https://www.kaigokensaku.mhlw.go.jp/36/index.php?action_kouhyou_detail_004_kani=true&JigyosyoCd=3670102726-00&ServiceCd=210&Type=search", "url2": "http://natsumesou.com/" }, "geometry": { "type": "Point", "coordinates": [ 134.572486300000037, 34.0440842 ] } },
{ "type": "Feature", "properties": { "内容": "単独型短期入所生活介護事業所ロイヤルセレブステイ【短期入所生活介護】徳島市沖浜東2丁目３０", "url": "https://www.kaigokensaku.mhlw.go.jp/36/index.php?action_kouhyou_detail_004_kani=true&JigyosyoCd=3670102981-00&ServiceCd=210&Type=search", "url2": "http://www.royalceleb.sakura.ne.jp/index.html" }, "geometry": { "type": "Point", "coordinates": [ 134.555463199999963, 34.0527552 ] } },
{ "type": "Feature", "properties": { "内容": "単独型短期入所生活介護事業所　ロイヤルヘルス倶楽部【短期入所生活介護】徳島県徳島市西新浜町2丁目3-38", "url": "https://www.kaigokensaku.mhlw.go.jp/36/index.php?action_kouhyou_detail_004_kani=true&JigyosyoCd=3670104227-00&ServiceCd=210&Type=search", "url2": "https://www.royal-hc.com/" }, "geometry": { "type": "Point", "coordinates": [ 134.559104667459081, 34.041811197841554 ] } },
{ "type": "Feature", "properties": { "内容": "介護老人福祉施設　ヴィラ勝占【短期入所生活介護】徳島市勝占町松成43-1", "url": "https://www.kaigokensaku.mhlw.go.jp/36/index.php?action_kouhyou_detail_004_kani=true&JigyosyoCd=3670101017-00&ServiceCd=210&Type=search", "url2": "https://katsura.tokuyou.jp" }, "geometry": { "type": "Point", "coordinates": [ 134.5514809, 34.0204447 ] } },
{ "type": "Feature", "properties": { "内容": "ショートステイ佐古【短期入所生活介護】徳島県徳島市佐古四番町６番１１号愛日ビル　２階", "url": "https://www.kaigokensaku.mhlw.go.jp/36/index.php?action_kouhyou_detail_004_kani=true&JigyosyoCd=3670103351-00&ServiceCd=210&Type=search", "url2": "http://www.youaijitsu.com" }, "geometry": { "type": "Point", "coordinates": [ 134.53229280000005, 34.0780131 ] } },
{ "type": "Feature", "properties": { "内容": "ショートステイ　大神子【短期入所生活介護】徳島県徳島市大原町大神子16番地2", "url": "https://www.kaigokensaku.mhlw.go.jp/36/index.php?action_kouhyou_detail_004_kani=true&JigyosyoCd=3610123667-00&ServiceCd=210&Type=search", "url2": "http://www.doushisya.jp" }, "geometry": { "type": "Point", "coordinates": [ 134.585293200000024, 34.0287391 ] } },
{ "type": "Feature", "properties": { "内容": "徳島万代ケアセンターそよ風【短期入所生活介護】万代町６丁目1番3", "url": "https://www.kaigokensaku.mhlw.go.jp/36/index.php?action_kouhyou_detail_004_kani=true&JigyosyoCd=3670105422-00&ServiceCd=210&Type=search", "url2": "https://www.sykz.co.jp/" }, "geometry": { "type": "Point", "coordinates": [ 134.566087394841247, 34.062325690792818 ] } },
{ "type": "Feature", "properties": { "内容": "特別養護老人ホーム　健祥会モルダウ【短期入所生活介護】徳島県徳島市応神町古川字北36番地", "url": "https://www.kaigokensaku.mhlw.go.jp/36/index.php?action_kouhyou_detail_004_kani=true&JigyosyoCd=3670100803-00&ServiceCd=210&Type=search", "url2": "https://www.kenshokai.group/" }, "geometry": { "type": "Point", "coordinates": [ 134.5481072, 34.1067546 ] } },
{ "type": "Feature", "properties": { "内容": "仙寿園短期入所生活介護事業所【短期入所生活介護】徳島県徳島市住吉四丁目12番10号", "url": "https://www.kaigokensaku.mhlw.go.jp/36/index.php?action_kouhyou_detail_004_kani=true&JigyosyoCd=3670100175-00&ServiceCd=210&Type=search", "url2": "http://hakuju-kai.or.jp/" }, "geometry": { "type": "Point", "coordinates": [ 134.569017199999962, 34.0827271 ] } },
{ "type": "Feature", "properties": { "内容": "ショートステイ阿波っ子【短期入所生活介護】徳島県徳島市国府町和田字居内１０７番地", "url": "https://www.kaigokensaku.mhlw.go.jp/36/index.php?action_kouhyou_detail_004_kani=true&JigyosyoCd=3670103344-00&ServiceCd=210&Type=search", "url2": "tamaki-aozora.ne.jp" }, "geometry": { "type": "Point", "coordinates": [ 134.490835699999934, 34.0747872 ] } },
{ "type": "Feature", "properties": { "内容": "社会福祉法人　光風会【短期入所生活介護】徳島県徳島市下町本丁59-19", "url": "https://www.kaigokensaku.mhlw.go.jp/36/index.php?action_kouhyou_detail_004_kani=true&JigyosyoCd=3670100027-00&ServiceCd=210&Type=search", "url2": "https://www.tk2.nmt.ne.jp/~kouhuukai/index.html" }, "geometry": { "type": "Point", "coordinates": [ 134.486852699999986, 34.0366362 ] } },
{ "type": "Feature", "properties": { "内容": "ショートステイセンターピア【短期入所生活介護】徳島市八万町大野5－5特別養護老人ホームピア", "url": "https://www.kaigokensaku.mhlw.go.jp/36/index.php?action_kouhyou_detail_004_kani=true&JigyosyoCd=3670100050-00&ServiceCd=210&Type=search", "url2": "https://keirou-group.jp/" }, "geometry": { "type": "Point", "coordinates": [ 134.55000960000001, 34.043834 ] } },
{ "type": "Feature", "properties": { "内容": "特別養護老人ホーム春潮苑【短期入所生活介護】徳島県鳴門市撫養町立岩字五枚１４６", "url": "https://www.kaigokensaku.mhlw.go.jp/36/index.php?action_kouhyou_detail_004_kani=true&JigyosyoCd=3670200058-00&ServiceCd=210&Type=search", "url2": "http://syunchoen.jp/" }, "geometry": { "type": "Point", "coordinates": [ 134.6207425, 34.1665106 ] } },
{ "type": "Feature", "properties": { "内容": "特別養護老人ホーム鳴光荘【短期入所生活介護】徳島県鳴門市鳴門町三ツ石字江尻山85番地", "url": "https://www.kaigokensaku.mhlw.go.jp/36/index.php?action_kouhyou_detail_004_kani=true&JigyosyoCd=3670200041-00&ServiceCd=210&Type=search", "url2": "http://www.carehouse-naruto.jp/" }, "geometry": { "type": "Point", "coordinates": [ 134.604464199999939, 34.1978338 ] } },
{ "type": "Feature", "properties": { "内容": "社会福祉法人　緑樹会　介護老人福祉施設　おおつ苑【短期入所生活介護】徳島県鳴門市大津町大代字戎野４７２", "url": "https://www.kaigokensaku.mhlw.go.jp/36/index.php?action_kouhyou_detail_004_kani=true&JigyosyoCd=3670200488-00&ServiceCd=210&Type=search", "url2": "http://ryokujyukai.com/" }, "geometry": { "type": "Point", "coordinates": [ 134.570272599999953, 34.1621418 ] } },
{ "type": "Feature", "properties": { "内容": "地域密着型介護老人福祉施設おおあさ杜樹の音【短期入所生活介護】徳島県鳴門市大麻町桧字東山田５７－５おおあさ杜樹の音", "url": "https://www.kaigokensaku.mhlw.go.jp/36/index.php?action_kouhyou_detail_004_kani=true&JigyosyoCd=3670201114-00&ServiceCd=210&Type=search", "url2": "ryokujyukai.com" }, "geometry": { "type": "Point", "coordinates": [ 134.500326300000012, 34.1670641 ] } },
{ "type": "Feature", "properties": { "内容": "特別養護老人ホーム　おおあさ苑【短期入所生活介護】徳島県鳴門市大麻町桧字東山田５７－１０", "url": "https://www.kaigokensaku.mhlw.go.jp/36/index.php?action_kouhyou_detail_004_kani=true&JigyosyoCd=3670200033-00&ServiceCd=210&Type=search", "url2": "http//ryokujyukai.com/" }, "geometry": { "type": "Point", "coordinates": [ 134.500236299999983, 34.1662284 ] } },
{ "type": "Feature", "properties": { "内容": "特別養護老人ホーム鳴優荘【短期入所生活介護】鳴門町土佐泊浦字黒山118番地257", "url": "https://www.kaigokensaku.mhlw.go.jp/36/index.php?action_kouhyou_detail_004_kani=true&JigyosyoCd=3670200918-00&ServiceCd=210&Type=search", "url2": "https://meijyukai.com/meiyu/" }, "geometry": { "type": "Point", "coordinates": [ 134.625900202389914, 34.206555878394298 ] } },
{ "type": "Feature", "properties": { "内容": "ショートステイほほえみ【短期入所生活介護】徳島県鳴門市撫養町立岩字五枚２２０番地1", "url": "https://www.kaigokensaku.mhlw.go.jp/36/index.php?action_kouhyou_detail_004_kani=true&JigyosyoCd=3671500597-00&ServiceCd=210&Type=search", "url2": null }, "geometry": { "type": "Point", "coordinates": [ 134.62044549999996, 34.1640219 ] } },
{ "type": "Feature", "properties": { "内容": "千歳苑指定短期入所生活介護事業所【短期入所生活介護】徳島県小松島市小松島町字元根井54番地1", "url": "https://www.kaigokensaku.mhlw.go.jp/36/index.php?action_kouhyou_detail_004_kani=true&JigyosyoCd=3670300056-00&ServiceCd=210&Type=search", "url2": "https://aishinkai-t.com/titoseen/" }, "geometry": { "type": "Point", "coordinates": [ 134.591159599999969, 34.0153574 ] } },
{ "type": "Feature", "properties": { "内容": "短期入所生活介護事業所恵光苑【短期入所生活介護】小松島市坂野町字樫のべ32番地の1", "url": "https://www.kaigokensaku.mhlw.go.jp/36/index.php?action_kouhyou_detail_004_kani=true&JigyosyoCd=3670300049-00&ServiceCd=210&Type=search", "url2": "http://fujino.ezdns.jp/keikouen/index.htm" }, "geometry": { "type": "Point", "coordinates": [ 134.625602, 33.9695777 ] } },
{ "type": "Feature", "properties": { "内容": "琴江荘短期入所生活介護【短期入所生活介護】徳島県阿南市宝田町今市金剛寺３８番地１", "url": "https://www.kaigokensaku.mhlw.go.jp/36/index.php?action_kouhyou_detail_004_kani=true&JigyosyoCd=3670400047-00&ServiceCd=210&Type=search", "url2": "kinkousou@mc.pikara.ne.jp" }, "geometry": { "type": "Point", "coordinates": [ 134.6473502, 33.9251475 ] } },
{ "type": "Feature", "properties": { "内容": "特別養護老人ホーム健祥会バイエルン【短期入所生活介護】徳島県阿南市那賀川町苅屋２８９番地２", "url": "https://www.kaigokensaku.mhlw.go.jp/36/index.php?action_kouhyou_detail_004_kani=true&JigyosyoCd=3671300287-00&ServiceCd=210&Type=search", "url2": "https://www.kenshokai.group/" }, "geometry": { "type": "Point", "coordinates": [ 134.65941250000003, 33.9504353 ] } },
{ "type": "Feature", "properties": { "内容": "特別養護老人ホーム　ライフイン長生【短期入所生活介護】徳島県阿南市長生町西方５９番地", "url": "https://www.kaigokensaku.mhlw.go.jp/36/index.php?action_kouhyou_detail_004_kani=true&JigyosyoCd=3670400062-00&ServiceCd=210&Type=search", "url2": "http://seisaikai.jp/" }, "geometry": { "type": "Point", "coordinates": [ 134.6236106, 33.9247647 ] } },
{ "type": "Feature", "properties": { "内容": "特別養護老人ホームコスモスの里【短期入所生活介護】徳島県阿南市羽ノ浦町明見１３５－１", "url": "https://www.kaigokensaku.mhlw.go.jp/36/index.php?action_kouhyou_detail_004_kani=true&JigyosyoCd=3670400435-00&ServiceCd=210&Type=search", "url2": "https//www.sudachikai.jp/" }, "geometry": { "type": "Point", "coordinates": [ 134.598706600000014, 33.9412818 ] } },
{ "type": "Feature", "properties": { "内容": "阿南荘短期入所生活介護事業所【短期入所生活介護】徳島県阿南市宝田町今市金剛地４３", "url": "https://www.kaigokensaku.mhlw.go.jp/36/index.php?action_kouhyou_detail_004_kani=true&JigyosyoCd=3670400021-00&ServiceCd=210&Type=search", "url2": "http://anan-hukushikai.com" }, "geometry": { "type": "Point", "coordinates": [ 134.646325299999944, 33.9220841 ] } },
{ "type": "Feature", "properties": { "内容": "単独型短期入所生活介護事業所　ロイヤルフラワーガーデン【短期入所生活介護】徳島県阿南市中林町蟹田1-2", "url": "https://www.kaigokensaku.mhlw.go.jp/36/index.php?action_kouhyou_detail_004_kani=true&JigyosyoCd=3670400625-00&ServiceCd=210&Type=search", "url2": null }, "geometry": { "type": "Point", "coordinates": [ 134.683024700000033, 33.9057336 ] } },
{ "type": "Feature", "properties": { "内容": "介護老人福祉施設ヴィラ羽ノ浦【短期入所生活介護】徳島県阿南市羽ノ浦町岩脇上平69介護老人福祉施設ヴィラ羽ノ浦", "url": "https://www.kaigokensaku.mhlw.go.jp/36/index.php?action_kouhyou_detail_004_kani=true&JigyosyoCd=3671300329-00&ServiceCd=210&Type=search", "url2": "http://hanoura.tokuyou.jp/" }, "geometry": { "type": "Point", "coordinates": [ 134.6132341, 33.9453424 ] } },
{ "type": "Feature", "properties": { "内容": "特別養護老人ホーム　緑風会ルネッサンス【短期入所生活介護】徳島県阿南市福井町湊1番地8", "url": "https://www.kaigokensaku.mhlw.go.jp/36/index.php?action_kouhyou_detail_004_kani=true&JigyosyoCd=3670400096-00&ServiceCd=210&Type=search", "url2": "http://www.ryokufu1984.or.jp/" }, "geometry": { "type": "Point", "coordinates": [ 134.623880099999951, 33.8493682 ] } },
{ "type": "Feature", "properties": { "内容": "特別養護老人ホーム　美郷【短期入所生活介護】徳島県吉野川市美郷字毛無92-17", "url": "https://www.kaigokensaku.mhlw.go.jp/36/index.php?action_kouhyou_detail_004_kani=true&JigyosyoCd=3671700395-00&ServiceCd=210&Type=search", "url2": "http://koutukai.com" }, "geometry": { "type": "Point", "coordinates": [ 134.2647187, 34.0296436 ] } },
{ "type": "Feature", "properties": { "内容": "美山苑短期入所事業所【短期入所生活介護】徳島県吉野川市山川町祇園51番地特別養護老人ホーム美山苑", "url": "https://www.kaigokensaku.mhlw.go.jp/36/index.php?action_kouhyou_detail_004_kani=true&JigyosyoCd=3671700056-00&ServiceCd=210&Type=search", "url2": "https://www.hakuyuu.com" }, "geometry": { "type": "Point", "coordinates": [ 134.248933800000032, 34.0578954 ] } },
{ "type": "Feature", "properties": { "内容": "ショートステイ山川【短期入所生活介護】徳島県吉野川市山川町諏訪411-63", "url": "https://www.kaigokensaku.mhlw.go.jp/36/index.php?action_kouhyou_detail_004_kani=true&JigyosyoCd=3671700684-00&ServiceCd=210&Type=search", "url2": "http://koutukai.com" }, "geometry": { "type": "Point", "coordinates": [ 134.24944060727077, 34.06656633813067 ] } },
{ "type": "Feature", "properties": { "内容": "特別養護老人ホーム水明荘【短期入所生活介護】徳島県吉野川市川島町川島１０６番地", "url": "https://www.kaigokensaku.mhlw.go.jp/36/index.php?action_kouhyou_detail_004_kani=true&JigyosyoCd=3671700106-00&ServiceCd=210&Type=search", "url2": "https://www.kenshokai.group/" }, "geometry": { "type": "Point", "coordinates": [ 134.321051099999977, 34.0663844 ] } },
{ "type": "Feature", "properties": { "内容": "ショートステイ　きくみ【短期入所生活介護】徳島県吉野川市鴨島町上下島字松元431番17複合型福祉施設　かわせみ", "url": "https://www.kaigokensaku.mhlw.go.jp/36/index.php?action_kouhyou_detail_004_kani=true&JigyosyoCd=3671700742-00&ServiceCd=210&Type=search", "url2": "https://hakuhou.mima-gr.jp/kikumi/kawasemi/ss-kikumi/" }, "geometry": { "type": "Point", "coordinates": [ 134.350526674995677, 34.071152132890234 ] } },
{ "type": "Feature", "properties": { "内容": "菊美荘ショートステイセンター【短期入所生活介護】徳島県吉野川市鴨島町上下島字大北443番地2", "url": "https://www.kaigokensaku.mhlw.go.jp/36/index.php?action_kouhyou_detail_004_kani=true&JigyosyoCd=3671700023-00&ServiceCd=210&Type=search", "url2": "https://hakuhou.mima-gr.jp/kikumi/tokuyou/ss_center/" }, "geometry": { "type": "Point", "coordinates": [ 134.349685459670582, 34.072078797244643 ] } },
{ "type": "Feature", "properties": { "内容": "阿北特別養護老人ホーム【短期入所生活介護】徳島県阿波市市場町市場岸ノ下190番地3", "url": "https://www.kaigokensaku.mhlw.go.jp/36/index.php?action_kouhyou_detail_004_kani=true&JigyosyoCd=3671600041-00&ServiceCd=210&Type=search", "url2": null }, "geometry": { "type": "Point", "coordinates": [ 134.275714, 34.0846239 ] } },
{ "type": "Feature", "properties": { "内容": "阿波老人ホームよしの園【短期入所生活介護】徳島県阿波市吉野町柿原字二条１４６番地1", "url": "https://www.kaigokensaku.mhlw.go.jp/36/index.php?action_kouhyou_detail_004_kani=true&JigyosyoCd=3671500068-00&ServiceCd=210&Type=search", "url2": "http://www.hakuju-kai.or.jp" }, "geometry": { "type": "Point", "coordinates": [ 134.348068, 34.0928433 ] } },
{ "type": "Feature", "properties": { "内容": "ショートステイ楽樹【短期入所生活介護】徳島県阿波市吉野町柿原字西二條216番地3", "url": "https://www.kaigokensaku.mhlw.go.jp/36/index.php?action_kouhyou_detail_004_kani=true&JigyosyoCd=3671600454-00&ServiceCd=210&Type=search", "url2": "http://shinohara-shoji.com/" }, "geometry": { "type": "Point", "coordinates": [ 134.344635, 34.0949791 ] } },
{ "type": "Feature", "properties": { "内容": "御所園短期入所生活介護事業所【短期入所生活介護】土成町吉田字梨木原1番地5", "url": "https://www.kaigokensaku.mhlw.go.jp/36/index.php?action_kouhyou_detail_004_kani=true&JigyosyoCd=3671500381-00&ServiceCd=210&Type=search", "url2": "http://www.hakujyu-kai.or.jp" }, "geometry": { "type": "Point", "coordinates": [ 134.353453599999966, 34.124534 ] } },
{ "type": "Feature", "properties": { "内容": "特別養護老人ホーム蓬莱荘【短期入所生活介護】徳島県阿波市阿波町北整理１番地１", "url": "https://www.kaigokensaku.mhlw.go.jp/36/index.php?action_kouhyou_detail_004_kani=true&JigyosyoCd=3671600017-00&ServiceCd=210&Type=search", "url2": "https://horaikai.or.jp/" }, "geometry": { "type": "Point", "coordinates": [ 134.194393799999943, 34.0756619 ] } },
{ "type": "Feature", "properties": { "内容": "特別養護老人ホーム　はなのおか【短期入所生活介護】徳島県美馬市美馬町字天神87-8", "url": "https://www.kaigokensaku.mhlw.go.jp/36/index.php?action_kouhyou_detail_004_kani=true&JigyosyoCd=3670500135-00&ServiceCd=210&Type=search", "url2": "http://www.hananooka.sakura.ne.jp/" }, "geometry": { "type": "Point", "coordinates": [ 134.054021799999987, 34.0495668 ] } },
{ "type": "Feature", "properties": { "内容": "ケアプラザみま短期入所生活介護施設【短期入所生活介護】徳島県美馬市美馬町字高畑8番地1", "url": "https://www.kaigokensaku.mhlw.go.jp/36/index.php?action_kouhyou_detail_004_kani=true&JigyosyoCd=3671800385-00&ServiceCd=210&Type=search", "url2": "https://horaikai.or.jp" }, "geometry": { "type": "Point", "coordinates": [ 134.079303399999958, 34.0581995 ] } },
{ "type": "Feature", "properties": { "内容": "特別養護老人ホーム健祥会家康【短期入所生活介護】徳島県美馬市脇町大字脇町966番地", "url": "https://www.kaigokensaku.mhlw.go.jp/36/index.php?action_kouhyou_detail_004_kani=true&JigyosyoCd=3671800369-00&ServiceCd=210&Type=search", "url2": "https://www.kenshokai.group/" }, "geometry": { "type": "Point", "coordinates": [ 134.137086599999947, 34.0725479 ] } },
{ "type": "Feature", "properties": { "内容": "特別養護老人ホーム　永楽荘【短期入所生活介護】徳島県三好市池田町州津西ノ久保291番地1", "url": "https://www.kaigokensaku.mhlw.go.jp/36/index.php?action_kouhyou_detail_004_kani=true&JigyosyoCd=3671900052-00&ServiceCd=210&Type=search", "url2": "http://www.ikeda-hakuaikai.org/" }, "geometry": { "type": "Point", "coordinates": [ 133.840242799999942, 34.0349383 ] } },
{ "type": "Feature", "properties": { "内容": "特別養護老人ホーム長生園【短期入所生活介護】徳島県三好市三野町勢力７６８番地１", "url": "https://www.kaigokensaku.mhlw.go.jp/36/index.php?action_kouhyou_detail_004_kani=true&JigyosyoCd=3670600364-00&ServiceCd=210&Type=search", "url2": "http://www.ikeda-hakuaikai.org/" }, "geometry": { "type": "Point", "coordinates": [ 133.979432399999951, 34.0524255 ] } },
{ "type": "Feature", "properties": { "内容": "特別養護老人ホームひかり【短期入所生活介護】徳島県三好市池田町白地本名194番地8", "url": "https://www.kaigokensaku.mhlw.go.jp/36/index.php?action_kouhyou_detail_004_kani=true&JigyosyoCd=3670600349-00&ServiceCd=210&Type=search", "url2": "https://www.kenshokai.group/" }, "geometry": { "type": "Point", "coordinates": [ 133.781097400000021, 34.0172304 ] } },
{ "type": "Feature", "properties": { "内容": "特別養護老人ホーム健祥会清盛【短期入所生活介護】徳島県三好市東祖谷古味36番地1", "url": "https://www.kaigokensaku.mhlw.go.jp/36/index.php?action_kouhyou_detail_004_kani=true&JigyosyoCd=3671900136-00&ServiceCd=210&Type=search", "url2": "http://www.kenshokai.group" }, "geometry": { "type": "Point", "coordinates": [ 133.894242599999984, 33.8382284 ] } },
{ "type": "Feature", "properties": { "内容": "特別養護老人ホームみのだ苑【短期入所生活介護】徳島県三好市井川町片山222番地", "url": "https://www.kaigokensaku.mhlw.go.jp/36/index.php?action_kouhyou_detail_004_kani=true&JigyosyoCd=3671900029-00&ServiceCd=210&Type=search", "url2": "http://minodaen.com/" }, "geometry": { "type": "Point", "coordinates": [ 133.8852713, 34.0308891 ] } },
{ "type": "Feature", "properties": { "内容": "特別養護老人ホーム山城荘【短期入所生活介護】徳島県三好市山城町西宇1227-4", "url": "https://www.kaigokensaku.mhlw.go.jp/36/index.php?action_kouhyou_detail_004_kani=true&JigyosyoCd=3671900037-00&ServiceCd=210&Type=search", "url2": "http://yamashirokai.or.jp/" }, "geometry": { "type": "Point", "coordinates": [ 133.758924900000011, 33.9132442 ] } },
{ "type": "Feature", "properties": { "内容": "特別養護老人ホーム喜楽苑【短期入所生活介護】徳島県勝浦郡勝浦町大字棚野字竹国１３番地の１", "url": "https://www.kaigokensaku.mhlw.go.jp/36/index.php?action_kouhyou_detail_004_kani=true&JigyosyoCd=3671000010-00&ServiceCd=210&Type=search", "url2": "http://syoujukai.or.jp" }, "geometry": { "type": "Point", "coordinates": [ 134.504896, 33.9326887 ] } },
{ "type": "Feature", "properties": { "内容": "特別養護老人ホーム健祥会ピーター【短期入所生活介護】徳島県勝浦郡上勝町大字正木字西浦25番地特別養護老人ホーム健祥会ピーター", "url": "https://www.kaigokensaku.mhlw.go.jp/36/index.php?action_kouhyou_detail_004_kani=true&JigyosyoCd=3671000028-00&ServiceCd=210&Type=search", "url2": "https://www.kenshokai.group/" }, "geometry": { "type": "Point", "coordinates": [ 134.419859200000019, 33.924601 ] } },
{ "type": "Feature", "properties": { "内容": "特別養護老人ホーム　健祥会ハイジ【短期入所生活介護】徳島県名東郡佐那河内村上字大黒23番地1", "url": "https://www.kaigokensaku.mhlw.go.jp/36/index.php?action_kouhyou_detail_004_kani=true&JigyosyoCd=3671100018-00&ServiceCd=210&Type=search", "url2": "http://www.kenshokai.group/" }, "geometry": { "type": "Point", "coordinates": [ 134.451613599999973, 33.9923776 ] } },
{ "type": "Feature", "properties": { "内容": "ショートステイ昭誠館天神【短期入所生活介護】徳島県名西郡石井町高川原字天神725-4", "url": "https://www.kaigokensaku.mhlw.go.jp/36/index.php?action_kouhyou_detail_004_kani=true&JigyosyoCd=3671200388-00&ServiceCd=210&Type=search", "url2": "http://yuseikai.net/tenjin/" }, "geometry": { "type": "Point", "coordinates": [ 134.439868100000012, 34.0804671 ] } },
{ "type": "Feature", "properties": { "内容": "青藍短期入所生活介護事業所【短期入所生活介護】名西郡石井町高原字中須８番地１", "url": "https://www.kaigokensaku.mhlw.go.jp/36/index.php?action_kouhyou_detail_004_kani=true&JigyosyoCd=3671200032-00&ServiceCd=210&Type=search", "url2": "http://seiranso.com" }, "geometry": { "type": "Point", "coordinates": [ 134.4003973, 34.084411 ] } },
{ "type": "Feature", "properties": { "内容": "神山すだち園【短期入所生活介護】徳島県名西郡神山町阿野字長谷３３５番地特別養護老人ホーム神山すだち園", "url": "https://www.kaigokensaku.mhlw.go.jp/36/index.php?action_kouhyou_detail_004_kani=true&JigyosyoCd=3671200024-00&ServiceCd=210&Type=search", "url2": "http://www.yuseikai.net/fukusikai.hmt" }, "geometry": { "type": "Point", "coordinates": [ 134.41697309999995, 34.0497569 ] } },
{ "type": "Feature", "properties": { "内容": "水の花荘短期入所生活介護事業所【短期入所生活介護】徳島県那賀郡那賀町延野字大原40番地1", "url": "https://www.kaigokensaku.mhlw.go.jp/36/index.php?action_kouhyou_detail_004_kani=true&JigyosyoCd=3671300733-00&ServiceCd=210&Type=search", "url2": "http://care-net.biz/36/suinohana/" }, "geometry": { "type": "Point", "coordinates": [ 134.483643, 33.8195273 ] } },
{ "type": "Feature", "properties": { "内容": "水の花荘短期入所生活介護事業所【短期入所生活介護】徳島県那賀郡那賀町延野字大原４０番地１", "url": "https://www.kaigokensaku.mhlw.go.jp/36/index.php?action_kouhyou_detail_004_kani=true&JigyosyoCd=3671300048-00&ServiceCd=210&Type=search", "url2": "http://care-net.biz/36/suinohana/" }, "geometry": { "type": "Point", "coordinates": [ 134.485042606567362, 33.82553383634805 ] } },
{ "type": "Feature", "properties": { "内容": "介護老人福祉施設ふるさと那賀【短期入所生活介護】徳島県那賀郡那賀町中山字とふめん18番地7", "url": "https://www.kaigokensaku.mhlw.go.jp/36/index.php?action_kouhyou_detail_004_kani=true&JigyosyoCd=3671300683-00&ServiceCd=210&Type=search", "url2": "http://www.ryokufu1984.or.jp/" }, "geometry": { "type": "Point", "coordinates": [ 134.52916289999996, 33.8597911 ] } },
{ "type": "Feature", "properties": { "内容": "特別養護老人ホーム緑風会チロル【短期入所生活介護】徳島県那賀郡那賀町成瀬字小谷口２番地", "url": "https://www.kaigokensaku.mhlw.go.jp/36/index.php?action_kouhyou_detail_004_kani=true&JigyosyoCd=3671300121-00&ServiceCd=210&Type=search", "url2": "http://www.ryokufu1984.or.jp/" }, "geometry": { "type": "Point", "coordinates": [ 134.284983499999953, 33.7828668 ] } },
{ "type": "Feature", "properties": { "内容": "特別養護老人ホーム緑風荘【短期入所生活介護】徳島県海部郡牟岐町大字中村字山田30番地", "url": "https://www.kaigokensaku.mhlw.go.jp/36/index.php?action_kouhyou_detail_004_kani=true&JigyosyoCd=3671400095-00&ServiceCd=210&Type=search", "url2": "http://www.kenshokai.group" }, "geometry": { "type": "Point", "coordinates": [ 134.413139699999988, 33.6684733 ] } },
{ "type": "Feature", "properties": { "内容": "特別養護老人ホーム　ヒワサ荘【短期入所生活介護】徳島県海部郡美波町西河内字丹前106番地1", "url": "https://www.kaigokensaku.mhlw.go.jp/36/index.php?action_kouhyou_detail_004_kani=true&JigyosyoCd=3671400053-00&ServiceCd=210&Type=search", "url2": "http://toukoukai.com/" }, "geometry": { "type": "Point", "coordinates": [ 134.518634199999951, 33.7333311 ] } },
{ "type": "Feature", "properties": { "内容": "養護老人ホームヒワサ荘併設短期入所生活介護事業所【短期入所生活介護】徳島県海部郡美波町西河内字丹前99", "url": "https://www.kaigokensaku.mhlw.go.jp/36/index.php?action_kouhyou_detail_004_kani=true&JigyosyoCd=3671400186-00&ServiceCd=210&Type=search", "url2": "https://www.toukoukai-hiwasasou.info/" }, "geometry": { "type": "Point", "coordinates": [ 134.517762100000027, 33.73292 ] } },
{ "type": "Feature", "properties": { "内容": "特別養護老人ホームねんりん【短期入所生活介護】徳島県海部郡美波町西の地字志和岐谷３７番１", "url": "https://www.kaigokensaku.mhlw.go.jp/36/index.php?action_kouhyou_detail_004_kani=true&JigyosyoCd=3671400038-00&ServiceCd=210&Type=search", "url2": "http://nennrin.jp/" }, "geometry": { "type": "Point", "coordinates": [ 134.601081585069437, 33.779659686185646 ] } },
{ "type": "Feature", "properties": { "内容": "海部郡特別養護老人ホーム事務組合【短期入所生活介護】徳島県海部郡海陽町大里字松原３３番地３", "url": "https://www.kaigokensaku.mhlw.go.jp/36/index.php?action_kouhyou_detail_004_kani=true&JigyosyoCd=3671400137-00&ServiceCd=210&Type=search", "url2": "http://www.nmt.ne.jp/~kainanso/" }, "geometry": { "type": "Point", "coordinates": [ 134.366028699999987, 33.6083422 ] } },
{ "type": "Feature", "properties": { "内容": "特別養護老人ホーム事務組合海南荘【短期入所生活介護】徳島県海部郡海陽町大里字松原33番地3", "url": "https://www.kaigokensaku.mhlw.go.jp/36/index.php?action_kouhyou_detail_004_kani=true&JigyosyoCd=3671400558-00&ServiceCd=210&Type=search", "url2": "https://kainanso.main.jp/" }, "geometry": { "type": "Point", "coordinates": [ 134.366128, 33.6085002 ] } },
{ "type": "Feature", "properties": { "内容": "ショートステイ松葉の杜【短期入所生活介護】徳島県板野郡松茂町中喜来字中須83番地１", "url": "https://www.kaigokensaku.mhlw.go.jp/36/index.php?action_kouhyou_detail_004_kani=true&JigyosyoCd=3671502015-00&ServiceCd=210&Type=search", "url2": null }, "geometry": { "type": "Point", "coordinates": [ 134.57264244076913, 34.142497773085054 ] } },
{ "type": "Feature", "properties": { "内容": "和光園短期入所生活介護事業所【短期入所生活介護】徳島県板野郡松茂町笹木野字山東49-1", "url": "https://www.kaigokensaku.mhlw.go.jp/36/index.php?action_kouhyou_detail_004_kani=true&JigyosyoCd=3671500092-00&ServiceCd=210&Type=search", "url2": "http://wako-en.or.jp/" }, "geometry": { "type": "Point", "coordinates": [ 134.595426, 34.1243262 ] } },
{ "type": "Feature", "properties": { "内容": "特別養護老人ホーム吉野川荘【短期入所生活介護】徳島県板野郡北島町中村字八丁野４番地１９", "url": "https://www.kaigokensaku.mhlw.go.jp/36/index.php?action_kouhyou_detail_004_kani=true&JigyosyoCd=3671500019-00&ServiceCd=210&Type=search", "url2": "http://care-net.biz/36/yoshi2023/" }, "geometry": { "type": "Point", "coordinates": [ 134.537229700000012, 34.1308213 ] } },
{ "type": "Feature", "properties": { "内容": "特別養護老人ホーム　健祥会ライデン【短期入所生活介護】徳島県板野郡北島町太郎八須字備後江家10番地１", "url": "https://www.kaigokensaku.mhlw.go.jp/36/index.php?action_kouhyou_detail_004_kani=true&JigyosyoCd=3671501553-00&ServiceCd=210&Type=search", "url2": "https://www.kenshokai.group/" }, "geometry": { "type": "Point", "coordinates": [ 134.561716299999944, 34.1334655 ] } },
{ "type": "Feature", "properties": { "内容": "ショートステイ花どけい【短期入所生活介護】徳島県板野郡藍住町矢上字原127-1", "url": "https://www.kaigokensaku.mhlw.go.jp/36/index.php?action_kouhyou_detail_004_kani=true&JigyosyoCd=3671501959-00&ServiceCd=210&Type=search", "url2": "http://yakami.or.jp/" }, "geometry": { "type": "Point", "coordinates": [ 134.501232, 34.1295174 ] } },
{ "type": "Feature", "properties": { "内容": "特別養護老人ホーム藍寿苑【短期入所生活介護】徳島県板野郡藍住町富吉字穂実66番地3", "url": "https://www.kaigokensaku.mhlw.go.jp/36/index.php?action_kouhyou_detail_004_kani=true&JigyosyoCd=3671501785-00&ServiceCd=210&Type=search", "url2": "http://www.ryoun.com" }, "geometry": { "type": "Point", "coordinates": [ 134.487768299999971, 34.1440494 ] } },
{ "type": "Feature", "properties": { "内容": "特別養護老人ホーム藍寿苑【短期入所生活介護】徳島県板野郡藍住町富吉字穂実66-3", "url": "https://www.kaigokensaku.mhlw.go.jp/36/index.php?action_kouhyou_detail_004_kani=true&JigyosyoCd=3671501777-00&ServiceCd=210&Type=search", "url2": "http://www.ryoun.com" }, "geometry": { "type": "Point", "coordinates": [ 134.488465105270365, 34.141020203141906 ] } },
{ "type": "Feature", "properties": { "内容": "ショートステイ彩【短期入所生活介護】徳島県板野郡藍住町富吉字豊吉８６－１サービス付き高齢者向け住宅　ライフヴィライース徳島　２F", "url": "https://www.kaigokensaku.mhlw.go.jp/36/index.php?action_kouhyou_detail_004_kani=true&JigyosyoCd=3671501405-00&ServiceCd=210&Type=search", "url2": "http://www.seijyukai-med.jp/" }, "geometry": { "type": "Point", "coordinates": [ 134.487790600000039, 34.1330588 ] } },
{ "type": "Feature", "properties": { "内容": "ショートステイ昴【短期入所生活介護】徳島県板野郡藍住町矢上字安任137-1", "url": "https://www.kaigokensaku.mhlw.go.jp/36/index.php?action_kouhyou_detail_004_kani=true&JigyosyoCd=3651580338-00&ServiceCd=210&Type=search", "url2": "http://www.ryoun.com" }, "geometry": { "type": "Point", "coordinates": [ 134.497360684839265, 34.136797979457583 ] } },
{ "type": "Feature", "properties": { "内容": "穂波園指定短期入所生活介護事業所【短期入所生活介護】徳島県板野郡板野町吹田字西山68番地10", "url": "https://www.kaigokensaku.mhlw.go.jp/36/index.php?action_kouhyou_detail_004_kani=true&JigyosyoCd=3671500084-00&ServiceCd=210&Type=search", "url2": "https://lumiere-tokushima.com/" }, "geometry": { "type": "Point", "coordinates": [ 134.455471200000034, 34.1460011 ] } },
{ "type": "Feature", "properties": { "内容": "ショートステイ上板【短期入所生活介護】徳島県板野郡上板町神宅字堂床64-1", "url": "https://www.kaigokensaku.mhlw.go.jp/36/index.php?action_kouhyou_detail_004_kani=true&JigyosyoCd=3671501264-00&ServiceCd=210&Type=search", "url2": "http://koutukai.com/" }, "geometry": { "type": "Point", "coordinates": [ 134.415056864418062, 34.123455681660886 ] } },
{ "type": "Feature", "properties": { "内容": "ショートステイあおば苑【短期入所生活介護】徳島県板野郡上板町西分字橋西1番地10", "url": "https://www.kaigokensaku.mhlw.go.jp/36/index.php?action_kouhyou_detail_004_kani=true&JigyosyoCd=3671500076-00&ServiceCd=210&Type=search", "url2": "http：//aobagroup．net/" }, "geometry": { "type": "Point", "coordinates": [ 134.41764749999993, 34.1195179 ] } },
{ "type": "Feature", "properties": { "内容": "美馬西部特別養護老人ホーム組合【短期入所生活介護】徳島県美馬郡つるぎ町半田字松生１５０－１", "url": "https://www.kaigokensaku.mhlw.go.jp/36/index.php?action_kouhyou_detail_004_kani=true&JigyosyoCd=3671800088-00&ServiceCd=210&Type=search", "url2": null }, "geometry": { "type": "Point", "coordinates": [ 134.023126199999979, 34.0414483 ] } },
{ "type": "Feature", "properties": { "内容": "特別養護老人ホームコンフォール貞光【短期入所生活介護】徳島県美馬郡つるぎ町貞光字中須賀７８番地", "url": "https://www.kaigokensaku.mhlw.go.jp/36/index.php?action_kouhyou_detail_004_kani=true&JigyosyoCd=3671800146-00&ServiceCd=210&Type=search", "url2": "https://www.seijyukai.org/" }, "geometry": { "type": "Point", "coordinates": [ 134.065409700000032, 34.0397319 ] } },
{ "type": "Feature", "properties": { "内容": "特別養護老人ホーム　健祥会たんぽぽ【短期入所生活介護】三好郡東みよし町中庄1653番地1", "url": "https://www.kaigokensaku.mhlw.go.jp/36/index.php?action_kouhyou_detail_004_kani=true&JigyosyoCd=3671900490-00&ServiceCd=210&Type=search", "url2": "http://www.kenshokai.group" }, "geometry": { "type": "Point", "coordinates": [ 133.96081879999997, 34.0341557 ] } },
{ "type": "Feature", "properties": { "内容": "特別養護老人ホーム　健祥会たんぽぽ【短期入所生活介護】三好郡東みよし町中庄1653番地1", "url": "https://www.kaigokensaku.mhlw.go.jp/36/index.php?action_kouhyou_detail_004_kani=true&JigyosyoCd=3671900094-00&ServiceCd=210&Type=search", "url2": "http://www.kenshokai.group/" }, "geometry": { "type": "Point", "coordinates": [ 133.96081879999997, 34.0341557 ] } },
{ "type": "Feature", "properties": { "内容": "特別養護老人ホームみよし苑【短期入所生活介護】徳島県三好郡東みよし町昼間７７番地１特別養護老人ホームみよし苑", "url": "https://www.kaigokensaku.mhlw.go.jp/36/index.php?action_kouhyou_detail_004_kani=true&JigyosyoCd=3671900110-00&ServiceCd=210&Type=search", "url2": "miyoshien@themis.ocn.ne.jp" }, "geometry": { "type": "Point", "coordinates": [ 133.888056600000027, 34.0457486 ] } }
]
}
