{
"type": "FeatureCollection",
"name": "geo_36_大学",
"crs": { "type": "name", "properties": { "name": "urn:ogc:def:crs:EPSG::6668" } },
"features": [
{ "type": "Feature", "properties": { "P29_001": "36201", "P29_002": "F136110110231", "P29_003": "16007", "P29_004": "徳島大学", "P29_005": "徳島県徳島市新蔵町2-24", "P29_006": "1", "P29_007": "0", "P29_008": "01", "P29_009": "新蔵キャンパス" }, "geometry": { "type": "Point", "coordinates": [ 134.559880999622152, 34.070070000079234 ] } },
{ "type": "Feature", "properties": { "P29_001": "36202", "P29_002": "F136110110240", "P29_003": "16007", "P29_004": "鳴門教育大学", "P29_005": "徳島県鳴門市鳴門町高島字中島748", "P29_006": "1", "P29_007": "0", "P29_008": "00", "P29_009": null }, "geometry": { "type": "Point", "coordinates": [ 134.604878335325282, 34.202553116712345 ] } },
{ "type": "Feature", "properties": { "P29_001": "36201", "P29_002": "F136310110255", "P29_003": "16007", "P29_004": "四国大学", "P29_005": "徳島県徳島市応神町古川字戎子野123-1", "P29_006": "4", "P29_007": "0", "P29_008": "00", "P29_009": null }, "geometry": { "type": "Point", "coordinates": [ 134.554444387832064, 34.103628951988554 ] } },
{ "type": "Feature", "properties": { "P29_001": "36201", "P29_002": "F136310110264", "P29_003": "16007", "P29_004": "徳島文理大学", "P29_005": "徳島県徳島市寺島本町東1-8", "P29_006": "4", "P29_007": "0", "P29_008": "01", "P29_009": "徳島キャンパス" }, "geometry": { "type": "Point", "coordinates": [ 134.553413132669419, 34.072490796572261 ] } },
{ "type": "Feature", "properties": { "P29_001": "36201", "P29_002": "F136110110231", "P29_003": "16007", "P29_004": "徳島大学", "P29_005": "徳島県徳島市蔵本町3-18-15", "P29_006": "1", "P29_007": "0", "P29_008": "02", "P29_009": "蔵本キャンパス" }, "geometry": { "type": "Point", "coordinates": [ 134.516675608001805, 34.076672137580857 ] } },
{ "type": "Feature", "properties": { "P29_001": "36201", "P29_002": "F136110110231", "P29_003": "16007", "P29_004": "徳島大学", "P29_005": "徳島県徳島市南常三島町1-1", "P29_006": "1", "P29_007": "0", "P29_008": "03", "P29_009": "常三島キャンパス" }, "geometry": { "type": "Point", "coordinates": [ 134.56092205967974, 34.077482971091655 ] } }
]
}
