{
"type": "FeatureCollection",
"name": "geo_36_短期入所療養介護（介護老人保健施設）",
"crs": { "type": "name", "properties": { "name": "urn:ogc:def:crs:OGC:1.3:CRS84" } },
"features": [
{ "type": "Feature", "properties": { "内容": "介護老人保健施設ロイヤルヘルスケア【短期入所療養介護（介護老人保健施設）】徳島県徳島市西新浜町2丁目3-33", "url": "https://www.kaigokensaku.mhlw.go.jp/36/index.php?action_kouhyou_detail_004_kani=true&JigyosyoCd=3650180015-00&ServiceCd=220&Type=search", "url2": "http://www3.tcn.ne.jp/~royalhealthcare/" }, "geometry": { "type": "Point", "coordinates": [ 134.5596627, 34.0419007 ] } },
{ "type": "Feature", "properties": { "内容": "老人保健施設平成苑【短期入所療養介護（介護老人保健施設）】徳島県徳島市南末広町4番57号", "url": "https://www.kaigokensaku.mhlw.go.jp/36/index.php?action_kouhyou_detail_004_kani=true&JigyosyoCd=3650180155-00&ServiceCd=220&Type=search", "url2": "http://www.kinoshita-hp.com/" }, "geometry": { "type": "Point", "coordinates": [ 134.576033400000028, 34.0607519 ] } },
{ "type": "Feature", "properties": { "内容": "すだちの園短期入所療養介護【短期入所療養介護（介護老人保健施設）】徳島県徳島市丈六町行正２５番地", "url": "https://www.kaigokensaku.mhlw.go.jp/36/index.php?action_kouhyou_detail_004_kani=true&JigyosyoCd=3650180197-00&ServiceCd=220&Type=search", "url2": "http://www.jonanh.com/sudachi/" }, "geometry": { "type": "Point", "coordinates": [ 134.5478812, 34.0116713 ] } },
{ "type": "Feature", "properties": { "内容": "介護老人保健施設さくらの郷【短期入所療養介護（介護老人保健施設）】徳島県徳島市下町本丁５９－１２", "url": "https://www.kaigokensaku.mhlw.go.jp/36/index.php?action_kouhyou_detail_004_kani=true&JigyosyoCd=3650180288-00&ServiceCd=220&Type=search", "url2": "http://wwwhomepage3.niff.com/ichiyoukai/" }, "geometry": { "type": "Point", "coordinates": [ 134.486916599999972, 34.0362224 ] } },
{ "type": "Feature", "properties": { "内容": "老人保健施設　ユート【短期入所療養介護（介護老人保健施設）】徳島県徳島市八万町大野5-1", "url": "https://www.kaigokensaku.mhlw.go.jp/36/index.php?action_kouhyou_detail_004_kani=true&JigyosyoCd=3650180189-00&ServiceCd=220&Type=search", "url2": "http://www.keirou-medical.jp/youto/" }, "geometry": { "type": "Point", "coordinates": [ 134.549713699999984, 34.0434282 ] } },
{ "type": "Feature", "properties": { "内容": "介護老人保健施設カサ・デ・エスペランサ【短期入所療養介護（介護老人保健施設）】徳島市名東町２丁目６５０番地の３５", "url": "https://www.kaigokensaku.mhlw.go.jp/36/index.php?action_kouhyou_detail_004_kani=true&JigyosyoCd=3650180114-00&ServiceCd=220&Type=search", "url2": "https://sei-ryu-kai.or.jp/casadeesperanz/" }, "geometry": { "type": "Point", "coordinates": [ 134.491973972370687, 34.062258240430843 ] } },
{ "type": "Feature", "properties": { "内容": "短期　介護老人保健施設　ライフケア応神【短期入所療養介護（介護老人保健施設）】徳島県徳島市応神町古川字日ノ上３２－１", "url": "https://www.kaigokensaku.mhlw.go.jp/36/index.php?action_kouhyou_detail_004_kani=true&JigyosyoCd=3650180023-00&ServiceCd=220&Type=search", "url2": "http://rouken-oujin.jp/" }, "geometry": { "type": "Point", "coordinates": [ 134.556278900000052, 34.1008972 ] } },
{ "type": "Feature", "properties": { "内容": "介護老人保健施設三成会キュアセンター【短期入所療養介護（介護老人保健施設）】徳島市南矢三町3丁目3-31", "url": "https://www.kaigokensaku.mhlw.go.jp/36/index.php?action_kouhyou_detail_004_kani=true&JigyosyoCd=3650180221-00&ServiceCd=220&Type=search", "url2": "http://www.mizunomiyako.net/curecenter.html" }, "geometry": { "type": "Point", "coordinates": [ 134.521332600000051, 34.0838898 ] } },
{ "type": "Feature", "properties": { "内容": "介護老人保健施設　わかくさ【短期入所療養介護（介護老人保健施設）】徳島市川内町小松西８８", "url": "https://www.kaigokensaku.mhlw.go.jp/36/index.php?action_kouhyou_detail_004_kani=true&JigyosyoCd=3650180320-00&ServiceCd=220&Type=search", "url2": "http://www.wakakusakai.com" }, "geometry": { "type": "Point", "coordinates": [ 134.592001100000061, 34.090118 ] } },
{ "type": "Feature", "properties": { "内容": "平成アメニティ【短期入所療養介護（介護老人保健施設）】徳島県徳島市勝占町惣田17-1", "url": "https://www.kaigokensaku.mhlw.go.jp/36/index.php?action_kouhyou_detail_004_kani=true&JigyosyoCd=3650180239-00&ServiceCd=220&Type=search", "url2": "http://amenity.rouken.jp" }, "geometry": { "type": "Point", "coordinates": [ 134.550353, 34.0216394 ] } },
{ "type": "Feature", "properties": { "内容": "介護老人保健施設リハビリセンターグリーンTAOKA【短期入所療養介護（介護老人保健施設）】徳島県徳島市川内町北原31-3", "url": "https://www.kaigokensaku.mhlw.go.jp/36/index.php?action_kouhyou_detail_004_kani=true&JigyosyoCd=3650180205-00&ServiceCd=220&Type=search", "url2": "https://green-taoka.jp/" }, "geometry": { "type": "Point", "coordinates": [ 134.561089922821054, 34.101453425828801 ] } },
{ "type": "Feature", "properties": { "内容": "介護老人保健施設名月苑【短期入所療養介護（介護老人保健施設）】徳島県徳島市名東町一丁目91番地", "url": "https://www.kaigokensaku.mhlw.go.jp/36/index.php?action_kouhyou_detail_004_kani=true&JigyosyoCd=3650180106-00&ServiceCd=220&Type=search", "url2": "http://tenma-hpg.com/" }, "geometry": { "type": "Point", "coordinates": [ 134.5050678, 34.0660193 ] } },
{ "type": "Feature", "properties": { "内容": "介護老人保健施設　清寿園【短期入所療養介護（介護老人保健施設）】徳島県徳島市八万町橋本92-1", "url": "https://www.kaigokensaku.mhlw.go.jp/36/index.php?action_kouhyou_detail_004_kani=true&JigyosyoCd=3650180080-00&ServiceCd=220&Type=search", "url2": "https://kyoritsuhp.or.jp" }, "geometry": { "type": "Point", "coordinates": [ 134.531343306336908, 34.042998384518235 ] } },
{ "type": "Feature", "properties": { "内容": "介護老人保健施設エルダリーガーデン【短期入所療養介護（介護老人保健施設）】徳島県徳島市南庄町4丁目60番地2", "url": "https://www.kaigokensaku.mhlw.go.jp/36/index.php?action_kouhyou_detail_004_kani=true&JigyosyoCd=3650180163-00&ServiceCd=220&Type=search", "url2": "https://www.matsunaga-hp.jp/elderlygarden/" }, "geometry": { "type": "Point", "coordinates": [ 134.508234099999981, 34.072277 ] } },
{ "type": "Feature", "properties": { "内容": "介護老人保健施設国府リハビリテーションフェニックス【短期入所療養介護（介護老人保健施設）】徳島市国府町井戸字左ヶ池39番地1", "url": "https://www.kaigokensaku.mhlw.go.jp/36/index.php?action_kouhyou_detail_004_kani=true&JigyosyoCd=3650180296-00&ServiceCd=220&Type=search", "url2": "https://tamaki-aozora.ne.jp/phoenix" }, "geometry": { "type": "Point", "coordinates": [ 134.4836798, 34.088218 ] } },
{ "type": "Feature", "properties": { "内容": "介護老人保健施設　陽だまり苑【短期入所療養介護（介護老人保健施設）】徳島県鳴門市大津町矢倉字四ノ越５番", "url": "https://www.kaigokensaku.mhlw.go.jp/36/index.php?action_kouhyou_detail_004_kani=true&JigyosyoCd=3650280211-00&ServiceCd=220&Type=search", "url2": "http://shinsei-kai.com/" }, "geometry": { "type": "Point", "coordinates": [ 134.590044199999966, 34.1519054 ] } },
{ "type": "Feature", "properties": { "内容": "介護老人保健施設いこいの家鳴山荘【短期入所療養介護（介護老人保健施設）】徳島県鳴門市鳴門町土佐泊浦字高砂205番地29", "url": "https://www.kaigokensaku.mhlw.go.jp/36/index.php?action_kouhyou_detail_004_kani=true&JigyosyoCd=3650280013-00&ServiceCd=220&Type=search", "url2": "https://kyujinkai-mc.or.jp" }, "geometry": { "type": "Point", "coordinates": [ 134.625550100000027, 34.2056747 ] } },
{ "type": "Feature", "properties": { "内容": "介護老人保健施設みどりの里【短期入所療養介護（介護老人保健施設）】徳島県鳴門市鳴門町三ツ石字江尻山91番地", "url": "https://www.kaigokensaku.mhlw.go.jp/36/index.php?action_kouhyou_detail_004_kani=true&JigyosyoCd=3650280260-00&ServiceCd=220&Type=search", "url2": "http://green-sato.jp" }, "geometry": { "type": "Point", "coordinates": [ 134.605136300000026, 34.1980255 ] } },
{ "type": "Feature", "properties": { "内容": "医療法人成悠会介護老人保健施設ゆうゆう荘【短期入所療養介護（介護老人保健施設）】徳島県小松島市中田町字狭間48", "url": "https://www.kaigokensaku.mhlw.go.jp/36/index.php?action_kouhyou_detail_004_kani=true&JigyosyoCd=3650380094-00&ServiceCd=220&Type=search", "url2": "http://tenma-hpg.com/" }, "geometry": { "type": "Point", "coordinates": [ 134.57065369999998, 34.0152656 ] } },
{ "type": "Feature", "properties": { "内容": "介護老人保健施設　小松島名月苑【短期入所療養介護（介護老人保健施設）】徳島県小松島市字狭間48番地", "url": "https://www.kaigokensaku.mhlw.go.jp/36/index.php?action_kouhyou_detail_004_kani=true&JigyosyoCd=3650380011-00&ServiceCd=220&Type=search", "url2": "https://tenma-hpg.com" }, "geometry": { "type": "Point", "coordinates": [ 134.570721600000013, 34.0152646 ] } },
{ "type": "Feature", "properties": { "内容": "介護老人保健施設ライフ慈友館【短期入所療養介護（介護老人保健施設）】徳島県小松島市赤石町13-24", "url": "https://www.kaigokensaku.mhlw.go.jp/36/index.php?action_kouhyou_detail_004_kani=true&JigyosyoCd=3650380318-00&ServiceCd=220&Type=search", "url2": "http://www.jiyukai.jp/" }, "geometry": { "type": "Point", "coordinates": [ 134.61103490000005, 33.9793151 ] } },
{ "type": "Feature", "properties": { "内容": "介護老人保健施設　明和苑【短期入所療養介護（介護老人保健施設）】徳島県小松島市和田島町字浜塚108番地３", "url": "https://www.kaigokensaku.mhlw.go.jp/36/index.php?action_kouhyou_detail_004_kani=true&JigyosyoCd=3650380243-00&ServiceCd=220&Type=search", "url2": "http://meiwaen.rouken.jp" }, "geometry": { "type": "Point", "coordinates": [ 134.635501299999987, 33.9929516 ] } },
{ "type": "Feature", "properties": { "内容": "介護老人保健施設　正静絹【短期入所療養介護（介護老人保健施設）】桑野町岡元1-1", "url": "https://www.kaigokensaku.mhlw.go.jp/36/index.php?action_kouhyou_detail_004_kani=true&JigyosyoCd=3650480308-00&ServiceCd=220&Type=search", "url2": "http://www.iseikai.or.jp" }, "geometry": { "type": "Point", "coordinates": [ 134.612373100000013, 33.8749457 ] } },
{ "type": "Feature", "properties": { "内容": "老人保健施設悠心館【短期入所療養介護（介護老人保健施設）】徳島県阿南市新野町信里6-1", "url": "https://www.kaigokensaku.mhlw.go.jp/36/index.php?action_kouhyou_detail_004_kani=true&JigyosyoCd=3650480274-00&ServiceCd=220&Type=search", "url2": "https://maharahospital.jp/" }, "geometry": { "type": "Point", "coordinates": [ 134.59954730000004, 33.8469681 ] } },
{ "type": "Feature", "properties": { "内容": "介護老人保健施設阿南名月苑【短期入所療養介護（介護老人保健施設）】徳島県阿南市上中町南島325-1介護老人保健施設阿南名月苑", "url": "https://www.kaigokensaku.mhlw.go.jp/36/index.php?action_kouhyou_detail_004_kani=true&JigyosyoCd=3650480001-00&ServiceCd=220&Type=search", "url2": "http://tenma-hpg.com/kaigo/ananmeigetsuen/" }, "geometry": { "type": "Point", "coordinates": [ 134.624049499999956, 33.937041 ] } },
{ "type": "Feature", "properties": { "内容": "介護老人保健施設　ロイヤルケアセンター【短期入所療養介護（介護老人保健施設）】徳島県阿南市羽ノ浦町中庄池ノ上55-1", "url": "https://www.kaigokensaku.mhlw.go.jp/36/index.php?action_kouhyou_detail_004_kani=true&JigyosyoCd=3651380440-00&ServiceCd=220&Type=search", "url2": "https://royal-carecenter.main.jp/" }, "geometry": { "type": "Point", "coordinates": [ 134.635667981049153, 33.957931695521161 ] } },
{ "type": "Feature", "properties": { "内容": "医療法人　青鳳会　介護老人保健施設　やすらぎ荘【短期入所療養介護（介護老人保健施設）】徳島県吉野川市鴨島町上下島495-5", "url": "https://www.kaigokensaku.mhlw.go.jp/36/index.php?action_kouhyou_detail_004_kani=true&JigyosyoCd=3651780037-00&ServiceCd=220&Type=search", "url2": "https://www.mima-gr.jp/yasuragi/" }, "geometry": { "type": "Point", "coordinates": [ 138.252924, 36.204824 ] } },
{ "type": "Feature", "properties": { "内容": "介護老人保健施設リハビリセンターのぞみ【短期入所療養介護（介護老人保健施設）】徳島県吉野川市山川町祇園41-5", "url": "https://www.kaigokensaku.mhlw.go.jp/36/index.php?action_kouhyou_detail_004_kani=true&JigyosyoCd=3651780151-00&ServiceCd=220&Type=search", "url2": "https://miki-rehabili.jp" }, "geometry": { "type": "Point", "coordinates": [ 134.249028299999964, 34.05664 ] } },
{ "type": "Feature", "properties": { "内容": "介護老人保健施設　長寿園【短期入所療養介護（介護老人保健施設）】徳島県吉野川市鴨島町内原４３２", "url": "https://www.kaigokensaku.mhlw.go.jp/36/index.php?action_kouhyou_detail_004_kani=true&JigyosyoCd=3651780144-00&ServiceCd=220&Type=search", "url2": "http://kamojima.t-group.net" }, "geometry": { "type": "Point", "coordinates": [ 134.3674972, 34.0697656 ] } },
{ "type": "Feature", "properties": { "内容": "老人保健施設　健祥会ウェル【短期入所療養介護（介護老人保健施設）】徳島県吉野川市川島町川島114番地3", "url": "https://www.kaigokensaku.mhlw.go.jp/36/index.php?action_kouhyou_detail_004_kani=true&JigyosyoCd=3651780052-00&ServiceCd=220&Type=search", "url2": "https://www.kenshokai.group/" }, "geometry": { "type": "Point", "coordinates": [ 134.321287200000029, 34.0669427 ] } },
{ "type": "Feature", "properties": { "内容": "介護老人保健施設しょうか苑【短期入所療養介護（介護老人保健施設）】徳島県阿波市土成町吉田字原田市ノ三６０番地１", "url": "https://www.kaigokensaku.mhlw.go.jp/36/index.php?action_kouhyou_detail_004_kani=true&JigyosyoCd=3651580361-00&ServiceCd=220&Type=search", "url2": "https://youaijitsu.com" }, "geometry": { "type": "Point", "coordinates": [ 134.346043099999946, 34.1089304 ] } },
{ "type": "Feature", "properties": { "内容": "医療法人　芳越会　介護老人保健施設【短期入所療養介護（介護老人保健施設）】徳島県阿波市市場町市場町筋172番地１", "url": "https://www.kaigokensaku.mhlw.go.jp/36/index.php?action_kouhyou_detail_004_kani=true&JigyosyoCd=3651680013-00&ServiceCd=220&Type=search", "url2": "http:www.liveinciover.jp" }, "geometry": { "type": "Point", "coordinates": [ 134.2821686, 34.0945552 ] } },
{ "type": "Feature", "properties": { "内容": "介護老人保健施設　ケアハイツさくらぎ【短期入所療養介護（介護老人保健施設）】徳島県美馬市脇町木ノ内３７６０番地", "url": "https://www.kaigokensaku.mhlw.go.jp/36/index.php?action_kouhyou_detail_004_kani=true&JigyosyoCd=3651880134-00&ServiceCd=220&Type=search", "url2": null }, "geometry": { "type": "Point", "coordinates": [ 134.105778495106506, 34.060495723464506 ] } },
{ "type": "Feature", "properties": { "内容": "介護老人保健施設　センターヴィレッジ【短期入所療養介護（介護老人保健施設）】徳島県美馬市脇町字拝原1354番地5", "url": "https://www.kaigokensaku.mhlw.go.jp/36/index.php?action_kouhyou_detail_004_kani=true&JigyosyoCd=3650580016-00&ServiceCd=220&Type=search", "url2": "https:www.kenshokai.group/" }, "geometry": { "type": "Point", "coordinates": [ 134.1656117, 34.0709599 ] } },
{ "type": "Feature", "properties": { "内容": "老人保健施設健祥会ヘルス【短期入所療養介護（介護老人保健施設）】徳島県美馬市穴吹町三島字舞中島2021番地", "url": "https://www.kaigokensaku.mhlw.go.jp/36/index.php?action_kouhyou_detail_004_kani=true&JigyosyoCd=3651880258-00&ServiceCd=220&Type=search", "url2": "https://www.kenshokai.group/" }, "geometry": { "type": "Point", "coordinates": [ 134.139442, 34.0559837 ] } },
{ "type": "Feature", "properties": { "内容": "介護老人保健施設ハピネス【短期入所療養介護（介護老人保健施設）】徳島県三好市池田町中西西原209－1", "url": "https://www.kaigokensaku.mhlw.go.jp/36/index.php?action_kouhyou_detail_004_kani=true&JigyosyoCd=3651980124-00&ServiceCd=220&Type=search", "url2": null }, "geometry": { "type": "Point", "coordinates": [ 133.786634518385313, 34.009341164946633 ] } },
{ "type": "Feature", "properties": { "内容": "老人保健施設すこやか【短期入所療養介護（介護老人保健施設）】徳島県三好市池田町シマ７２５番地１", "url": "https://www.kaigokensaku.mhlw.go.jp/36/index.php?action_kouhyou_detail_004_kani=true&JigyosyoCd=3651980421-00&ServiceCd=220&Type=search", "url2": null }, "geometry": { "type": "Point", "coordinates": [ 133.820089400000029, 34.0270747 ] } },
{ "type": "Feature", "properties": { "内容": "介護老人保健施設ハーモニー【短期入所療養介護（介護老人保健施設）】徳島県三好市池田町州津堂面２１８番地１", "url": "https://www.kaigokensaku.mhlw.go.jp/36/index.php?action_kouhyou_detail_004_kani=true&JigyosyoCd=3651980389-00&ServiceCd=220&Type=search", "url2": null }, "geometry": { "type": "Point", "coordinates": [ 133.807263400000011, 34.0260411 ] } },
{ "type": "Feature", "properties": { "内容": "介護老人保健施設ふれあい【短期入所療養介護（介護老人保健施設）】徳島県三好市三野町加茂野宮1509番地1", "url": "https://www.kaigokensaku.mhlw.go.jp/36/index.php?action_kouhyou_detail_004_kani=true&JigyosyoCd=3651980488-00&ServiceCd=220&Type=search", "url2": "http://www.kyoritsuhp.or.jp/fureai.html" }, "geometry": { "type": "Point", "coordinates": [ 133.9884376, 34.0561318 ] } },
{ "type": "Feature", "properties": { "内容": "喜久寿苑【短期入所療養介護（介護老人保健施設）】徳島県名西郡石井町高原字桑島561-1", "url": "https://www.kaigokensaku.mhlw.go.jp/36/index.php?action_kouhyou_detail_004_kani=true&JigyosyoCd=3651280020-00&ServiceCd=220&Type=search", "url2": null }, "geometry": { "type": "Point", "coordinates": [ 134.426638700000012, 34.0890827 ] } },
{ "type": "Feature", "properties": { "内容": "介護老人保健施設健生石井老健うぐいす【短期入所療養介護（介護老人保健施設）】徳島県名西郡石井町高川原2155", "url": "https://www.kaigokensaku.mhlw.go.jp/36/index.php?action_kouhyou_detail_004_kani=true&JigyosyoCd=3651280038-00&ServiceCd=220&Type=search", "url2": "http://wwwe.pikara.ne.jp/ishi-uguisu/" }, "geometry": { "type": "Point", "coordinates": [ 134.446509099999957, 34.0810809 ] } },
{ "type": "Feature", "properties": { "内容": "介護老人保健施設かじかの郷【短期入所療養介護（介護老人保健施設）】徳島県名西郡神山町神領字西野間23-1", "url": "https://www.kaigokensaku.mhlw.go.jp/36/index.php?action_kouhyou_detail_004_kani=true&JigyosyoCd=3651280467-00&ServiceCd=220&Type=search", "url2": null }, "geometry": { "type": "Point", "coordinates": [ 134.348097100000018, 33.9667937 ] } },
{ "type": "Feature", "properties": { "内容": "介護老人保健施設　ケアホーム鷲敷【短期入所療養介護（介護老人保健施設）】徳島県那賀郡那賀町和食郷字八幡原444", "url": "https://www.kaigokensaku.mhlw.go.jp/36/index.php?action_kouhyou_detail_004_kani=true&JigyosyoCd=3651380408-00&ServiceCd=220&Type=search", "url2": "http://wajiki.rouken.jp/" }, "geometry": { "type": "Point", "coordinates": [ 134.503388299999983, 33.8560164 ] } },
{ "type": "Feature", "properties": { "内容": "介護老人保健施設和楽【短期入所療養介護（介護老人保健施設）】徳島県海部郡牟岐町大字川長字山戸２８番地", "url": "https://www.kaigokensaku.mhlw.go.jp/36/index.php?action_kouhyou_detail_004_kani=true&JigyosyoCd=3651480430-00&ServiceCd=220&Type=search", "url2": "http://www.heartfulcare.jp" }, "geometry": { "type": "Point", "coordinates": [ 134.4238355, 33.6748307 ] } },
{ "type": "Feature", "properties": { "内容": "老人保健施設　ジャンボ緑風会【短期入所療養介護（介護老人保健施設）】徳島県海部郡海陽町久保字板取243番310", "url": "https://www.kaigokensaku.mhlw.go.jp/36/index.php?action_kouhyou_detail_004_kani=true&JigyosyoCd=3651480372-00&ServiceCd=220&Type=search", "url2": "https://www.kenshokai.group/" }, "geometry": { "type": "Point", "coordinates": [ 134.306652684655774, 33.576358675863695 ] } },
{ "type": "Feature", "properties": { "内容": "介護老人保健施設縁樹【短期入所療養介護（介護老人保健施設）】徳島県板野郡松茂町広島字四番越1番地5", "url": "https://www.kaigokensaku.mhlw.go.jp/36/index.php?action_kouhyou_detail_004_kani=true&JigyosyoCd=3651580171-00&ServiceCd=220&Type=search", "url2": "https://www.yujoukai.jp/kh_enju.html" }, "geometry": { "type": "Point", "coordinates": [ 134.58395029999997, 34.1371901 ] } },
{ "type": "Feature", "properties": { "内容": "介護老人保健施設　敬愛の家【短期入所療養介護（介護老人保健施設）】徳島県板野郡北島町中村字八丁野22番地の1", "url": "https://www.kaigokensaku.mhlw.go.jp/36/index.php?action_kouhyou_detail_004_kani=true&JigyosyoCd=3651580064-00&ServiceCd=220&Type=search", "url2": "https://syuseikai-group.net/medical" }, "geometry": { "type": "Point", "coordinates": [ 134.537974100000042, 34.1302713 ] } },
{ "type": "Feature", "properties": { "内容": "介護老人保健施設昴【短期入所療養介護（介護老人保健施設）】徳島県板野郡藍住町矢上字安任137-1介護老人保健施設昴", "url": "https://www.kaigokensaku.mhlw.go.jp/36/index.php?action_kouhyou_detail_004_kani=true&JigyosyoCd=3651580338-00&ServiceCd=220&Type=search", "url2": "http://www.ryoun.com/" }, "geometry": { "type": "Point", "coordinates": [ 134.497295, 34.1365255 ] } },
{ "type": "Feature", "properties": { "内容": "介護老人保健施設紅梅苑【短期入所療養介護（介護老人保健施設）】徳島県板野郡板野町大寺字苅辺裏18番地1", "url": "https://www.kaigokensaku.mhlw.go.jp/36/index.php?action_kouhyou_detail_004_kani=true&JigyosyoCd=3651580395-00&ServiceCd=220&Type=search", "url2": null }, "geometry": { "type": "Point", "coordinates": [ 134.455524100000048, 34.1346578 ] } },
{ "type": "Feature", "properties": { "内容": "老人保健施設　健祥会ハート【短期入所療養介護（介護老人保健施設）】徳島県板野郡上板町下六條字中西50番地1", "url": "https://www.kaigokensaku.mhlw.go.jp/36/index.php?action_kouhyou_detail_004_kani=true&JigyosyoCd=3651580353-00&ServiceCd=220&Type=search", "url2": "http://www.kenshokai.group" }, "geometry": { "type": "Point", "coordinates": [ 134.433932300000038, 34.1113134 ] } },
{ "type": "Feature", "properties": { "内容": "老人保健施設健祥会シェーンブルン【短期入所療養介護（介護老人保健施設）】徳島県三好郡東みよし町中庄1369番地1", "url": "https://www.kaigokensaku.mhlw.go.jp/36/index.php?action_kouhyou_detail_004_kani=true&JigyosyoCd=3651980454-00&ServiceCd=220&Type=search", "url2": "http://www.kenshokai.group/" }, "geometry": { "type": "Point", "coordinates": [ 133.962028319418323, 34.034602006207926 ] } }
]
}
