{
"type": "FeatureCollection",
"name": "geo_36_福祉用具貸与",
"crs": { "type": "name", "properties": { "name": "urn:ogc:def:crs:OGC:1.3:CRS84" } },
"features": [
{ "type": "Feature", "properties": { "内容": "有限会社　一宮商店【福祉用具貸与】徳島市南昭和町5丁目48番地の1", "url": "https://www.kaigokensaku.mhlw.go.jp/36/index.php?action_kouhyou_detail_004_kani=true&JigyosyoCd=3670103211-00&ServiceCd=170&Type=search", "url2": null }, "geometry": { "type": "Point", "coordinates": [ 134.562276399999973, 34.0566522 ] } },
{ "type": "Feature", "properties": { "内容": "福祉用具レンタル・販売　愛桐【福祉用具貸与】徳島県徳島市川内町平石住吉316-1", "url": "https://www.kaigokensaku.mhlw.go.jp/36/index.php?action_kouhyou_detail_004_kani=true&JigyosyoCd=3670103112-00&ServiceCd=170&Type=search", "url2": null }, "geometry": { "type": "Point", "coordinates": [ 134.577854399999978, 34.1118597 ] } },
{ "type": "Feature", "properties": { "内容": "メディス徳島ケアセンター【福祉用具貸与】徳島県徳島市勝占町惣田15-3", "url": "https://www.kaigokensaku.mhlw.go.jp/36/index.php?action_kouhyou_detail_004_kani=true&JigyosyoCd=3670100258-00&ServiceCd=170&Type=search", "url2": "www.medis.bz" }, "geometry": { "type": "Point", "coordinates": [ 134.549578, 34.0215866 ] } },
{ "type": "Feature", "properties": { "内容": "パシフィックケアシステム【福祉用具貸与】徳島県徳島市八万町大坪43-11", "url": "https://www.kaigokensaku.mhlw.go.jp/36/index.php?action_kouhyou_detail_004_kani=true&JigyosyoCd=3670105737-00&ServiceCd=170&Type=search", "url2": null }, "geometry": { "type": "Point", "coordinates": [ 134.526230199999986, 34.0440185 ] } },
{ "type": "Feature", "properties": { "内容": "むかい福祉用具レンタル・販売部【福祉用具貸与】西新浜町二丁目2番78号ファッションむかい内", "url": "https://www.kaigokensaku.mhlw.go.jp/36/index.php?action_kouhyou_detail_004_kani=true&JigyosyoCd=3670103658-00&ServiceCd=170&Type=search", "url2": null }, "geometry": { "type": "Point", "coordinates": [ 134.563904299818319, 34.043153646549506 ] } },
{ "type": "Feature", "properties": { "内容": "指定居宅介護サービス事業所　エンジェル【福祉用具貸与】徳島県徳島市佐古二番町11-6", "url": "https://www.kaigokensaku.mhlw.go.jp/36/index.php?action_kouhyou_detail_004_kani=true&JigyosyoCd=3670100654-00&ServiceCd=170&Type=search", "url2": null }, "geometry": { "type": "Point", "coordinates": [ 134.537420099999963, 34.0788132 ] } },
{ "type": "Feature", "properties": { "内容": "いちご福祉用具ｾﾝﾀｰ【福祉用具貸与】徳島県徳島市昭和町８丁目４８番地３０", "url": "https://www.kaigokensaku.mhlw.go.jp/36/index.php?action_kouhyou_detail_004_kani=true&JigyosyoCd=3670101678-00&ServiceCd=170&Type=search", "url2": null }, "geometry": { "type": "Point", "coordinates": [ 134.5696729, 34.0568994 ] } },
{ "type": "Feature", "properties": { "内容": "レンタルケアステーションふれあい【福祉用具貸与】徳島県徳島市中央通一丁目27番地水落ビル２階", "url": "https://www.kaigokensaku.mhlw.go.jp/36/index.php?action_kouhyou_detail_004_kani=true&JigyosyoCd=3670100688-00&ServiceCd=170&Type=search", "url2": null }, "geometry": { "type": "Point", "coordinates": [ 134.550116500000058, 34.0638513 ] } },
{ "type": "Feature", "properties": { "内容": "福祉用具の店　マザー【福祉用具貸与】徳島県徳島市両国本町2丁目16-1", "url": "https://www.kaigokensaku.mhlw.go.jp/36/index.php?action_kouhyou_detail_004_kani=true&JigyosyoCd=3670105521-00&ServiceCd=170&Type=search", "url2": null }, "geometry": { "type": "Point", "coordinates": [ 134.551425699999982, 34.069096500000022 ] } },
{ "type": "Feature", "properties": { "内容": "株式会社つばさ【福祉用具貸与】徳島県徳島市佐古七番町１番２４－５号", "url": "https://www.kaigokensaku.mhlw.go.jp/36/index.php?action_kouhyou_detail_004_kani=true&JigyosyoCd=3670105828-00&ServiceCd=170&Type=search", "url2": "https://tsubasa-tokushima.com" }, "geometry": { "type": "Point", "coordinates": [ 134.52480791642455, 34.076779651953537 ] } },
{ "type": "Feature", "properties": { "内容": "合同会社ケアサポートはーと【福祉用具貸与】徳島県徳島市佐古二番町12－11", "url": "https://www.kaigokensaku.mhlw.go.jp/36/index.php?action_kouhyou_detail_004_kani=true&JigyosyoCd=3670102643-00&ServiceCd=170&Type=search", "url2": null }, "geometry": { "type": "Point", "coordinates": [ 134.5379534, 34.0789437 ] } },
{ "type": "Feature", "properties": { "内容": "有限会社　大林メディカル【福祉用具貸与】徳島県徳島市北田宮1丁目8-51", "url": "https://www.kaigokensaku.mhlw.go.jp/36/index.php?action_kouhyou_detail_004_kani=true&JigyosyoCd=3670100423-00&ServiceCd=170&Type=search", "url2": null }, "geometry": { "type": "Point", "coordinates": [ 134.545952299999954, 34.0906398 ] } },
{ "type": "Feature", "properties": { "内容": "イツモスマイル株式会社【福祉用具貸与】徳島県徳島市佐古二番町5番11号", "url": "https://www.kaigokensaku.mhlw.go.jp/36/index.php?action_kouhyou_detail_004_kani=true&JigyosyoCd=3670101280-00&ServiceCd=170&Type=search", "url2": "http://itsumosmile.jp/" }, "geometry": { "type": "Point", "coordinates": [ 134.53847559999997, 34.0771967 ] } },
{ "type": "Feature", "properties": { "内容": "株式会社S.G.Works【福祉用具貸与】徳島県徳島市中常三島3丁目26-1403号", "url": "https://www.kaigokensaku.mhlw.go.jp/36/index.php?action_kouhyou_detail_004_kani=true&JigyosyoCd=3670103666-00&ServiceCd=170&Type=search", "url2": "https://www.sg-works.jp" }, "geometry": { "type": "Point", "coordinates": [ 134.564065, 34.0785832 ] } },
{ "type": "Feature", "properties": { "内容": "アワフクケア+プラス【福祉用具貸与】徳島県徳島市国府町矢野字松はし233番10", "url": "https://www.kaigokensaku.mhlw.go.jp/36/index.php?action_kouhyou_detail_004_kani=true&JigyosyoCd=3671700536-00&ServiceCd=170&Type=search", "url2": null }, "geometry": { "type": "Point", "coordinates": [ 134.478102871158484, 34.058709147390751 ] } },
{ "type": "Feature", "properties": { "内容": "ふじケアリーヴ大道【福祉用具貸与】徳島県徳島市城南町２丁目３番３５号", "url": "https://www.kaigokensaku.mhlw.go.jp/36/index.php?action_kouhyou_detail_004_kani=true&JigyosyoCd=3670100860-00&ServiceCd=170&Type=search", "url2": null }, "geometry": { "type": "Point", "coordinates": [ 134.540924400707951, 34.056163335382529 ] } },
{ "type": "Feature", "properties": { "内容": "福祉用具貸与　オアシス【福祉用具貸与】徳島県徳島市大谷町壱里松2番6", "url": "https://www.kaigokensaku.mhlw.go.jp/36/index.php?action_kouhyou_detail_004_kani=true&JigyosyoCd=3670104623-00&ServiceCd=170&Type=search", "url2": null }, "geometry": { "type": "Point", "coordinates": [ 134.538005237357368, 34.033328333663825 ] } },
{ "type": "Feature", "properties": { "内容": "株式会社カンザキ【福祉用具貸与】徳島県徳島市上八万町西山182番地", "url": "https://www.kaigokensaku.mhlw.go.jp/36/index.php?action_kouhyou_detail_004_kani=true&JigyosyoCd=3670100902-00&ServiceCd=170&Type=search", "url2": null }, "geometry": { "type": "Point", "coordinates": [ 134.493266, 34.0349588 ] } },
{ "type": "Feature", "properties": { "内容": "常三島介護用品センター【福祉用具貸与】徳島県徳島市北常三島町２丁目４８番地１", "url": "https://www.kaigokensaku.mhlw.go.jp/36/index.php?action_kouhyou_detail_004_kani=true&JigyosyoCd=3670100647-00&ServiceCd=170&Type=search", "url2": "http://www.global-assist.jp/" }, "geometry": { "type": "Point", "coordinates": [ 134.562198399999943, 34.0821772 ] } },
{ "type": "Feature", "properties": { "内容": "株式会社　大一器械【福祉用具貸与】徳島県徳島市川内町平石若宮340", "url": "https://www.kaigokensaku.mhlw.go.jp/36/index.php?action_kouhyou_detail_004_kani=true&JigyosyoCd=3670100308-00&ServiceCd=170&Type=search", "url2": "http://www.daiichi-kikai.co.jp" }, "geometry": { "type": "Point", "coordinates": [ 134.580712799999986, 34.1025803 ] } },
{ "type": "Feature", "properties": { "内容": "G-サポート【福祉用具貸与】徳島県徳島市昭和町8丁目87-40", "url": "https://www.kaigokensaku.mhlw.go.jp/36/index.php?action_kouhyou_detail_004_kani=true&JigyosyoCd=3670104847-00&ServiceCd=170&Type=search", "url2": null }, "geometry": { "type": "Point", "coordinates": [ 134.5693249, 34.0553747 ] } },
{ "type": "Feature", "properties": { "内容": "彩ケアサービスレンタル事業所【福祉用具貸与】徳島市八万町川南74-7", "url": "https://www.kaigokensaku.mhlw.go.jp/36/index.php?action_kouhyou_detail_004_kani=true&JigyosyoCd=3670100969-00&ServiceCd=170&Type=search", "url2": "https://sites.google.com/view/ayacareservice/%E3%83%9B%E3%83%BC%E3%83%A0?authuser=0" }, "geometry": { "type": "Point", "coordinates": [ 134.537725899999941, 34.0440975 ] } },
{ "type": "Feature", "properties": { "内容": "福祉用具貸与・販売事業所ウエルフェア虹の橋【福祉用具貸与】徳島県徳島市中島田町３丁目４３番地虹の橋ケアステーション　レインボーハウス", "url": "https://www.kaigokensaku.mhlw.go.jp/36/index.php?action_kouhyou_detail_004_kani=true&JigyosyoCd=3670103799-00&ServiceCd=170&Type=search", "url2": "http://nijinohashikaigo.com/" }, "geometry": { "type": "Point", "coordinates": [ 134.509581290703181, 34.083147474450278 ] } },
{ "type": "Feature", "properties": { "内容": "福祉企画さとう【福祉用具貸与】徳島県徳島市国府町日開字中898番地4", "url": "https://www.kaigokensaku.mhlw.go.jp/36/index.php?action_kouhyou_detail_004_kani=true&JigyosyoCd=3670103252-00&ServiceCd=170&Type=search", "url2": "https://www.2piece.co.jp" }, "geometry": { "type": "Point", "coordinates": [ 134.474329874555565, 34.08268068447601 ] } },
{ "type": "Feature", "properties": { "内容": "アクティブサポート秋桜【福祉用具貸与】金沢2丁目５番７６号", "url": "https://www.kaigokensaku.mhlw.go.jp/36/index.php?action_kouhyou_detail_004_kani=true&JigyosyoCd=3670105174-00&ServiceCd=170&Type=search", "url2": null }, "geometry": { "type": "Point", "coordinates": [ 136.6088675, 36.5417215 ] } },
{ "type": "Feature", "properties": { "内容": "社会福祉法人飛鳥福祉用具貸与販売事業所【福祉用具貸与】徳島県徳島市北佐古一番町１番8号社会医療法人川島会３号館１階", "url": "https://www.kaigokensaku.mhlw.go.jp/36/index.php?action_kouhyou_detail_004_kani=true&JigyosyoCd=3670105406-00&ServiceCd=170&Type=search", "url2": "http://asuka.khg.or.jp" }, "geometry": { "type": "Point", "coordinates": [ 134.541425318385336, 34.079678558685998 ] } },
{ "type": "Feature", "properties": { "内容": "パシフィックケアシステム【福祉用具貸与】東吉野町2-31-2グランフロント東吉野1F", "url": "https://www.kaigokensaku.mhlw.go.jp/36/index.php?action_kouhyou_detail_004_kani=true&JigyosyoCd=3670106354-00&ServiceCd=170&Type=search", "url2": null }, "geometry": { "type": "Point", "coordinates": [ 134.563489299999986, 34.0838394 ] } },
{ "type": "Feature", "properties": { "内容": "伊月福祉用具レンタルサービス【福祉用具貸与】徳島県徳島市昭和町8丁目48番地30有料老人ホームカメリア内", "url": "https://www.kaigokensaku.mhlw.go.jp/36/index.php?action_kouhyou_detail_004_kani=true&JigyosyoCd=3670106370-00&ServiceCd=170&Type=search", "url2": "https://ichie-kizuna.or.jp" }, "geometry": { "type": "Point", "coordinates": [ 134.5689749, 34.0560427 ] } },
{ "type": "Feature", "properties": { "内容": "ファミリー【福祉用具貸与】徳島県徳島市勝占町中須92-1", "url": "https://www.kaigokensaku.mhlw.go.jp/36/index.php?action_kouhyou_detail_004_kani=true&JigyosyoCd=3670104987-00&ServiceCd=170&Type=search", "url2": null }, "geometry": { "type": "Point", "coordinates": [ 134.55463629999997, 34.0212653 ] } },
{ "type": "Feature", "properties": { "内容": "ホームケアべんり堂福祉用具レンタル販売部【福祉用具貸与】徳島県徳島市北矢三町1丁目１番１５号", "url": "https://www.kaigokensaku.mhlw.go.jp/36/index.php?action_kouhyou_detail_004_kani=true&JigyosyoCd=3670100357-00&ServiceCd=170&Type=search", "url2": "http://www.benrido.net/" }, "geometry": { "type": "Point", "coordinates": [ 134.528917900000039, 34.0864814 ] } },
{ "type": "Feature", "properties": { "内容": "ケアサービスアサヒ【福祉用具貸与】徳島県徳島市沖浜東1丁目45", "url": "https://www.kaigokensaku.mhlw.go.jp/36/index.php?action_kouhyou_detail_004_kani=true&JigyosyoCd=3670100811-00&ServiceCd=170&Type=search", "url2": "https://www.asahi-cs.jp/" }, "geometry": { "type": "Point", "coordinates": [ 134.555688902635012, 34.054963270837845 ] } },
{ "type": "Feature", "properties": { "内容": "株式会社トーカイ　徳島営業所【福祉用具貸与】徳島市南沖洲3丁目5番30号", "url": "https://www.kaigokensaku.mhlw.go.jp/36/index.php?action_kouhyou_detail_004_kani=true&JigyosyoCd=3670103419-00&ServiceCd=170&Type=search", "url2": "http://www.tokai-corp.com/" }, "geometry": { "type": "Point", "coordinates": [ 134.588846099999955, 34.0628878 ] } },
{ "type": "Feature", "properties": { "内容": "有限会社　ヤマデン【福祉用具貸与】徳島県鳴門市撫養町黒崎字松島１３５", "url": "https://www.kaigokensaku.mhlw.go.jp/36/index.php?action_kouhyou_detail_004_kani=true&JigyosyoCd=3670200157-00&ServiceCd=170&Type=search", "url2": null }, "geometry": { "type": "Point", "coordinates": [ 134.5986298, 34.18786230000002 ] } },
{ "type": "Feature", "properties": { "内容": "株式会社　中岸商店【福祉用具貸与】徳島県鳴門市大麻町牛屋島字水門脇９７番地", "url": "https://www.kaigokensaku.mhlw.go.jp/36/index.php?action_kouhyou_detail_004_kani=true&JigyosyoCd=3670200397-00&ServiceCd=170&Type=search", "url2": "http://www.chugan.com/" }, "geometry": { "type": "Point", "coordinates": [ 134.56157599329029, 34.149939023536696 ] } },
{ "type": "Feature", "properties": { "内容": "ときわ福祉用具貸与事業所【福祉用具貸与】徳島県鳴門市撫養町斎田字北浜64番地4", "url": "https://www.kaigokensaku.mhlw.go.jp/36/index.php?action_kouhyou_detail_004_kani=true&JigyosyoCd=3670201080-00&ServiceCd=170&Type=search", "url2": null }, "geometry": { "type": "Point", "coordinates": [ 134.6053339, 34.1789722 ] } },
{ "type": "Feature", "properties": { "内容": "未来工房【福祉用具貸与】徳島県鳴門市撫養町木津829番地10", "url": "https://www.kaigokensaku.mhlw.go.jp/36/index.php?action_kouhyou_detail_004_kani=true&JigyosyoCd=3670200504-00&ServiceCd=170&Type=search", "url2": "http://daikokuya-care.com/" }, "geometry": { "type": "Point", "coordinates": [ 134.5810811, 34.1673818 ] } },
{ "type": "Feature", "properties": { "内容": "株式会社　なるとや家具店【福祉用具貸与】徳島県鳴門市撫養町斎田字北浜35番地2", "url": "https://www.kaigokensaku.mhlw.go.jp/36/index.php?action_kouhyou_detail_004_kani=true&JigyosyoCd=3670200264-00&ServiceCd=170&Type=search", "url2": null }, "geometry": { "type": "Point", "coordinates": [ 134.604294799999934, 34.1780115 ] } },
{ "type": "Feature", "properties": { "内容": "大樹【福祉用具貸与】徳島県小松島市大林町字中新田２３-２久岡ビル２０４号室", "url": "https://www.kaigokensaku.mhlw.go.jp/36/index.php?action_kouhyou_detail_004_kani=true&JigyosyoCd=3670400377-00&ServiceCd=170&Type=search", "url2": null }, "geometry": { "type": "Point", "coordinates": [ 134.618056823907949, 33.968659262214715 ] } },
{ "type": "Feature", "properties": { "内容": "福祉用具貸与事業所　ぽっかぽか【福祉用具貸与】徳島県小松島市田野町字高田５３－３", "url": "https://www.kaigokensaku.mhlw.go.jp/36/index.php?action_kouhyou_detail_004_kani=true&JigyosyoCd=3671300386-00&ServiceCd=170&Type=search", "url2": null }, "geometry": { "type": "Point", "coordinates": [ 134.596950800000059, 33.9831368 ] } },
{ "type": "Feature", "properties": { "内容": "ブラザー無線電機㈱シルバーサービス【福祉用具貸与】徳島県小松島市南小松島町15番1号", "url": "https://www.kaigokensaku.mhlw.go.jp/36/index.php?action_kouhyou_detail_004_kani=true&JigyosyoCd=3670300072-00&ServiceCd=170&Type=search", "url2": null }, "geometry": { "type": "Point", "coordinates": [ 134.5869298, 34.0063613 ] } },
{ "type": "Feature", "properties": { "内容": "ケアサービスアサヒ　徳島南支店【福祉用具貸与】徳島県阿南市学原町大深田18-2", "url": "https://www.kaigokensaku.mhlw.go.jp/36/index.php?action_kouhyou_detail_004_kani=true&JigyosyoCd=3670400955-00&ServiceCd=170&Type=search", "url2": "https：//www.asahi-cs.jp" }, "geometry": { "type": "Point", "coordinates": [ 134.66858160000001, 33.9140698 ] } },
{ "type": "Feature", "properties": { "内容": "有限会社シルバーランド【福祉用具貸与】羽ノ浦町中庄大久保53番", "url": "https://www.kaigokensaku.mhlw.go.jp/36/index.php?action_kouhyou_detail_004_kani=true&JigyosyoCd=3671300352-00&ServiceCd=170&Type=search", "url2": null }, "geometry": { "type": "Point", "coordinates": [ 134.641618990213061, 33.952001049815678 ] } },
{ "type": "Feature", "properties": { "内容": "社会福祉法人愛心会ロイヤル福祉用具貸与事業所【福祉用具貸与】徳島県阿南市羽ノ浦町中庄池ノ上55-1", "url": "https://www.kaigokensaku.mhlw.go.jp/36/index.php?action_kouhyou_detail_004_kani=true&JigyosyoCd=3670101546-00&ServiceCd=170&Type=search", "url2": "http://royal-carecenter.main.jp/" }, "geometry": { "type": "Point", "coordinates": [ 134.635610361092546, 33.957917193217256 ] } },
{ "type": "Feature", "properties": { "内容": "介護ショップさくら【福祉用具貸与】徳島県吉野川市鴨島町上浦６７８－９", "url": "https://www.kaigokensaku.mhlw.go.jp/36/index.php?action_kouhyou_detail_004_kani=true&JigyosyoCd=3671700494-00&ServiceCd=170&Type=search", "url2": null }, "geometry": { "type": "Point", "coordinates": [ 134.388171945785501, 34.068058819909595 ] } },
{ "type": "Feature", "properties": { "内容": "株式会社ケアサポート志【福祉用具貸与】徳島県吉野川市山川町中須賀22番地2", "url": "https://www.kaigokensaku.mhlw.go.jp/36/index.php?action_kouhyou_detail_004_kani=true&JigyosyoCd=3671700635-00&ServiceCd=170&Type=search", "url2": null }, "geometry": { "type": "Point", "coordinates": [ 134.2673141, 34.0629259 ] } },
{ "type": "Feature", "properties": { "内容": "ケアサービスアサヒ　徳島西支店【福祉用具貸与】徳島県吉野川市鴨島町鴨島字本郷141番1", "url": "https://www.kaigokensaku.mhlw.go.jp/36/index.php?action_kouhyou_detail_004_kani=true&JigyosyoCd=3671700932-00&ServiceCd=170&Type=search", "url2": "https://www.asahi-cs.jp/" }, "geometry": { "type": "Point", "coordinates": [ 134.360245168783592, 34.068864241607379 ] } },
{ "type": "Feature", "properties": { "内容": "株式会社アスケア【福祉用具貸与】徳島県吉野川市鴨島町鴨島506番地1", "url": "https://www.kaigokensaku.mhlw.go.jp/36/index.php?action_kouhyou_detail_004_kani=true&JigyosyoCd=3671700452-00&ServiceCd=170&Type=search", "url2": null }, "geometry": { "type": "Point", "coordinates": [ 134.355797395106521, 34.071589759640844 ] } },
{ "type": "Feature", "properties": { "内容": "有限会社　スギハラ器械【福祉用具貸与】徳島県吉野川市山川町中須賀127-4", "url": "https://www.kaigokensaku.mhlw.go.jp/36/index.php?action_kouhyou_detail_004_kani=true&JigyosyoCd=3671700130-00&ServiceCd=170&Type=search", "url2": null }, "geometry": { "type": "Point", "coordinates": [ 134.264840499999963, 34.0631396 ] } },
{ "type": "Feature", "properties": { "内容": "株式会社阿波すだち【福祉用具貸与】徳島県阿波市阿波町南五味知104-2", "url": "https://www.kaigokensaku.mhlw.go.jp/36/index.php?action_kouhyou_detail_004_kani=true&JigyosyoCd=3671600355-00&ServiceCd=170&Type=search", "url2": "https://awasudachi.net/" }, "geometry": { "type": "Point", "coordinates": [ 134.236548148105328, 34.089774661890367 ] } },
{ "type": "Feature", "properties": { "内容": "有限会社さくら介護サービス【福祉用具貸与】徳島県阿波市阿波町桜ノ岡１２０", "url": "https://www.kaigokensaku.mhlw.go.jp/36/index.php?action_kouhyou_detail_004_kani=true&JigyosyoCd=3671600314-00&ServiceCd=170&Type=search", "url2": null }, "geometry": { "type": "Point", "coordinates": [ 134.20140379999998, 34.089602299999989 ] } },
{ "type": "Feature", "properties": { "内容": "ケア用具ココロ【福祉用具貸与】徳島県美馬市脇町野村４６３８－１", "url": "https://www.kaigokensaku.mhlw.go.jp/36/index.php?action_kouhyou_detail_004_kani=true&JigyosyoCd=3670500325-00&ServiceCd=170&Type=search", "url2": "https://www.youyou-web.com/" }, "geometry": { "type": "Point", "coordinates": [ 134.092455100000052, 34.0589775 ] } },
{ "type": "Feature", "properties": { "内容": "有限会社水野企画【福祉用具貸与】徳島県美馬市脇町大字猪尻字建神社下南120番地5", "url": "https://www.kaigokensaku.mhlw.go.jp/36/index.php?action_kouhyou_detail_004_kani=true&JigyosyoCd=3671800419-00&ServiceCd=170&Type=search", "url2": "http://tos-serv001.oops.jp/3601000091_mizun/" }, "geometry": { "type": "Point", "coordinates": [ 134.1604979, 34.064716 ] } },
{ "type": "Feature", "properties": { "内容": "株式会社トーカイ　徳島西部営業所【福祉用具貸与】徳島県美馬市脇町字拝原40-123", "url": "https://www.kaigokensaku.mhlw.go.jp/36/index.php?action_kouhyou_detail_004_kani=true&JigyosyoCd=3670500317-00&ServiceCd=170&Type=search", "url2": "http://www.tokai-corp.com" }, "geometry": { "type": "Point", "coordinates": [ 134.174982199999931, 34.0715596 ] } },
{ "type": "Feature", "properties": { "内容": "介護福祉センターライフ・アップ【福祉用具貸与】徳島県三好市池田町ウエノ2799-1", "url": "https://www.kaigokensaku.mhlw.go.jp/36/index.php?action_kouhyou_detail_004_kani=true&JigyosyoCd=3671900334-00&ServiceCd=170&Type=search", "url2": null }, "geometry": { "type": "Point", "coordinates": [ 133.799674520407052, 34.030623359360924 ] } },
{ "type": "Feature", "properties": { "内容": "有限会社　エヌティーコーポレーション　まこと福祉の店【福祉用具貸与】石井字石井５０５番地８", "url": "https://www.kaigokensaku.mhlw.go.jp/36/index.php?action_kouhyou_detail_004_kani=true&JigyosyoCd=3671200214-00&ServiceCd=170&Type=search", "url2": null }, "geometry": { "type": "Point", "coordinates": [ 134.449036093254136, 34.069082300000353 ] } },
{ "type": "Feature", "properties": { "内容": "永和福祉用具貸与事業所【福祉用具貸与】徳島県名西郡石井町高原字東高原13-1", "url": "https://www.kaigokensaku.mhlw.go.jp/36/index.php?action_kouhyou_detail_004_kani=true&JigyosyoCd=3671200271-00&ServiceCd=170&Type=search", "url2": null }, "geometry": { "type": "Point", "coordinates": [ 134.4236029, 34.0826529 ] } },
{ "type": "Feature", "properties": { "内容": "那賀町に光を照らす株式会社【福祉用具貸与】徳島県那賀郡那賀町百合字石橋５００－３", "url": "https://www.kaigokensaku.mhlw.go.jp/36/index.php?action_kouhyou_detail_004_kani=true&JigyosyoCd=3671300709-00&ServiceCd=170&Type=search", "url2": "naka_hikarioterasu@yahoo.co.jp" }, "geometry": { "type": "Point", "coordinates": [ 134.487576513718523, 33.846158669365551 ] } },
{ "type": "Feature", "properties": { "内容": "介護ショップトーホー【福祉用具貸与】板野郡北島町高房字勝瑞境3番地1", "url": "https://www.kaigokensaku.mhlw.go.jp/36/index.php?action_kouhyou_detail_004_kani=true&JigyosyoCd=3671500415-00&ServiceCd=170&Type=search", "url2": "tohosales@co.jp" }, "geometry": { "type": "Point", "coordinates": [ 134.532166400000051, 34.128177 ] } },
{ "type": "Feature", "properties": { "内容": "そよかぜ指定福祉用具貸与【福祉用具貸与】徳島県板野郡北島町北村字東蛭子88番地5", "url": "https://www.kaigokensaku.mhlw.go.jp/36/index.php?action_kouhyou_detail_004_kani=true&JigyosyoCd=3671500167-00&ServiceCd=170&Type=search", "url2": "http://sogoiryo.com/index.html" }, "geometry": { "type": "Point", "coordinates": [ 134.5590573, 34.1389658 ] } },
{ "type": "Feature", "properties": { "内容": "株式会社フロンティア　徳島営業所【福祉用具貸与】徳島県板野郡北島町高房字勝瑞境3-1", "url": "https://www.kaigokensaku.mhlw.go.jp/36/index.php?action_kouhyou_detail_004_kani=true&JigyosyoCd=3671502361-00&ServiceCd=170&Type=search", "url2": "https://www.frontier-ph.com/" }, "geometry": { "type": "Point", "coordinates": [ 134.532173076057461, 34.128108353570042 ] } },
{ "type": "Feature", "properties": { "内容": "四国医療サービス株式会社　福祉事業部　徳島営業所【福祉用具貸与】鯛浜字川久保179-7", "url": "https://www.kaigokensaku.mhlw.go.jp/36/index.php?action_kouhyou_detail_004_kani=true&JigyosyoCd=3671501140-00&ServiceCd=170&Type=search", "url2": "http://www.shikoku-ms.jp/" }, "geometry": { "type": "Point", "coordinates": [ 134.551809400000025, 34.1146843 ] } },
{ "type": "Feature", "properties": { "内容": "福祉用具sumika【福祉用具貸与】徳島県板野郡藍住町矢上字北分41番地43", "url": "https://www.kaigokensaku.mhlw.go.jp/36/index.php?action_kouhyou_detail_004_kani=true&JigyosyoCd=3671502338-00&ServiceCd=170&Type=search", "url2": null }, "geometry": { "type": "Point", "coordinates": [ 134.4959686, 34.1370291 ] } },
{ "type": "Feature", "properties": { "内容": "ヨシキケアサービス【福祉用具貸与】徳島県板野郡板野町中久保字中須賀21番地", "url": "https://www.kaigokensaku.mhlw.go.jp/36/index.php?action_kouhyou_detail_004_kani=true&JigyosyoCd=3671501454-00&ServiceCd=170&Type=search", "url2": null }, "geometry": { "type": "Point", "coordinates": [ 134.4512638, 34.1180792 ] } },
{ "type": "Feature", "properties": { "内容": "エココロとくしま【福祉用具貸与】徳島県板野郡板野町大坂字古田２１番地２", "url": "https://www.kaigokensaku.mhlw.go.jp/36/index.php?action_kouhyou_detail_004_kani=true&JigyosyoCd=3671501520-00&ServiceCd=170&Type=search", "url2": "https://ecocolo.today" }, "geometry": { "type": "Point", "coordinates": [ 134.456096200000047, 34.1561725 ] } },
{ "type": "Feature", "properties": { "内容": "有限会社　こんどう【福祉用具貸与】徳島県板野郡上板町七条字橋本３－８", "url": "https://www.kaigokensaku.mhlw.go.jp/36/index.php?action_kouhyou_detail_004_kani=true&JigyosyoCd=3671500332-00&ServiceCd=170&Type=search", "url2": null }, "geometry": { "type": "Point", "coordinates": [ 134.40523810000002, 34.1124021 ] } },
{ "type": "Feature", "properties": { "内容": "介護ショップ　ハートステッキ【福祉用具貸与】徳島県美馬郡つるぎ町半田字小野３２５", "url": "https://www.kaigokensaku.mhlw.go.jp/36/index.php?action_kouhyou_detail_004_kani=true&JigyosyoCd=3671800526-00&ServiceCd=170&Type=search", "url2": null }, "geometry": { "type": "Point", "coordinates": [ 134.031347899999986, 34.040767799999983 ] } },
{ "type": "Feature", "properties": { "内容": "介護ショップ　ひよこ【福祉用具貸与】徳島県三好郡東みよし町足代１４９８－１", "url": "https://www.kaigokensaku.mhlw.go.jp/36/index.php?action_kouhyou_detail_004_kani=true&JigyosyoCd=3671900466-00&ServiceCd=170&Type=search", "url2": null }, "geometry": { "type": "Point", "coordinates": [ 133.893897700000025, 34.042471200000016 ] } }
]
}
