{
"type": "FeatureCollection",
"name": "geo_36_介護医療院",
"crs": { "type": "name", "properties": { "name": "urn:ogc:def:crs:OGC:1.3:CRS84" } },
"features": [
{ "type": "Feature", "properties": { "内容": "介護医療院名東【介護医療院】名東町1丁目91番地", "url": "https://www.kaigokensaku.mhlw.go.jp/36/index.php?action_kouhyou_detail_004_kani=true&JigyosyoCd=36B0127443-00&ServiceCd=550&Type=search", "url2": "http://tenma-hpg.com/kaigo/myoudou/" }, "geometry": { "type": "Point", "coordinates": [ 134.5048736, 34.0659176 ] } },
{ "type": "Feature", "properties": { "内容": "福田整形外科病院介護医療院【介護医療院】徳島県徳島市南内町1丁目34番地", "url": "https://www.kaigokensaku.mhlw.go.jp/36/index.php?action_kouhyou_detail_004_kani=true&JigyosyoCd=36B0123558-00&ServiceCd=550&Type=search", "url2": "https://reiwa-fs.jp/" }, "geometry": { "type": "Point", "coordinates": [ 134.5525843, 34.0692136 ] } },
{ "type": "Feature", "properties": { "内容": "リハビリテーション大神子病院介護医療院【介護医療院】徳島県徳島市大原町余慶1番1", "url": "https://www.kaigokensaku.mhlw.go.jp/36/index.php?action_kouhyou_detail_004_kani=true&JigyosyoCd=36B0123665-00&ServiceCd=550&Type=search", "url2": "http://www.doushisya.jp" }, "geometry": { "type": "Point", "coordinates": [ 134.572291240383919, 34.027315388210376 ] } },
{ "type": "Feature", "properties": { "内容": "協立病院　介護医療院【介護医療院】徳島県徳島市八万町寺山１３番地２", "url": "https://www.kaigokensaku.mhlw.go.jp/36/index.php?action_kouhyou_detail_004_kani=true&JigyosyoCd=36B0127765-00&ServiceCd=550&Type=search", "url2": "http://kyoritsuhp.or.jp" }, "geometry": { "type": "Point", "coordinates": [ 134.521274, 34.0430921 ] } },
{ "type": "Feature", "properties": { "内容": "名東天満介護医療院【介護医療院】徳島県徳島市名東町1丁目91番地", "url": "https://www.kaigokensaku.mhlw.go.jp/36/index.php?action_kouhyou_detail_004_kani=true&JigyosyoCd=36B0127914-00&ServiceCd=550&Type=search", "url2": "https://tenma-hpg.com/" }, "geometry": { "type": "Point", "coordinates": [ 134.5048736, 34.0659176 ] } },
{ "type": "Feature", "properties": { "内容": "林内科介護医療院【介護医療院】徳島県徳島市中昭和町2丁目94番地", "url": "https://www.kaigokensaku.mhlw.go.jp/36/index.php?action_kouhyou_detail_004_kani=true&JigyosyoCd=36B0124770-00&ServiceCd=550&Type=search", "url2": "http//www.tomida.or.jp" }, "geometry": { "type": "Point", "coordinates": [ 134.55861250000001, 34.0617215 ] } },
{ "type": "Feature", "properties": { "内容": "木下病院介護医療院【介護医療院】徳島県徳島市南末広町4-70木下病院４階", "url": "https://www.kaigokensaku.mhlw.go.jp/36/index.php?action_kouhyou_detail_004_kani=true&JigyosyoCd=36B0123863-00&ServiceCd=550&Type=search", "url2": "http://www.kinoshita-hp.com/index.html" }, "geometry": { "type": "Point", "coordinates": [ 134.57595280000001, 34.0602981 ] } },
{ "type": "Feature", "properties": { "内容": "稲山病院　介護医療院【介護医療院】徳島県徳島市南田宮4丁目3番9号", "url": "https://www.kaigokensaku.mhlw.go.jp/36/index.php?action_kouhyou_detail_004_kani=true&JigyosyoCd=36B0124168-00&ServiceCd=550&Type=search", "url2": "https://www.inayama.or.jp/" }, "geometry": { "type": "Point", "coordinates": [ 134.531523, 34.0859042 ] } },
{ "type": "Feature", "properties": { "内容": "眉山病院　介護医療院【介護医療院】徳島県徳島市西二軒屋町２−３９−２", "url": "https://www.kaigokensaku.mhlw.go.jp/36/index.php?action_kouhyou_detail_004_kani=true&JigyosyoCd=36B0124390-00&ServiceCd=550&Type=search", "url2": "https://bizan-hp.jp/" }, "geometry": { "type": "Point", "coordinates": [ 134.54397979999996, 34.059028 ] } },
{ "type": "Feature", "properties": { "内容": "介護医療院鳴門山上病院【介護医療院】徳島県鳴門市鳴門町土佐泊浦字高砂205番地29", "url": "https://www.kaigokensaku.mhlw.go.jp/36/index.php?action_kouhyou_detail_004_kani=true&JigyosyoCd=36B0210066-00&ServiceCd=550&Type=search", "url2": "https://kyujinkai-mc.or.jp" }, "geometry": { "type": "Point", "coordinates": [ 134.6254274, 34.2056836 ] } },
{ "type": "Feature", "properties": { "内容": "橋本介護医療院【介護医療院】徳島県鳴門市大津町吉永字四番越４７１番地６", "url": "https://www.kaigokensaku.mhlw.go.jp/36/index.php?action_kouhyou_detail_004_kani=true&JigyosyoCd=36B0213128-00&ServiceCd=550&Type=search", "url2": "http://www2s.biglobe.ne.jp/~hasimoto/" }, "geometry": { "type": "Point", "coordinates": [ 134.6007426, 34.1675519 ] } },
{ "type": "Feature", "properties": { "内容": "ふじのクリニック介護医療院【介護医療院】徳島県小松島市坂野町字平田１８番地の4", "url": "https://www.kaigokensaku.mhlw.go.jp/36/index.php?action_kouhyou_detail_004_kani=true&JigyosyoCd=36B0310502-00&ServiceCd=550&Type=search", "url2": "http://fujino.ezdns.jp/" }, "geometry": { "type": "Point", "coordinates": [ 134.6330763, 33.9808015 ] } },
{ "type": "Feature", "properties": { "内容": "藤野医院介護医療院【介護医療院】徳島県小松島市坂野町字平田18番地2", "url": "https://www.kaigokensaku.mhlw.go.jp/36/index.php?action_kouhyou_detail_004_kani=true&JigyosyoCd=36B0310403-00&ServiceCd=550&Type=search", "url2": "http://fujino.ezdns.jp" }, "geometry": { "type": "Point", "coordinates": [ 134.633083699999986, 33.9807897 ] } },
{ "type": "Feature", "properties": { "内容": "徳島ロイヤル病院介護医療院【介護医療院】徳島県小松島市中田町字新開48番地", "url": "https://www.kaigokensaku.mhlw.go.jp/36/index.php?action_kouhyou_detail_004_kani=true&JigyosyoCd=36B0310080-00&ServiceCd=550&Type=search", "url2": "http://royal-hospital.jp" }, "geometry": { "type": "Point", "coordinates": [ 134.583401557672147, 34.013513817438934 ] } },
{ "type": "Feature", "properties": { "内容": "ふじのクリニック介護医療院【介護医療院】徳島県小松島市坂野町字平田18番地4", "url": "https://www.kaigokensaku.mhlw.go.jp/36/index.php?action_kouhyou_detail_004_kani=true&JigyosyoCd=36B0311310-00&ServiceCd=550&Type=search", "url2": "http://fujino.ezdns.jp/" }, "geometry": { "type": "Point", "coordinates": [ 134.6334325, 33.9807524 ] } },
{ "type": "Feature", "properties": { "内容": "碩心館　介護医療院【介護医療院】徳島県小松島市江田町字大江田44-1", "url": "https://www.kaigokensaku.mhlw.go.jp/36/index.php?action_kouhyou_detail_004_kani=true&JigyosyoCd=36B0310130-00&ServiceCd=550&Type=search", "url2": "www.sekishinkan.or.jp" }, "geometry": { "type": "Point", "coordinates": [ 134.563690799999989, 34.0143104 ] } },
{ "type": "Feature", "properties": { "内容": "原田病院介護医療院【介護医療院】富岡町あ石１４－１", "url": "https://www.kaigokensaku.mhlw.go.jp/36/index.php?action_kouhyou_detail_004_kani=true&JigyosyoCd=36B0410013-00&ServiceCd=550&Type=search", "url2": null }, "geometry": { "type": "Point", "coordinates": [ 134.662540400000012, 33.9179212 ] } },
{ "type": "Feature", "properties": { "内容": "介護医療院鴨島病院【介護医療院】徳島県吉野川市鴨島町内原432", "url": "https://www.kaigokensaku.mhlw.go.jp/36/index.php?action_kouhyou_detail_004_kani=true&JigyosyoCd=36B1710114-00&ServiceCd=550&Type=search", "url2": "http://kamojima.t-group.net" }, "geometry": { "type": "Point", "coordinates": [ 134.3677543, 34.0700305 ] } },
{ "type": "Feature", "properties": { "内容": "医療法人青鳳会　介護医療院　美摩病院【介護医療院】徳島県吉野川市鴨島町上下島497", "url": "https://www.kaigokensaku.mhlw.go.jp/36/index.php?action_kouhyou_detail_004_kani=true&JigyosyoCd=36B1710031-00&ServiceCd=550&Type=search", "url2": "http:/www.mima-gr.jp/" }, "geometry": { "type": "Point", "coordinates": [ 134.35394610000003, 34.066264100000055 ] } },
{ "type": "Feature", "properties": { "内容": "成田病院介護医療院【介護医療院】徳島県美馬市脇町字拝原2576番地201,202,203", "url": "https://www.kaigokensaku.mhlw.go.jp/36/index.php?action_kouhyou_detail_004_kani=true&JigyosyoCd=36B0510085-00&ServiceCd=550&Type=search", "url2": "http://www.fujinokai.net" }, "geometry": { "type": "Point", "coordinates": [ 134.175326399999989, 34.0649669 ] } },
{ "type": "Feature", "properties": { "内容": "北條病院　介護医療院【介護医療院】徳島県三好市池田町マチ2526-7", "url": "https://www.kaigokensaku.mhlw.go.jp/36/index.php?action_kouhyou_detail_004_kani=true&JigyosyoCd=36B0613103-00&ServiceCd=550&Type=search", "url2": "http://hojyo-hp.com/" }, "geometry": { "type": "Point", "coordinates": [ 133.804484, 34.0290357 ] } },
{ "type": "Feature", "properties": { "内容": "村山内科介護医療院【介護医療院】池田町サラダ１７９５番地１", "url": "https://www.kaigokensaku.mhlw.go.jp/36/index.php?action_kouhyou_detail_004_kani=true&JigyosyoCd=36B0610554-00&ServiceCd=550&Type=search", "url2": "https://murayamanaika.com" }, "geometry": { "type": "Point", "coordinates": [ 133.8065949, 34.0279734 ] } },
{ "type": "Feature", "properties": { "内容": "浦田病院介護医療院【介護医療院】徳島県板野郡松茂町広島字南ハリ13番地", "url": "https://www.kaigokensaku.mhlw.go.jp/36/index.php?action_kouhyou_detail_004_kani=true&JigyosyoCd=36B1510035-00&ServiceCd=550&Type=search", "url2": null }, "geometry": { "type": "Point", "coordinates": [ 134.5774419, 34.1329813 ] } },
{ "type": "Feature", "properties": { "内容": "清水内科介護医療院【介護医療院】徳島県板野郡藍住町奥野字和田71-13", "url": "https://www.kaigokensaku.mhlw.go.jp/36/index.php?action_kouhyou_detail_004_kani=true&JigyosyoCd=36B1510415-00&ServiceCd=550&Type=search", "url2": "http://www.seijyukai-med.jp/" }, "geometry": { "type": "Point", "coordinates": [ 134.4937899, 34.12102 ] } },
{ "type": "Feature", "properties": { "内容": "三加茂田中病院介護医療院【介護医療院】徳島県三好郡東みよし町加茂1883番地4", "url": "https://www.kaigokensaku.mhlw.go.jp/36/index.php?action_kouhyou_detail_004_kani=true&JigyosyoCd=36B1910136-00&ServiceCd=550&Type=search", "url2": "http://www.mikamotanakahp.ecnet.jp/" }, "geometry": { "type": "Point", "coordinates": [ 133.9262132, 34.0393065 ] } }
]
}
