{
"type": "FeatureCollection",
"name": "geo_36_介護老人福祉施設",
"crs": { "type": "name", "properties": { "name": "urn:ogc:def:crs:OGC:1.3:CRS84" } },
"features": [
{ "type": "Feature", "properties": { "内容": "特別養護老人ホーム青葉荘【介護老人福祉施設】徳島県徳島市飯谷町上里42-1", "url": "https://www.kaigokensaku.mhlw.go.jp/36/index.php?action_kouhyou_detail_004_kani=true&JigyosyoCd=3670100019-00&ServiceCd=510&Type=search", "url2": "htt://seiyohkai.jp/" }, "geometry": { "type": "Point", "coordinates": [ 134.5485645, 33.9662956 ] } },
{ "type": "Feature", "properties": { "内容": "特別養護老人ホームかもな園【介護老人福祉施設】徳島県徳島市名東町２丁目４５４番地特別養護老人ホームかもな園", "url": "https://www.kaigokensaku.mhlw.go.jp/36/index.php?action_kouhyou_detail_004_kani=true&JigyosyoCd=3670100035-00&ServiceCd=510&Type=search", "url2": "http://www.sawarabikai.or.jp" }, "geometry": { "type": "Point", "coordinates": [ 134.496129699999983, 34.0591143 ] } },
{ "type": "Feature", "properties": { "内容": "特別養護老人ホーム青香園【介護老人福祉施設】徳島市川内町平石住吉183番地", "url": "https://www.kaigokensaku.mhlw.go.jp/36/index.php?action_kouhyou_detail_004_kani=true&JigyosyoCd=3670100209-00&ServiceCd=510&Type=search", "url2": "http://www.seikahukushikai.jp" }, "geometry": { "type": "Point", "coordinates": [ 134.585925800000041, 34.1140428 ] } },
{ "type": "Feature", "properties": { "内容": "特別養護老人ホーム大神子園【介護老人福祉施設】徳島市大原町大神子１９番", "url": "https://www.kaigokensaku.mhlw.go.jp/36/index.php?action_kouhyou_detail_004_kani=true&JigyosyoCd=3670103450-00&ServiceCd=510&Type=search", "url2": "https://www.sudachikai.jp/" }, "geometry": { "type": "Point", "coordinates": [ 134.584692035888651, 34.028486988027446 ] } },
{ "type": "Feature", "properties": { "内容": "特別養護老人ホーム大神子園【介護老人福祉施設】徳島市大原町大神子１９番", "url": "https://www.kaigokensaku.mhlw.go.jp/36/index.php?action_kouhyou_detail_004_kani=true&JigyosyoCd=3670100191-00&ServiceCd=510&Type=search", "url2": "http://www.sudachikai.jp/" }, "geometry": { "type": "Point", "coordinates": [ 134.584751044486978, 34.028540337756034 ] } },
{ "type": "Feature", "properties": { "内容": "特別養護老人ホーム　ライム【介護老人福祉施設】徳島県徳島市国府町中字松ﾉ本28番地1", "url": "https://www.kaigokensaku.mhlw.go.jp/36/index.php?action_kouhyou_detail_004_kani=true&JigyosyoCd=3670102619-00&ServiceCd=510&Type=search", "url2": "http://www.lemon.or.jp/" }, "geometry": { "type": "Point", "coordinates": [ 134.482808037349059, 34.06963146791955 ] } },
{ "type": "Feature", "properties": { "内容": "特別養護老人ホームなつめ荘【介護老人福祉施設】徳島県徳島市新浜本町1丁目7番70号特別養護老人ホームなつめ荘", "url": "https://www.kaigokensaku.mhlw.go.jp/36/index.php?action_kouhyou_detail_004_kani=true&JigyosyoCd=3670102726-00&ServiceCd=510&Type=search", "url2": "http://natsumesou.com/" }, "geometry": { "type": "Point", "coordinates": [ 134.572486300000037, 34.0440842 ] } },
{ "type": "Feature", "properties": { "内容": "介護老人福祉施設　ヴィラ勝占【介護老人福祉施設】徳島県徳島市勝占町松成43-1", "url": "https://www.kaigokensaku.mhlw.go.jp/36/index.php?action_kouhyou_detail_004_kani=true&JigyosyoCd=3670101009-00&ServiceCd=510&Type=search", "url2": "https://katsura.tokuyou.jp" }, "geometry": { "type": "Point", "coordinates": [ 134.5514809, 34.0204447 ] } },
{ "type": "Feature", "properties": { "内容": "特別養護老人ホーム　健祥会モルダウ【介護老人福祉施設】徳島県徳島市応神町古川字北36番地", "url": "https://www.kaigokensaku.mhlw.go.jp/36/index.php?action_kouhyou_detail_004_kani=true&JigyosyoCd=3670100803-00&ServiceCd=510&Type=search", "url2": "https://www.kenshokai.group/" }, "geometry": { "type": "Point", "coordinates": [ 134.5481072, 34.1067546 ] } },
{ "type": "Feature", "properties": { "内容": "阿波老人ホーム仙寿園【介護老人福祉施設】徳島県徳島市住吉四丁目12番10号", "url": "https://www.kaigokensaku.mhlw.go.jp/36/index.php?action_kouhyou_detail_004_kani=true&JigyosyoCd=3670103955-00&ServiceCd=510&Type=search", "url2": "http://hakuju-kai.or.jp/" }, "geometry": { "type": "Point", "coordinates": [ 134.569017199999962, 34.0827271 ] } },
{ "type": "Feature", "properties": { "内容": "阿波老人ホーム仙寿園【介護老人福祉施設】徳島県徳島市住吉四丁目12番10号", "url": "https://www.kaigokensaku.mhlw.go.jp/36/index.php?action_kouhyou_detail_004_kani=true&JigyosyoCd=3670100175-00&ServiceCd=510&Type=search", "url2": "http://hakuju-kai.or.jp/" }, "geometry": { "type": "Point", "coordinates": [ 134.569017199999962, 34.0827271 ] } },
{ "type": "Feature", "properties": { "内容": "介護老人福祉施設やまもも荘【介護老人福祉施設】徳島県徳島市下町本丁59-19", "url": "https://www.kaigokensaku.mhlw.go.jp/36/index.php?action_kouhyou_detail_004_kani=true&JigyosyoCd=3670100027-00&ServiceCd=510&Type=search", "url2": "http://www.tk2.nmt.ne.jp/~kouhuukai/index.html" }, "geometry": { "type": "Point", "coordinates": [ 134.486852699999986, 34.0366362 ] } },
{ "type": "Feature", "properties": { "内容": "特別養護老人ホームピア【介護老人福祉施設】徳島市八万町大野5-5特別養護老人ホームピア", "url": "https://www.kaigokensaku.mhlw.go.jp/36/index.php?action_kouhyou_detail_004_kani=true&JigyosyoCd=3670100050-00&ServiceCd=510&Type=search", "url2": "https://keirou-group.jp/" }, "geometry": { "type": "Point", "coordinates": [ 134.55000960000001, 34.043834 ] } },
{ "type": "Feature", "properties": { "内容": "特別養護老人ホーム　春潮苑【介護老人福祉施設】徳島県鳴門市撫養町立岩字五枚１４６", "url": "https://www.kaigokensaku.mhlw.go.jp/36/index.php?action_kouhyou_detail_004_kani=true&JigyosyoCd=3670200058-00&ServiceCd=510&Type=search", "url2": "http://syunchoen.jp/" }, "geometry": { "type": "Point", "coordinates": [ 134.6207425, 34.1665106 ] } },
{ "type": "Feature", "properties": { "内容": "特別養護老人ホーム鳴光荘【介護老人福祉施設】徳島県鳴門市鳴門町三ツ石字江尻山85番地", "url": "https://www.kaigokensaku.mhlw.go.jp/36/index.php?action_kouhyou_detail_004_kani=true&JigyosyoCd=3670200041-00&ServiceCd=510&Type=search", "url2": "http://midorikai-naruto.jp" }, "geometry": { "type": "Point", "coordinates": [ 134.604464199999939, 34.1978338 ] } },
{ "type": "Feature", "properties": { "内容": "介護老人福祉施設　おおつ苑【介護老人福祉施設】徳島県鳴門市大津町大代字戎野472", "url": "https://www.kaigokensaku.mhlw.go.jp/36/index.php?action_kouhyou_detail_004_kani=true&JigyosyoCd=3670200488-00&ServiceCd=510&Type=search", "url2": "http://www.ryokujyukai.com" }, "geometry": { "type": "Point", "coordinates": [ 138.252924, 36.204824 ] } },
{ "type": "Feature", "properties": { "内容": "特別養護老人ホーム　おおあさ苑【介護老人福祉施設】徳島県鳴門市大麻町桧字東山田５７－１０", "url": "https://www.kaigokensaku.mhlw.go.jp/36/index.php?action_kouhyou_detail_004_kani=true&JigyosyoCd=3670200033-00&ServiceCd=510&Type=search", "url2": "http://ryokujyukai.com" }, "geometry": { "type": "Point", "coordinates": [ 134.500236299999983, 34.1662284 ] } },
{ "type": "Feature", "properties": { "内容": "特別養護老人ホーム　鳴優荘【介護老人福祉施設】徳島県鳴門市鳴門町土佐泊浦字黒山１１８番地２５７", "url": "https://www.kaigokensaku.mhlw.go.jp/36/index.php?action_kouhyou_detail_004_kani=true&JigyosyoCd=3670200918-00&ServiceCd=510&Type=search", "url2": "https://meijyukai.com/meiyu/" }, "geometry": { "type": "Point", "coordinates": [ 134.62589554603278, 34.206551218771395 ] } },
{ "type": "Feature", "properties": { "内容": "特別養護老人ホーム千歳苑【介護老人福祉施設】徳島県小松島市小松島町字元根井54番地1", "url": "https://www.kaigokensaku.mhlw.go.jp/36/index.php?action_kouhyou_detail_004_kani=true&JigyosyoCd=3670300056-00&ServiceCd=510&Type=search", "url2": "https://aishinkai-t.com/titoseen/" }, "geometry": { "type": "Point", "coordinates": [ 134.591159599999969, 34.0153574 ] } },
{ "type": "Feature", "properties": { "内容": "特別養護老人ホーム恵光苑【介護老人福祉施設】小松島市坂野町字樫のべ32番地の1", "url": "https://www.kaigokensaku.mhlw.go.jp/36/index.php?action_kouhyou_detail_004_kani=true&JigyosyoCd=3670300049-00&ServiceCd=510&Type=search", "url2": "http://fujino.ezdns.jp/keikouen/index.htm" }, "geometry": { "type": "Point", "coordinates": [ 134.625602, 33.9695777 ] } },
{ "type": "Feature", "properties": { "内容": "特別養護老人ホーム琴江荘【介護老人福祉施設】徳島県阿南市宝田町今市金剛寺３８番１特別養護老人ホーム琴江荘", "url": "https://www.kaigokensaku.mhlw.go.jp/36/index.php?action_kouhyou_detail_004_kani=true&JigyosyoCd=3670400047-00&ServiceCd=510&Type=search", "url2": "kinkousou@mc.pikara.ne.jp" }, "geometry": { "type": "Point", "coordinates": [ 134.646298774066167, 33.925410121530518 ] } },
{ "type": "Feature", "properties": { "内容": "特別養護老人ホーム健祥会バイエルン【介護老人福祉施設】徳島県阿南市那賀川町苅屋289番地2", "url": "https://www.kaigokensaku.mhlw.go.jp/36/index.php?action_kouhyou_detail_004_kani=true&JigyosyoCd=3671300287-00&ServiceCd=510&Type=search", "url2": "https://www.kenshokai.group/" }, "geometry": { "type": "Point", "coordinates": [ 134.65941250000003, 33.9504353 ] } },
{ "type": "Feature", "properties": { "内容": "特別養護老人ホーム　ライフイン長生【介護老人福祉施設】徳島県阿南市長生町西方５９番地", "url": "https://www.kaigokensaku.mhlw.go.jp/36/index.php?action_kouhyou_detail_004_kani=true&JigyosyoCd=3670400062-00&ServiceCd=510&Type=search", "url2": "http://seisaikai.jp/" }, "geometry": { "type": "Point", "coordinates": [ 134.6236106, 33.9247647 ] } },
{ "type": "Feature", "properties": { "内容": "特別養護老人ホームコスモスの里【介護老人福祉施設】徳島県阿南市羽ノ浦町明見１３５－１", "url": "https://www.kaigokensaku.mhlw.go.jp/36/index.php?action_kouhyou_detail_004_kani=true&JigyosyoCd=3670400435-00&ServiceCd=510&Type=search", "url2": "https://www.sudachikai.jp/" }, "geometry": { "type": "Point", "coordinates": [ 134.598706600000014, 33.9412818 ] } },
{ "type": "Feature", "properties": { "内容": "特別養護老人ホーム阿南荘【介護老人福祉施設】徳島県阿南市宝田町今市金剛地４３", "url": "https://www.kaigokensaku.mhlw.go.jp/36/index.php?action_kouhyou_detail_004_kani=true&JigyosyoCd=3670400765-00&ServiceCd=510&Type=search", "url2": "http://anan-hukushikai.com" }, "geometry": { "type": "Point", "coordinates": [ 134.646325299999944, 33.9220841 ] } },
{ "type": "Feature", "properties": { "内容": "特別養護老人ホーム阿南荘【介護老人福祉施設】徳島県阿南市宝田町今市金剛地４３", "url": "https://www.kaigokensaku.mhlw.go.jp/36/index.php?action_kouhyou_detail_004_kani=true&JigyosyoCd=3670400021-00&ServiceCd=510&Type=search", "url2": "http://anan-hukushikai.com" }, "geometry": { "type": "Point", "coordinates": [ 134.646325299999944, 33.9220841 ] } },
{ "type": "Feature", "properties": { "内容": "介護老人福祉施設ヴィラ羽ノ浦【介護老人福祉施設】徳島県阿南市羽ノ浦町岩脇上平69介護老人福祉施設ヴィラ羽ノ浦", "url": "https://www.kaigokensaku.mhlw.go.jp/36/index.php?action_kouhyou_detail_004_kani=true&JigyosyoCd=3671300295-00&ServiceCd=510&Type=search", "url2": "http://hanoura.tokuyou.jp/" }, "geometry": { "type": "Point", "coordinates": [ 134.6132341, 33.9453424 ] } },
{ "type": "Feature", "properties": { "内容": "特別養護老人ホーム　緑風会ルネッサンス【介護老人福祉施設】徳島県阿南市福井町湊1番地8", "url": "https://www.kaigokensaku.mhlw.go.jp/36/index.php?action_kouhyou_detail_004_kani=true&JigyosyoCd=3670400096-00&ServiceCd=510&Type=search", "url2": "http://www.ryokufu1984.or.jp/" }, "geometry": { "type": "Point", "coordinates": [ 134.623880099999951, 33.8493682 ] } },
{ "type": "Feature", "properties": { "内容": "特別養護老人ホーム　美山苑【介護老人福祉施設】徳島県吉野川市山川町祇園５１番地特別養護老人ホーム美山苑", "url": "https://www.kaigokensaku.mhlw.go.jp/36/index.php?action_kouhyou_detail_004_kani=true&JigyosyoCd=3671700056-00&ServiceCd=510&Type=search", "url2": "http://www.hakuyuu.com" }, "geometry": { "type": "Point", "coordinates": [ 134.248933800000032, 34.0578954 ] } },
{ "type": "Feature", "properties": { "内容": "特別養護老人ホーム水明荘【介護老人福祉施設】徳島県吉野川市川島町川島１０６番地", "url": "https://www.kaigokensaku.mhlw.go.jp/36/index.php?action_kouhyou_detail_004_kani=true&JigyosyoCd=3671700106-00&ServiceCd=510&Type=search", "url2": "https://www.kenshokai.group/" }, "geometry": { "type": "Point", "coordinates": [ 134.321051099999977, 34.0663844 ] } },
{ "type": "Feature", "properties": { "内容": "特別養護老人ホーム　美郷【介護老人福祉施設】徳島県吉野川市美郷字毛無92-17", "url": "https://www.kaigokensaku.mhlw.go.jp/36/index.php?action_kouhyou_detail_004_kani=true&JigyosyoCd=3671700395-00&ServiceCd=510&Type=search", "url2": "http://koutukai.com" }, "geometry": { "type": "Point", "coordinates": [ 134.2646681, 34.0296846 ] } },
{ "type": "Feature", "properties": { "内容": "特別養護老人ホーム菊美荘【介護老人福祉施設】徳島県吉野川市鴨島町上下島字大北443番地2", "url": "https://www.kaigokensaku.mhlw.go.jp/36/index.php?action_kouhyou_detail_004_kani=true&JigyosyoCd=3671700023-00&ServiceCd=510&Type=search", "url2": "http://www.mima-gr.jp/kikumi/index.html" }, "geometry": { "type": "Point", "coordinates": [ 134.347940200000039, 34.0730094 ] } },
{ "type": "Feature", "properties": { "内容": "阿北特別養護老人ホーム【介護老人福祉施設】徳島県阿波市市場町市場字岸ノ下190番地3", "url": "https://www.kaigokensaku.mhlw.go.jp/36/index.php?action_kouhyou_detail_004_kani=true&JigyosyoCd=3671600041-00&ServiceCd=510&Type=search", "url2": null }, "geometry": { "type": "Point", "coordinates": [ 134.275714, 34.0846239 ] } },
{ "type": "Feature", "properties": { "内容": "阿波老人ホームよしの園【介護老人福祉施設】徳島県阿波市吉野町柿原字二条１４６番地1", "url": "https://www.kaigokensaku.mhlw.go.jp/36/index.php?action_kouhyou_detail_004_kani=true&JigyosyoCd=3671500068-00&ServiceCd=510&Type=search", "url2": "http://www.hakuju-kai.or.jp" }, "geometry": { "type": "Point", "coordinates": [ 134.348068, 34.0928433 ] } },
{ "type": "Feature", "properties": { "内容": "阿波老人ホーム御所園【介護老人福祉施設】徳島県阿波市土成町吉田字梨木原1番地5", "url": "https://www.kaigokensaku.mhlw.go.jp/36/index.php?action_kouhyou_detail_004_kani=true&JigyosyoCd=3671500373-00&ServiceCd=510&Type=search", "url2": "http://www.hakuju-kai.or.jp" }, "geometry": { "type": "Point", "coordinates": [ 134.353453599999966, 34.124534 ] } },
{ "type": "Feature", "properties": { "内容": "特別養護老人ホーム蓬莱荘【介護老人福祉施設】徳島県阿波市阿波町北整理１番地１", "url": "https://www.kaigokensaku.mhlw.go.jp/36/index.php?action_kouhyou_detail_004_kani=true&JigyosyoCd=3671600017-00&ServiceCd=510&Type=search", "url2": "https://horaikai.or.jp/" }, "geometry": { "type": "Point", "coordinates": [ 134.194393799999943, 34.0756619 ] } },
{ "type": "Feature", "properties": { "内容": "特別養護老人ホーム　はなのおか【介護老人福祉施設】徳島県美馬市美馬町字天神87-8", "url": "https://www.kaigokensaku.mhlw.go.jp/36/index.php?action_kouhyou_detail_004_kani=true&JigyosyoCd=3670500135-00&ServiceCd=510&Type=search", "url2": "http://www.hananooka.sakura.ne.jp/" }, "geometry": { "type": "Point", "coordinates": [ 134.054021799999987, 34.0495668 ] } },
{ "type": "Feature", "properties": { "内容": "特別養護老人ホームケアプラザみま【介護老人福祉施設】徳島県美馬市美馬町字高畑8番地1", "url": "https://www.kaigokensaku.mhlw.go.jp/36/index.php?action_kouhyou_detail_004_kani=true&JigyosyoCd=3671800385-00&ServiceCd=510&Type=search", "url2": "https://horaikai.or.jp" }, "geometry": { "type": "Point", "coordinates": [ 134.079303399999958, 34.0581995 ] } },
{ "type": "Feature", "properties": { "内容": "特別養護老人ホーム健祥会家康【介護老人福祉施設】徳島県美馬市脇町大字脇町966番地", "url": "https://www.kaigokensaku.mhlw.go.jp/36/index.php?action_kouhyou_detail_004_kani=true&JigyosyoCd=3671800369-00&ServiceCd=510&Type=search", "url2": "https://www.kenshokai.group/" }, "geometry": { "type": "Point", "coordinates": [ 134.13716837505487, 34.07254865317109 ] } },
{ "type": "Feature", "properties": { "内容": "特別養護老人ホーム　永楽荘【介護老人福祉施設】徳島県三好市池田町州津西ノ久保291番地1", "url": "https://www.kaigokensaku.mhlw.go.jp/36/index.php?action_kouhyou_detail_004_kani=true&JigyosyoCd=3671900052-00&ServiceCd=510&Type=search", "url2": "http://www.ikeda-hakuaikai.org/" }, "geometry": { "type": "Point", "coordinates": [ 133.840242799999942, 34.0349383 ] } },
{ "type": "Feature", "properties": { "内容": "特別養護老人ホーム長生園【介護老人福祉施設】徳島県三好市三野町勢力７６８番地１", "url": "https://www.kaigokensaku.mhlw.go.jp/36/index.php?action_kouhyou_detail_004_kani=true&JigyosyoCd=3670600364-00&ServiceCd=510&Type=search", "url2": "http://www.ikeda-hakuaikai.org/" }, "geometry": { "type": "Point", "coordinates": [ 133.979432399999951, 34.0524255 ] } },
{ "type": "Feature", "properties": { "内容": "特別養護老人ホーム健祥会清盛【介護老人福祉施設】徳島県三好市東祖谷古味36番地1", "url": "https://www.kaigokensaku.mhlw.go.jp/36/index.php?action_kouhyou_detail_004_kani=true&JigyosyoCd=3671900136-00&ServiceCd=510&Type=search", "url2": "http://www.kenshokai.group" }, "geometry": { "type": "Point", "coordinates": [ 133.894242599999984, 33.8382284 ] } },
{ "type": "Feature", "properties": { "内容": "特別養護老人ホームみのだ苑【介護老人福祉施設】徳島県三好市井川町片山222番地", "url": "https://www.kaigokensaku.mhlw.go.jp/36/index.php?action_kouhyou_detail_004_kani=true&JigyosyoCd=3671900029-00&ServiceCd=510&Type=search", "url2": "http://minodaen.com/" }, "geometry": { "type": "Point", "coordinates": [ 133.8852713, 34.0308891 ] } },
{ "type": "Feature", "properties": { "内容": "特別養護老人ホーム山城荘【介護老人福祉施設】徳島県三好市山城町西宇1227-4", "url": "https://www.kaigokensaku.mhlw.go.jp/36/index.php?action_kouhyou_detail_004_kani=true&JigyosyoCd=3671900037-00&ServiceCd=510&Type=search", "url2": "http://yamashirokai.or.jp/" }, "geometry": { "type": "Point", "coordinates": [ 133.758924900000011, 33.9132442 ] } },
{ "type": "Feature", "properties": { "内容": "特別養護老人ホーム喜楽苑【介護老人福祉施設】勝浦郡勝浦町大字棚野字竹国１３番地の１", "url": "https://www.kaigokensaku.mhlw.go.jp/36/index.php?action_kouhyou_detail_004_kani=true&JigyosyoCd=3671000010-00&ServiceCd=510&Type=search", "url2": "http://syoujukai.or.jp" }, "geometry": { "type": "Point", "coordinates": [ 134.504896, 33.9326887 ] } },
{ "type": "Feature", "properties": { "内容": "特別養護老人ホーム健祥会ピーター【介護老人福祉施設】大字正木字西浦25番地特別養護老人ホーム健祥会ピーター", "url": "https://www.kaigokensaku.mhlw.go.jp/36/index.php?action_kouhyou_detail_004_kani=true&JigyosyoCd=3671000028-00&ServiceCd=510&Type=search", "url2": "https://www.kenshokai.group/" }, "geometry": { "type": "Point", "coordinates": [ 134.419859200000019, 33.924601 ] } },
{ "type": "Feature", "properties": { "内容": "特別養護老人ホーム　健祥会ハイジ【介護老人福祉施設】徳島県名東郡佐那河内村上字大黒23番地1", "url": "https://www.kaigokensaku.mhlw.go.jp/36/index.php?action_kouhyou_detail_004_kani=true&JigyosyoCd=3671100018-00&ServiceCd=510&Type=search", "url2": "http://www.kenshokai.group/" }, "geometry": { "type": "Point", "coordinates": [ 134.451613599999973, 33.9923776 ] } },
{ "type": "Feature", "properties": { "内容": "特別養護老人ホーム青藍荘【介護老人福祉施設】徳島県名西郡石井町高原字中須８番地１特別養護老人ホーム青藍荘", "url": "https://www.kaigokensaku.mhlw.go.jp/36/index.php?action_kouhyou_detail_004_kani=true&JigyosyoCd=3671200032-00&ServiceCd=510&Type=search", "url2": "ｈｔｔｐ：／／ｓｅｉｒａｎｓｏ．ｃｏｍ" }, "geometry": { "type": "Point", "coordinates": [ 134.40037047790986, 34.084418419669845 ] } },
{ "type": "Feature", "properties": { "内容": "特別養護老人ホーム神山すだち園【介護老人福祉施設】徳島県名西郡神山町阿野字長谷３３５番地", "url": "https://www.kaigokensaku.mhlw.go.jp/36/index.php?action_kouhyou_detail_004_kani=true&JigyosyoCd=3671200024-00&ServiceCd=510&Type=search", "url2": "http://wwwyuseikai.net/fukusikai.htm" }, "geometry": { "type": "Point", "coordinates": [ 134.41697309999995, 34.0497569 ] } },
{ "type": "Feature", "properties": { "内容": "特別養護老人ホーム水の花荘【介護老人福祉施設】徳島県那賀郡那賀町延野字大原４０番地１", "url": "https://www.kaigokensaku.mhlw.go.jp/36/index.php?action_kouhyou_detail_004_kani=true&JigyosyoCd=3671300048-00&ServiceCd=510&Type=search", "url2": "http://care-net.biz/36/suinohana/" }, "geometry": { "type": "Point", "coordinates": [ 134.485064064239481, 33.825524923511217 ] } },
{ "type": "Feature", "properties": { "内容": "特別養護老人ホーム緑風会チロル【介護老人福祉施設】徳島県那賀郡那賀町成瀬字小谷口２番地", "url": "https://www.kaigokensaku.mhlw.go.jp/36/index.php?action_kouhyou_detail_004_kani=true&JigyosyoCd=3671300121-00&ServiceCd=510&Type=search", "url2": "http://www.ryokufu1984.or.jp/" }, "geometry": { "type": "Point", "coordinates": [ 134.284983499999953, 33.7828668 ] } },
{ "type": "Feature", "properties": { "内容": "特別養護老人ホーム緑風荘【介護老人福祉施設】徳島県海部郡牟岐町大字中村字山田30番地", "url": "https://www.kaigokensaku.mhlw.go.jp/36/index.php?action_kouhyou_detail_004_kani=true&JigyosyoCd=3671400095-00&ServiceCd=510&Type=search", "url2": "http://www.kenshokai.group" }, "geometry": { "type": "Point", "coordinates": [ 134.413139699999988, 33.6684733 ] } },
{ "type": "Feature", "properties": { "内容": "特別養護老人ホーム　ヒワサ荘【介護老人福祉施設】徳島県海部郡美波町西河内字丹前106番地1", "url": "https://www.kaigokensaku.mhlw.go.jp/36/index.php?action_kouhyou_detail_004_kani=true&JigyosyoCd=3671400053-00&ServiceCd=510&Type=search", "url2": "http://toukoukai.com/" }, "geometry": { "type": "Point", "coordinates": [ 134.519138455294751, 33.733451552786654 ] } },
{ "type": "Feature", "properties": { "内容": "特別養護老人ホームねんりん【介護老人福祉施設】徳島県海部郡美波町西の地字志和岐谷３７番１", "url": "https://www.kaigokensaku.mhlw.go.jp/36/index.php?action_kouhyou_detail_004_kani=true&JigyosyoCd=3671400038-00&ServiceCd=510&Type=search", "url2": "http://nennrin.jp/" }, "geometry": { "type": "Point", "coordinates": [ 134.600893455073987, 33.779727147932711 ] } },
{ "type": "Feature", "properties": { "内容": "海部郡特別養護老人ホーム事務組合海南荘【介護老人福祉施設】徳島県海部郡海陽町大里字松原３３番地３", "url": "https://www.kaigokensaku.mhlw.go.jp/36/index.php?action_kouhyou_detail_004_kani=true&JigyosyoCd=3671400137-00&ServiceCd=510&Type=search", "url2": "https://kainanso.main.jp/" }, "geometry": { "type": "Point", "coordinates": [ 134.366028699999987, 33.6083422 ] } },
{ "type": "Feature", "properties": { "内容": "特別養護老人ホーム　和光園【介護老人福祉施設】徳島県板野郡松茂町笹木野字山東49-1", "url": "https://www.kaigokensaku.mhlw.go.jp/36/index.php?action_kouhyou_detail_004_kani=true&JigyosyoCd=3671500092-00&ServiceCd=510&Type=search", "url2": "http://wako-en.or.jp/" }, "geometry": { "type": "Point", "coordinates": [ 134.595426, 34.1243262 ] } },
{ "type": "Feature", "properties": { "内容": "特別養護老人ホーム吉野川荘【介護老人福祉施設】徳島県板野郡北島町中村字八丁野４番地１９", "url": "https://www.kaigokensaku.mhlw.go.jp/36/index.php?action_kouhyou_detail_004_kani=true&JigyosyoCd=3671500019-00&ServiceCd=510&Type=search", "url2": "http://care-net.biz/36/yoshi2023/" }, "geometry": { "type": "Point", "coordinates": [ 134.537229700000012, 34.1308213 ] } },
{ "type": "Feature", "properties": { "内容": "特別養護老人ホーム藍寿苑【介護老人福祉施設】徳島県板野郡藍住町富吉字穂実66-3", "url": "https://www.kaigokensaku.mhlw.go.jp/36/index.php?action_kouhyou_detail_004_kani=true&JigyosyoCd=3671501777-00&ServiceCd=510&Type=search", "url2": "http://www.ryoun.com" }, "geometry": { "type": "Point", "coordinates": [ 134.488690410827616, 34.141086801727035 ] } },
{ "type": "Feature", "properties": { "内容": "特別養護老人ホーム藍寿苑【介護老人福祉施設】徳島県板野郡藍住町富吉字穂実66番地3", "url": "https://www.kaigokensaku.mhlw.go.jp/36/index.php?action_kouhyou_detail_004_kani=true&JigyosyoCd=3671501785-00&ServiceCd=510&Type=search", "url2": "http://www.ryoun.com/" }, "geometry": { "type": "Point", "coordinates": [ 134.488671, 34.1411137 ] } },
{ "type": "Feature", "properties": { "内容": "穂波園指定介護老人福祉施設【介護老人福祉施設】徳島県板野郡板野町吹田字西山68番地10", "url": "https://www.kaigokensaku.mhlw.go.jp/36/index.php?action_kouhyou_detail_004_kani=true&JigyosyoCd=3671500084-00&ServiceCd=510&Type=search", "url2": "https://lumiere-tokushima.com/" }, "geometry": { "type": "Point", "coordinates": [ 134.455471200000034, 34.1460011 ] } },
{ "type": "Feature", "properties": { "内容": "上板あおば苑【介護老人福祉施設】徳島県板野郡上板町西分字橋西1番地10", "url": "https://www.kaigokensaku.mhlw.go.jp/36/index.php?action_kouhyou_detail_004_kani=true&JigyosyoCd=3671500076-00&ServiceCd=510&Type=search", "url2": "http://aobagroup.net/" }, "geometry": { "type": "Point", "coordinates": [ 134.41764749999993, 34.1195179 ] } },
{ "type": "Feature", "properties": { "内容": "美馬西部特別養護老人ホーム組合【介護老人福祉施設】徳島県美馬郡つるぎ町半田字松生１５０－１", "url": "https://www.kaigokensaku.mhlw.go.jp/36/index.php?action_kouhyou_detail_004_kani=true&JigyosyoCd=3671800088-00&ServiceCd=510&Type=search", "url2": null }, "geometry": { "type": "Point", "coordinates": [ 134.023126199999979, 34.0414483 ] } },
{ "type": "Feature", "properties": { "内容": "特別養護老人ホームコンフォール貞光【介護老人福祉施設】徳島県美馬郡つるぎ町貞光字中須賀７８番地", "url": "https://www.kaigokensaku.mhlw.go.jp/36/index.php?action_kouhyou_detail_004_kani=true&JigyosyoCd=3671800146-00&ServiceCd=510&Type=search", "url2": "https://www.seijyukai.org/" }, "geometry": { "type": "Point", "coordinates": [ 134.065409700000032, 34.0397319 ] } },
{ "type": "Feature", "properties": { "内容": "特別養護老人ホーム　健祥会たんぽぽ【介護老人福祉施設】三好郡東みよし町中庄1653番地1", "url": "https://www.kaigokensaku.mhlw.go.jp/36/index.php?action_kouhyou_detail_004_kani=true&JigyosyoCd=3671900490-00&ServiceCd=510&Type=search", "url2": "http://www.kenshokai.group/" }, "geometry": { "type": "Point", "coordinates": [ 133.96081879999997, 34.0341557 ] } },
{ "type": "Feature", "properties": { "内容": "特別養護老人ホーム　健祥会たんぽぽ【介護老人福祉施設】徳島県三好郡東みよし町中庄1653番地1", "url": "https://www.kaigokensaku.mhlw.go.jp/36/index.php?action_kouhyou_detail_004_kani=true&JigyosyoCd=3671900094-00&ServiceCd=510&Type=search", "url2": "http://www.kenshokai.group/" }, "geometry": { "type": "Point", "coordinates": [ 133.96081879999997, 34.0341557 ] } },
{ "type": "Feature", "properties": { "内容": "特別養護老人ホームみよし苑【介護老人福祉施設】徳島県三好郡東みよし町昼間７７番地１特別養護老人ホームみよし苑", "url": "https://www.kaigokensaku.mhlw.go.jp/36/index.php?action_kouhyou_detail_004_kani=true&JigyosyoCd=3671900110-00&ServiceCd=510&Type=search", "url2": "Http://WWW.miyoshien.jp" }, "geometry": { "type": "Point", "coordinates": [ 133.888056600000027, 34.0457486 ] } }
]
}
