{
"type": "FeatureCollection",
"name": "geo_36_通所リハビリテーション",
"crs": { "type": "name", "properties": { "name": "urn:ogc:def:crs:OGC:1.3:CRS84" } },
"features": [
{ "type": "Feature", "properties": { "内容": "松永病院通所リハビリテーション【通所リハビリテーション】徳島県徳島市南庄町４丁目６３-１", "url": "https://www.kaigokensaku.mhlw.go.jp/36/index.php?action_kouhyou_detail_004_kani=true&JigyosyoCd=3610125423-00&ServiceCd=160&Type=search", "url2": "http://www.matsunaga-hp.jp/" }, "geometry": { "type": "Point", "coordinates": [ 134.509024399999987, 34.0720008 ] } },
{ "type": "Feature", "properties": { "内容": "医療法人　川内内科【通所リハビリテーション】徳島県徳島市国府町和田字原淵67-1", "url": "https://www.kaigokensaku.mhlw.go.jp/36/index.php?action_kouhyou_detail_004_kani=true&JigyosyoCd=3610127791-00&ServiceCd=160&Type=search", "url2": "kawauchi-clinic.jp/" }, "geometry": { "type": "Point", "coordinates": [ 134.49355557617929, 34.071423941211137 ] } },
{ "type": "Feature", "properties": { "内容": "愛日病院【通所リハビリテーション】徳島市佐古五番町４番３号", "url": "https://www.kaigokensaku.mhlw.go.jp/36/index.php?action_kouhyou_detail_004_kani=true&JigyosyoCd=3670105216-00&ServiceCd=160&Type=search", "url2": "http://youaijitsu.com" }, "geometry": { "type": "Point", "coordinates": [ 134.530635600000011, 34.0778671 ] } },
{ "type": "Feature", "properties": { "内容": "医療法人　住友内科病院　通所リハビリテーション事業所【通所リハビリテーション】徳島県徳島市安宅2丁目3-5", "url": "https://www.kaigokensaku.mhlw.go.jp/36/index.php?action_kouhyou_detail_004_kani=true&JigyosyoCd=3610125506-00&ServiceCd=160&Type=search", "url2": "www.sumitomonaika.com" }, "geometry": { "type": "Point", "coordinates": [ 134.57416969999997, 34.0695139 ] } },
{ "type": "Feature", "properties": { "内容": "指定通所リハビリテーション沖の洲病院【通所リハビリテーション】徳島県徳島市城東町1丁目8-8", "url": "https://www.kaigokensaku.mhlw.go.jp/36/index.php?action_kouhyou_detail_004_kani=true&JigyosyoCd=3610124830-00&ServiceCd=160&Type=search", "url2": "http://www.nmt.ne.jp/~nagioo/" }, "geometry": { "type": "Point", "coordinates": [ 134.572846199999958, 34.0719353 ] } },
{ "type": "Feature", "properties": { "内容": "橋本リハビリテーションクリニック【通所リハビリテーション】徳島県徳島市中常三島町3丁目19番地の3", "url": "https://www.kaigokensaku.mhlw.go.jp/36/index.php?action_kouhyou_detail_004_kani=true&JigyosyoCd=3610126702-00&ServiceCd=160&Type=search", "url2": "http://www.hp-hashimotoclinic.com/" }, "geometry": { "type": "Point", "coordinates": [ 134.565396224235514, 34.078403209730766 ] } },
{ "type": "Feature", "properties": { "内容": "医療法人　成美会　鈴江病院【通所リハビリテーション】徳島県徳島市佐古八番町４－２２医療法人　成美会　鈴江病院", "url": "https://www.kaigokensaku.mhlw.go.jp/36/index.php?action_kouhyou_detail_004_kani=true&JigyosyoCd=3610123568-00&ServiceCd=160&Type=search", "url2": "http：//www.suzue.jp" }, "geometry": { "type": "Point", "coordinates": [ 134.522407599999951, 34.0772907 ] } },
{ "type": "Feature", "properties": { "内容": "ライフケア応神通所リハビリテーション【通所リハビリテーション】徳島県徳島市応神町古川字日ノ上32-1", "url": "https://www.kaigokensaku.mhlw.go.jp/36/index.php?action_kouhyou_detail_004_kani=true&JigyosyoCd=3650180023-00&ServiceCd=160&Type=search", "url2": "http://rouken-oujin.jp/" }, "geometry": { "type": "Point", "coordinates": [ 134.556278900000052, 34.1008972 ] } },
{ "type": "Feature", "properties": { "内容": "デイケアセンターわかば【通所リハビリテーション】徳島県徳島市西新浜町1丁目6番25号", "url": "https://www.kaigokensaku.mhlw.go.jp/36/index.php?action_kouhyou_detail_004_kani=true&JigyosyoCd=3610125399-00&ServiceCd=160&Type=search", "url2": "https://www.kondo-hp.com" }, "geometry": { "type": "Point", "coordinates": [ 134.5579172, 34.0436121 ] } },
{ "type": "Feature", "properties": { "内容": "伊月病院デイケアセンター【通所リハビリテーション】徳島県徳島町二丁目54番地", "url": "https://www.kaigokensaku.mhlw.go.jp/36/index.php?action_kouhyou_detail_004_kani=true&JigyosyoCd=3610124699-00&ServiceCd=160&Type=search", "url2": "http://www.itsuki-hp.jp/" }, "geometry": { "type": "Point", "coordinates": [ 134.555791, 34.051816399999986 ] } },
{ "type": "Feature", "properties": { "内容": "介護老人保健施設カサ・デ・エスペランサ　通所リハビリテーション【通所リハビリテーション】徳島県徳島市名東町２丁目６５０の３５", "url": "https://www.kaigokensaku.mhlw.go.jp/36/index.php?action_kouhyou_detail_004_kani=true&JigyosyoCd=3650180114-00&ServiceCd=160&Type=search", "url2": "https://sei-ryu-kai.or.jp/" }, "geometry": { "type": "Point", "coordinates": [ 134.491956162381683, 34.062268150624917 ] } },
{ "type": "Feature", "properties": { "内容": "デイケアセンタージラソーレ大松【通所リハビリテーション】徳島県徳島市大松町榎原外50-1ジラソーレ大松", "url": "https://www.kaigokensaku.mhlw.go.jp/36/index.php?action_kouhyou_detail_004_kani=true&JigyosyoCd=3610127122-00&ServiceCd=160&Type=search", "url2": "https://www.himawari-gi.com/" }, "geometry": { "type": "Point", "coordinates": [ 134.556016710222679, 34.024349198395385 ] } },
{ "type": "Feature", "properties": { "内容": "医療法人ひまわり会中洲八木病院　通所リハビリテーション【通所リハビリテーション】徳島県徳島市中洲町1丁目31", "url": "https://www.kaigokensaku.mhlw.go.jp/36/index.php?action_kouhyou_detail_004_kani=true&JigyosyoCd=3610123998-00&ServiceCd=160&Type=search", "url2": "http://www.yagihospital.com/" }, "geometry": { "type": "Point", "coordinates": [ 134.557760199999962, 34.0681816 ] } },
{ "type": "Feature", "properties": { "内容": "林内科デイケア【通所リハビリテーション】徳島県徳島市中昭和町２丁目９４番地", "url": "https://www.kaigokensaku.mhlw.go.jp/36/index.php?action_kouhyou_detail_004_kani=true&JigyosyoCd=3610124772-00&ServiceCd=160&Type=search", "url2": "hayashikai.or.jp/daycare" }, "geometry": { "type": "Point", "coordinates": [ 134.558607400000028, 34.0617405 ] } },
{ "type": "Feature", "properties": { "内容": "大塚外科内科　翼【通所リハビリテーション】徳島市川内町平石住吉３１７－４", "url": "https://www.kaigokensaku.mhlw.go.jp/36/index.php?action_kouhyou_detail_004_kani=true&JigyosyoCd=3610125225-00&ServiceCd=160&Type=search", "url2": "https://otuka-cl.com/" }, "geometry": { "type": "Point", "coordinates": [ 134.578318200000012, 34.1120097 ] } },
{ "type": "Feature", "properties": { "内容": "水の都記念病院【通所リハビリテーション】徳島県徳島市北島田町1丁目46番11", "url": "https://www.kaigokensaku.mhlw.go.jp/36/index.php?action_kouhyou_detail_004_kani=true&JigyosyoCd=3610123717-00&ServiceCd=160&Type=search", "url2": "http://www.mizunomiyako.net/" }, "geometry": { "type": "Point", "coordinates": [ 134.517934700000069, 34.08314510000001 ] } },
{ "type": "Feature", "properties": { "内容": "川島病院　通所リハビリテーション【通所リハビリテーション】徳島県徳島市北佐古一番町6-1社会医療法人川島会川島病院", "url": "https://www.kaigokensaku.mhlw.go.jp/36/index.php?action_kouhyou_detail_004_kani=true&JigyosyoCd=3610127684-00&ServiceCd=160&Type=search", "url2": "https://khg.or.jp/" }, "geometry": { "type": "Point", "coordinates": [ 134.541125599999987, 34.079845600000034 ] } },
{ "type": "Feature", "properties": { "内容": "かもな桜公園クリニックデイケア【通所リハビリテーション】徳島県徳島市鮎喰町2丁目95番1", "url": "https://www.kaigokensaku.mhlw.go.jp/36/index.php?action_kouhyou_detail_004_kani=true&JigyosyoCd=3610127965-00&ServiceCd=160&Type=search", "url2": "https://kamona-sakurakouen-clinic.jp/" }, "geometry": { "type": "Point", "coordinates": [ 134.5018025, 34.0723663 ] } },
{ "type": "Feature", "properties": { "内容": "徳島さくらクリニック【通所リハビリテーション】徳島市下町本丁59-1", "url": "https://www.kaigokensaku.mhlw.go.jp/36/index.php?action_kouhyou_detail_004_kani=true&JigyosyoCd=3610126033-00&ServiceCd=160&Type=search", "url2": "http://ichiyou-kai.com/" }, "geometry": { "type": "Point", "coordinates": [ 134.487680400000045, 34.0368195 ] } },
{ "type": "Feature", "properties": { "内容": "天満病院　通所リハビリテーション【通所リハビリテーション】徳島県徳島市蔵本町1丁目5番地1", "url": "https://www.kaigokensaku.mhlw.go.jp/36/index.php?action_kouhyou_detail_004_kani=true&JigyosyoCd=3610125472-00&ServiceCd=160&Type=search", "url2": "http://www.eijyukai.com/" }, "geometry": { "type": "Point", "coordinates": [ 134.520196700000042, 34.0777128 ] } },
{ "type": "Feature", "properties": { "内容": "介護老人保健施設名月苑【通所リハビリテーション】徳島県徳島市名東町一丁目91番地", "url": "https://www.kaigokensaku.mhlw.go.jp/36/index.php?action_kouhyou_detail_004_kani=true&JigyosyoCd=3650180106-00&ServiceCd=160&Type=search", "url2": "http://tenma-hpg.com/" }, "geometry": { "type": "Point", "coordinates": [ 134.5050678, 34.0660193 ] } },
{ "type": "Feature", "properties": { "内容": "介護老人保健施設　三成会キュアセンター【通所リハビリテーション】徳島県徳島市南矢三町3丁目3-31", "url": "https://www.kaigokensaku.mhlw.go.jp/36/index.php?action_kouhyou_detail_004_kani=true&JigyosyoCd=3650180221-00&ServiceCd=160&Type=search", "url2": "http://www.mizunomiyako.net/curecenter.html" }, "geometry": { "type": "Point", "coordinates": [ 134.521332600000051, 34.0838898 ] } },
{ "type": "Feature", "properties": { "内容": "介護老人保健施設　わかくさ【通所リハビリテーション】徳島市川内町小松西８８", "url": "https://www.kaigokensaku.mhlw.go.jp/36/index.php?action_kouhyou_detail_004_kani=true&JigyosyoCd=3650180320-00&ServiceCd=160&Type=search", "url2": "http://www.wakakusakai.com" }, "geometry": { "type": "Point", "coordinates": [ 134.592001100000061, 34.090118 ] } },
{ "type": "Feature", "properties": { "内容": "松村病院【通所リハビリテーション】徳島市川内町鶴島162", "url": "https://www.kaigokensaku.mhlw.go.jp/36/index.php?action_kouhyou_detail_004_kani=true&JigyosyoCd=3610125076-00&ServiceCd=160&Type=search", "url2": "wakakusakai.com" }, "geometry": { "type": "Point", "coordinates": [ 134.572261, 34.0948729 ] } },
{ "type": "Feature", "properties": { "内容": "徳島平成病院【通所リハビリテーション】徳島県徳島市伊賀町３丁目19番地2", "url": "https://www.kaigokensaku.mhlw.go.jp/36/index.php?action_kouhyou_detail_004_kani=true&JigyosyoCd=3610125498-00&ServiceCd=160&Type=search", "url2": "https://tokushimahp.jp/" }, "geometry": { "type": "Point", "coordinates": [ 134.544865935466021, 34.063168271494675 ] } },
{ "type": "Feature", "properties": { "内容": "博愛記念病院【通所リハビリテーション】徳島県徳島市勝占町松成50-1", "url": "https://www.kaigokensaku.mhlw.go.jp/36/index.php?action_kouhyou_detail_004_kani=true&JigyosyoCd=3610124152-00&ServiceCd=160&Type=search", "url2": "https://hakuaihp.jp/inquiry" }, "geometry": { "type": "Point", "coordinates": [ 134.551539, 34.0209728 ] } },
{ "type": "Feature", "properties": { "内容": "リハビリセンターグリーンTAOKA【通所リハビリテーション】徳島県徳島市川内町北原31-3", "url": "https://www.kaigokensaku.mhlw.go.jp/36/index.php?action_kouhyou_detail_004_kani=true&JigyosyoCd=3650180205-00&ServiceCd=160&Type=search", "url2": "https://green-taoka.jp" }, "geometry": { "type": "Point", "coordinates": [ 134.561074383205124, 34.101425098609184 ] } },
{ "type": "Feature", "properties": { "内容": "通所リハビリテーションロイヤルヘルスケア【通所リハビリテーション】徳島県徳島市西新浜町2丁目3-33", "url": "https://www.kaigokensaku.mhlw.go.jp/36/index.php?action_kouhyou_detail_004_kani=true&JigyosyoCd=3650180015-00&ServiceCd=160&Type=search", "url2": "https://www.royal-hc.com/" }, "geometry": { "type": "Point", "coordinates": [ 134.559161051035773, 34.042056125944832 ] } },
{ "type": "Feature", "properties": { "内容": "医療法人すこやか【通所リハビリテーション】徳島県徳島市大原町千代ヶ丸山30番20", "url": "https://www.kaigokensaku.mhlw.go.jp/36/index.php?action_kouhyou_detail_004_kani=true&JigyosyoCd=3610127502-00&ServiceCd=160&Type=search", "url2": "https://hayashi-hosp.com" }, "geometry": { "type": "Point", "coordinates": [ 134.5670926, 34.0224256 ] } },
{ "type": "Feature", "properties": { "内容": "老人保健施設ユート【通所リハビリテーション】徳島県徳島市八万町大野5-1", "url": "https://www.kaigokensaku.mhlw.go.jp/36/index.php?action_kouhyou_detail_004_kani=true&JigyosyoCd=3650180189-00&ServiceCd=160&Type=search", "url2": "http://www.keirou-medical.jp/youto/" }, "geometry": { "type": "Point", "coordinates": [ 134.549713699999984, 34.0434282 ] } },
{ "type": "Feature", "properties": { "内容": "デイケア　すずらん【通所リハビリテーション】徳島県徳島市中島田町3丁目64番地", "url": "https://www.kaigokensaku.mhlw.go.jp/36/index.php?action_kouhyou_detail_004_kani=true&JigyosyoCd=3610125480-00&ServiceCd=160&Type=search", "url2": "http://www.nijinohashi.net/" }, "geometry": { "type": "Point", "coordinates": [ 134.509937538484223, 34.084026741293513 ] } },
{ "type": "Feature", "properties": { "内容": "医療法人慈成会寺沢病院通所リハビリテーション【通所リハビリテーション】徳島県徳島市津田西町１丁目２番３０号", "url": "https://www.kaigokensaku.mhlw.go.jp/36/index.php?action_kouhyou_detail_004_kani=true&JigyosyoCd=3610123675-00&ServiceCd=160&Type=search", "url2": "http://www.terasawa.or.jp" }, "geometry": { "type": "Point", "coordinates": [ 134.5766582, 34.0516834 ] } },
{ "type": "Feature", "properties": { "内容": "東洋病院【通所リハビリテーション】徳島市北島田町1丁目160-2", "url": "https://www.kaigokensaku.mhlw.go.jp/36/index.php?action_kouhyou_detail_004_kani=true&JigyosyoCd=3610125340-00&ServiceCd=160&Type=search", "url2": "http://www.toyohosp.jp/" }, "geometry": { "type": "Point", "coordinates": [ 134.515755200000058, 34.0896084 ] } },
{ "type": "Feature", "properties": { "内容": "清寿園　通所リハビリテーション事業所【通所リハビリテーション】徳島県徳島市八万町橋本92-1", "url": "https://www.kaigokensaku.mhlw.go.jp/36/index.php?action_kouhyou_detail_004_kani=true&JigyosyoCd=3650180080-00&ServiceCd=160&Type=search", "url2": "http://kyouristuhp.or.jp" }, "geometry": { "type": "Point", "coordinates": [ 134.531267325946942, 34.043185394317234 ] } },
{ "type": "Feature", "properties": { "内容": "すだちの園通所リハビリテーション【通所リハビリテーション】徳島県徳島市丈六町２５番地", "url": "https://www.kaigokensaku.mhlw.go.jp/36/index.php?action_kouhyou_detail_004_kani=true&JigyosyoCd=3650180197-00&ServiceCd=160&Type=search", "url2": "http://www.jonanh.com/sudachi/" }, "geometry": { "type": "Point", "coordinates": [ 134.54254549999996, 34.0061331 ] } },
{ "type": "Feature", "properties": { "内容": "むくの木クリニック【通所リハビリテーション】徳島県徳島市国府町東高輪353番地の1", "url": "https://www.kaigokensaku.mhlw.go.jp/36/index.php?action_kouhyou_detail_004_kani=true&JigyosyoCd=3610127072-00&ServiceCd=160&Type=search", "url2": "http://mukunoki.or.jp" }, "geometry": { "type": "Point", "coordinates": [ 134.482111199999963, 34.0890486 ] } },
{ "type": "Feature", "properties": { "内容": "リハビリテーション大神子病院【通所リハビリテーション】徳島県徳島市大原町余慶1番1", "url": "https://www.kaigokensaku.mhlw.go.jp/36/index.php?action_kouhyou_detail_004_kani=true&JigyosyoCd=3610127734-00&ServiceCd=160&Type=search", "url2": "https://www.doushisya.jp/oomiko/" }, "geometry": { "type": "Point", "coordinates": [ 134.5721686, 34.0273085 ] } },
{ "type": "Feature", "properties": { "内容": "リハビリテーション大神子病院付属大原クリニック【通所リハビリテーション】徳島県徳島市大原町余慶1番1", "url": "https://www.kaigokensaku.mhlw.go.jp/36/index.php?action_kouhyou_detail_004_kani=true&JigyosyoCd=3610127510-00&ServiceCd=160&Type=search", "url2": "https://www.doushisya.jp/" }, "geometry": { "type": "Point", "coordinates": [ 134.571751146557659, 34.02596629786261 ] } },
{ "type": "Feature", "properties": { "内容": "介護老人保健施設エルダリーガーデン【通所リハビリテーション】徳島県徳島市南庄町4丁目60番地2", "url": "https://www.kaigokensaku.mhlw.go.jp/36/index.php?action_kouhyou_detail_004_kani=true&JigyosyoCd=3650180163-00&ServiceCd=160&Type=search", "url2": "https://www.matsunaga-hp.jp/elderlygarden/" }, "geometry": { "type": "Point", "coordinates": [ 134.508234099999981, 34.072277 ] } },
{ "type": "Feature", "properties": { "内容": "通所リハビリテーション　眉山のマホロバ【通所リハビリテーション】西二軒屋町２丁目３９－２", "url": "https://www.kaigokensaku.mhlw.go.jp/36/index.php?action_kouhyou_detail_004_kani=true&JigyosyoCd=3610124392-00&ServiceCd=160&Type=search", "url2": "http://www.bizan-hp.jp" }, "geometry": { "type": "Point", "coordinates": [ 134.5438421, 34.0590627 ] } },
{ "type": "Feature", "properties": { "内容": "介護老人保健施設　国府リハビリテーションフェニックス【通所リハビリテーション】徳島市国府町井戸字左ヶ池３９番地1", "url": "https://www.kaigokensaku.mhlw.go.jp/36/index.php?action_kouhyou_detail_004_kani=true&JigyosyoCd=3650180296-00&ServiceCd=160&Type=search", "url2": "https://tamaki-aozora.ne.jp/phoenix" }, "geometry": { "type": "Point", "coordinates": [ 134.483653, 34.0882161 ] } },
{ "type": "Feature", "properties": { "内容": "医療法人　明和会　たまき青空病院【通所リハビリテーション】徳島県徳島市国府町早淵字北カシヤ56番地1", "url": "https://www.kaigokensaku.mhlw.go.jp/36/index.php?action_kouhyou_detail_004_kani=true&JigyosyoCd=3610125456-00&ServiceCd=160&Type=search", "url2": "https://tamaki-aozora.ne.jp/" }, "geometry": { "type": "Point", "coordinates": [ 134.485970800000018, 34.0723045 ] } },
{ "type": "Feature", "properties": { "内容": "たかすぎないかげかしょうにかのうげか【通所リハビリテーション】徳島市国府町芝原字天満25-1", "url": "https://www.kaigokensaku.mhlw.go.jp/36/index.php?action_kouhyou_detail_004_kani=true&JigyosyoCd=3610117198-00&ServiceCd=160&Type=search", "url2": "http://www.tk2.nmt.ne.jp/~takasugihosp/" }, "geometry": { "type": "Point", "coordinates": [ 134.463496500000019, 34.0995592 ] } },
{ "type": "Feature", "properties": { "内容": "徳島健生病院【通所リハビリテーション】下助任町4丁目9", "url": "https://www.kaigokensaku.mhlw.go.jp/36/index.php?action_kouhyou_detail_004_kani=true&JigyosyoCd=3610123808-00&ServiceCd=160&Type=search", "url2": "http://kenkou-seikyou.com" }, "geometry": { "type": "Point", "coordinates": [ 134.549657799999977, 34.0826908 ] } },
{ "type": "Feature", "properties": { "内容": "やましろクリニック【通所リハビリテーション】徳島県徳島市山城西4丁目47番地", "url": "https://www.kaigokensaku.mhlw.go.jp/36/index.php?action_kouhyou_detail_004_kani=true&JigyosyoCd=3610127627-00&ServiceCd=160&Type=search", "url2": "https://shikoku-ms.com/yamashiro_clinic/" }, "geometry": { "type": "Point", "coordinates": [ 134.5538043, 34.0471535 ] } },
{ "type": "Feature", "properties": { "内容": "城東整形外科内科通所リハビリテーション【通所リハビリテーション】徳島県徳島市福島1丁目6番58号", "url": "https://www.kaigokensaku.mhlw.go.jp/36/index.php?action_kouhyou_detail_004_kani=true&JigyosyoCd=3610125019-00&ServiceCd=160&Type=search", "url2": "joto-geka.jp/" }, "geometry": { "type": "Point", "coordinates": [ 134.564232030024726, 34.071262571440279 ] } },
{ "type": "Feature", "properties": { "内容": "TAOKA通所リハビリセンター万代【通所リハビリテーション】徳島県徳島市万代町4丁目2番地2", "url": "https://www.kaigokensaku.mhlw.go.jp/36/index.php?action_kouhyou_detail_004_kani=true&JigyosyoCd=3610125449-00&ServiceCd=160&Type=search", "url2": "http://www.taoka.or.jp/taoka/" }, "geometry": { "type": "Point", "coordinates": [ 134.563584699999979, 34.0656763 ] } },
{ "type": "Feature", "properties": { "内容": "医療法人愛生会　兼松病院【通所リハビリテーション】徳島県鳴門市撫養町斎田字大堤54番地", "url": "https://www.kaigokensaku.mhlw.go.jp/36/index.php?action_kouhyou_detail_004_kani=true&JigyosyoCd=3610210043-00&ServiceCd=160&Type=search", "url2": "http://www.kanematsu-hp.com" }, "geometry": { "type": "Point", "coordinates": [ 134.6048336, 34.1769422 ] } },
{ "type": "Feature", "properties": { "内容": "介護老人保健施設　陽だまり苑　通所リハビリテーション事業所【通所リハビリテーション】徳島県鳴門市大津町矢倉字四ノ越５番", "url": "https://www.kaigokensaku.mhlw.go.jp/36/index.php?action_kouhyou_detail_004_kani=true&JigyosyoCd=3650280211-00&ServiceCd=160&Type=search", "url2": "http://shinsei-kai.com/hidamarien/index.html" }, "geometry": { "type": "Point", "coordinates": [ 134.590044199999966, 34.1519054 ] } },
{ "type": "Feature", "properties": { "内容": "さいとうせいけいげかつうしょりはびりてーしょん【通所リハビリテーション】徳島県鳴門市撫養町小桑島字前浜217", "url": "https://www.kaigokensaku.mhlw.go.jp/36/index.php?action_kouhyou_detail_004_kani=true&JigyosyoCd=3610213005-00&ServiceCd=160&Type=search", "url2": "http://saitou-seikei-clinic.jp/" }, "geometry": { "type": "Point", "coordinates": [ 134.607557899999989, 34.1806655 ] } },
{ "type": "Feature", "properties": { "内容": "医療法人　吉田整形外科【通所リハビリテーション】徳島県鳴門市大津町木津野字前の越4－1", "url": "https://www.kaigokensaku.mhlw.go.jp/36/index.php?action_kouhyou_detail_004_kani=true&JigyosyoCd=3610213070-00&ServiceCd=160&Type=search", "url2": "http://yoshidaseikei.jp/" }, "geometry": { "type": "Point", "coordinates": [ 134.586714, 34.166051300000014 ] } },
{ "type": "Feature", "properties": { "内容": "小川病院【通所リハビリテーション】徳島県鳴門市撫養町斎田字北浜99", "url": "https://www.kaigokensaku.mhlw.go.jp/36/index.php?action_kouhyou_detail_004_kani=true&JigyosyoCd=3610210126-00&ServiceCd=160&Type=search", "url2": "http://www.ogawa-hp.jp" }, "geometry": { "type": "Point", "coordinates": [ 134.604491899999971, 34.1794146 ] } },
{ "type": "Feature", "properties": { "内容": "佐藤整形外科通所リハビリテーション【通所リハビリテーション】徳島県鳴門市撫養町南浜字東浜265番地", "url": "https://www.kaigokensaku.mhlw.go.jp/36/index.php?action_kouhyou_detail_004_kani=true&JigyosyoCd=3610210472-00&ServiceCd=160&Type=search", "url2": null }, "geometry": { "type": "Point", "coordinates": [ 134.608943864418052, 34.174973071865125 ] } },
{ "type": "Feature", "properties": { "内容": "大鳴門シルバーハイツ【通所リハビリテーション】徳島県鳴門市鳴門町土佐泊浦字高砂50番地3", "url": "https://www.kaigokensaku.mhlw.go.jp/36/index.php?action_kouhyou_detail_004_kani=true&JigyosyoCd=3650280047-00&ServiceCd=160&Type=search", "url2": "https://silverheights.jp" }, "geometry": { "type": "Point", "coordinates": [ 134.6242523, 34.1933924 ] } },
{ "type": "Feature", "properties": { "内容": "原田内科【通所リハビリテーション】徳島県鳴門市大津町矢倉字六の越5番地９", "url": "https://www.kaigokensaku.mhlw.go.jp/36/index.php?action_kouhyou_detail_004_kani=true&JigyosyoCd=3610210464-00&ServiceCd=160&Type=search", "url2": "http://www.harada-cl.or.jp" }, "geometry": { "type": "Point", "coordinates": [ 134.592561301862219, 34.152214688121475 ] } },
{ "type": "Feature", "properties": { "内容": "鳴山荘通所リハビリテーションセンター「ステップ」【通所リハビリテーション】徳島県鳴門市鳴門町土佐泊浦字高砂205番地29", "url": "https://www.kaigokensaku.mhlw.go.jp/36/index.php?action_kouhyou_detail_004_kani=true&JigyosyoCd=3650280013-00&ServiceCd=160&Type=search", "url2": "https://kyujinkai-mc.or.jp" }, "geometry": { "type": "Point", "coordinates": [ 134.625550100000027, 34.2056747 ] } },
{ "type": "Feature", "properties": { "内容": "介護老人保健施設みどりの里【通所リハビリテーション】徳島県鳴門市鳴門町三ツ石字江尻山91番地", "url": "https://www.kaigokensaku.mhlw.go.jp/36/index.php?action_kouhyou_detail_004_kani=true&JigyosyoCd=3650280260-00&ServiceCd=160&Type=search", "url2": "http://www.midorinosato.jp" }, "geometry": { "type": "Point", "coordinates": [ 134.605136300000026, 34.1980255 ] } },
{ "type": "Feature", "properties": { "内容": "岩朝病院【通所リハビリテーション】鳴門市撫養町立岩字元地２８０番地", "url": "https://www.kaigokensaku.mhlw.go.jp/36/index.php?action_kouhyou_detail_004_kani=true&JigyosyoCd=3610210092-00&ServiceCd=160&Type=search", "url2": "https://www.iwasa-hp.or.jp" }, "geometry": { "type": "Point", "coordinates": [ 134.6181556, 34.1741498 ] } },
{ "type": "Feature", "properties": { "内容": "ふじのクリニック介護医療院　たんぽぽ通所リハビリテーションセンター【通所リハビリテーション】徳島県小松島市坂野町字平田１８番地の4", "url": "https://www.kaigokensaku.mhlw.go.jp/36/index.php?action_kouhyou_detail_004_kani=true&JigyosyoCd=36B0310502-00&ServiceCd=160&Type=search", "url2": "http://fujino.ezdns.jp/" }, "geometry": { "type": "Point", "coordinates": [ 134.6330763, 33.9808015 ] } },
{ "type": "Feature", "properties": { "内容": "医療法人成悠会介護老人保健施設ゆうゆう荘【通所リハビリテーション】徳島県小松島市中田町字狭間47", "url": "https://www.kaigokensaku.mhlw.go.jp/36/index.php?action_kouhyou_detail_004_kani=true&JigyosyoCd=3650380094-00&ServiceCd=160&Type=search", "url2": "http://tenma-hpg.com/" }, "geometry": { "type": "Point", "coordinates": [ 134.5704121, 34.0151517 ] } },
{ "type": "Feature", "properties": { "内容": "徳島ロイヤル病院デイケアセンター【通所リハビリテーション】徳島県小松島市中田町字新開４８番地", "url": "https://www.kaigokensaku.mhlw.go.jp/36/index.php?action_kouhyou_detail_004_kani=true&JigyosyoCd=3610311296-00&ServiceCd=160&Type=search", "url2": "http://www13.plala.or.jp/royal-hp/" }, "geometry": { "type": "Point", "coordinates": [ 134.5835458, 34.0132618 ] } },
{ "type": "Feature", "properties": { "内容": "医療法人栄寿会小松島名月苑通所リハビリテーション【通所リハビリテーション】徳島県小松島市中田町字狭間47番地", "url": "https://www.kaigokensaku.mhlw.go.jp/36/index.php?action_kouhyou_detail_004_kani=true&JigyosyoCd=3650380011-00&ServiceCd=160&Type=search", "url2": "http://tenma-hpg.com" }, "geometry": { "type": "Point", "coordinates": [ 134.5705882, 34.0150962 ] } },
{ "type": "Feature", "properties": { "内容": "ふじのクリニック介護医療院たんぽぽ通所リハビリテーションセンター【通所リハビリテーション】徳島県小松島市坂野町字平田18番地4", "url": "https://www.kaigokensaku.mhlw.go.jp/36/index.php?action_kouhyou_detail_004_kani=true&JigyosyoCd=36B0311310-00&ServiceCd=160&Type=search", "url2": "http://fujino.ezdns.jp/" }, "geometry": { "type": "Point", "coordinates": [ 134.6334325, 33.9807524 ] } },
{ "type": "Feature", "properties": { "内容": "ライフ慈友館通所リハビリテーション【通所リハビリテーション】徳島県小松島市赤石町13番24号", "url": "https://www.kaigokensaku.mhlw.go.jp/36/index.php?action_kouhyou_detail_004_kani=true&JigyosyoCd=3650380318-00&ServiceCd=160&Type=search", "url2": "http://jiyukai.jp/" }, "geometry": { "type": "Point", "coordinates": [ 134.61103490000005, 33.9793151 ] } },
{ "type": "Feature", "properties": { "内容": "江藤病院【通所リハビリテーション】徳島県小松島市大林町北浦21番地1", "url": "https://www.kaigokensaku.mhlw.go.jp/36/index.php?action_kouhyou_detail_004_kani=true&JigyosyoCd=3610311254-00&ServiceCd=160&Type=search", "url2": "http://etouhp.com" }, "geometry": { "type": "Point", "coordinates": [ 134.619856874729948, 33.976599818143249 ] } },
{ "type": "Feature", "properties": { "内容": "介護老人保健施設　明和苑　通所リハビリ【通所リハビリテーション】徳島県小松島市和田島町字浜塚108-3", "url": "https://www.kaigokensaku.mhlw.go.jp/36/index.php?action_kouhyou_detail_004_kani=true&JigyosyoCd=3650380243-00&ServiceCd=160&Type=search", "url2": "https://meiwaen.rouken.jp" }, "geometry": { "type": "Point", "coordinates": [ 134.635562100000016, 33.9929827 ] } },
{ "type": "Feature", "properties": { "内容": "小松島病院【通所リハビリテーション】徳島県小松島市田浦町字近里83-11", "url": "https://www.kaigokensaku.mhlw.go.jp/36/index.php?action_kouhyou_detail_004_kani=true&JigyosyoCd=3610310108-00&ServiceCd=160&Type=search", "url2": "komatsushimahp.jp" }, "geometry": { "type": "Point", "coordinates": [ 134.568662600000039, 34.003245 ] } },
{ "type": "Feature", "properties": { "内容": "小松島リハビリテーションクリニック【通所リハビリテーション】徳島県小松島市日開野町字宮免2-1", "url": "https://www.kaigokensaku.mhlw.go.jp/36/index.php?action_kouhyou_detail_004_kani=true&JigyosyoCd=3610310553-00&ServiceCd=160&Type=search", "url2": "https://komatsushimahp.jp/小松島リハビリテーションクリニック" }, "geometry": { "type": "Point", "coordinates": [ 134.571023500000024, 34.0020785 ] } },
{ "type": "Feature", "properties": { "内容": "さいとう整形外科クリニックデイケア【通所リハビリテーション】徳島県小松島市中田町土持21-25", "url": "https://www.kaigokensaku.mhlw.go.jp/36/index.php?action_kouhyou_detail_004_kani=true&JigyosyoCd=3610310652-00&ServiceCd=160&Type=search", "url2": "http://saito-seikei.net/" }, "geometry": { "type": "Point", "coordinates": [ 134.5686574, 34.0183389 ] } },
{ "type": "Feature", "properties": { "内容": "医療法人　翠松会　岩城クリニック　通所リハビリテーション【通所リハビリテーション】徳島県阿南市学原町上水田11番地1", "url": "https://www.kaigokensaku.mhlw.go.jp/36/index.php?action_kouhyou_detail_004_kani=true&JigyosyoCd=3610413092-00&ServiceCd=160&Type=search", "url2": "http://www.iwaki-clinic.jp/" }, "geometry": { "type": "Point", "coordinates": [ 134.665047420237698, 33.913133215287445 ] } },
{ "type": "Feature", "properties": { "内容": "老人保健施設悠心館【通所リハビリテーション】徳島県阿南市新野町信里6-1", "url": "https://www.kaigokensaku.mhlw.go.jp/36/index.php?action_kouhyou_detail_004_kani=true&JigyosyoCd=3650480274-00&ServiceCd=160&Type=search", "url2": "https://maharahospital.jp/" }, "geometry": { "type": "Point", "coordinates": [ 134.59954730000004, 33.8469681 ] } },
{ "type": "Feature", "properties": { "内容": "介護老人保健施設阿南名月苑通所リハビリテーション【通所リハビリテーション】徳島県阿南市上中町南島325-1介護老人保健施設阿南名月苑", "url": "https://www.kaigokensaku.mhlw.go.jp/36/index.php?action_kouhyou_detail_004_kani=true&JigyosyoCd=3650480001-00&ServiceCd=160&Type=search", "url2": "http://tenma-hpg.com/kaigo/ananmeigetsuen/" }, "geometry": { "type": "Point", "coordinates": [ 134.624049499999956, 33.937041 ] } },
{ "type": "Feature", "properties": { "内容": "介護老人保健施設　ロイヤルケアセンター【通所リハビリテーション】徳島県阿南市羽ノ浦町中庄池ノ上55-1", "url": "https://www.kaigokensaku.mhlw.go.jp/36/index.php?action_kouhyou_detail_004_kani=true&JigyosyoCd=3651380440-00&ServiceCd=160&Type=search", "url2": "http://www.royal-carecenter.main.jp/" }, "geometry": { "type": "Point", "coordinates": [ 134.635611695387297, 33.957899056905283 ] } },
{ "type": "Feature", "properties": { "内容": "介護老人保健施設　長寿園【通所リハビリテーション】徳島県吉野川市鴨島町内原４３２", "url": "https://www.kaigokensaku.mhlw.go.jp/36/index.php?action_kouhyou_detail_004_kani=true&JigyosyoCd=3651780144-00&ServiceCd=160&Type=search", "url2": "http://kamojima.t-group.net" }, "geometry": { "type": "Point", "coordinates": [ 134.3674972, 34.0697656 ] } },
{ "type": "Feature", "properties": { "内容": "介護老人保健施設リハビリセンターのぞみ【通所リハビリテーション】徳島県吉野川市山川町祇園41-5", "url": "https://www.kaigokensaku.mhlw.go.jp/36/index.php?action_kouhyou_detail_004_kani=true&JigyosyoCd=3651780151-00&ServiceCd=160&Type=search", "url2": "https://miki-rehabili.jp" }, "geometry": { "type": "Point", "coordinates": [ 134.249028299999964, 34.05664 ] } },
{ "type": "Feature", "properties": { "内容": "鴨島病院【通所リハビリテーション】徳島県吉野川市鴨島町内原432番地", "url": "https://www.kaigokensaku.mhlw.go.jp/36/index.php?action_kouhyou_detail_004_kani=true&JigyosyoCd=3611710116-00&ServiceCd=160&Type=search", "url2": "http://kamojima.t-group.net" }, "geometry": { "type": "Point", "coordinates": [ 134.3674972, 34.0697656 ] } },
{ "type": "Feature", "properties": { "内容": "老人保健施設　健祥会ウェル　吉野川リハビリセンター【通所リハビリテーション】徳島県吉野川市川島町川島114番地3", "url": "https://www.kaigokensaku.mhlw.go.jp/36/index.php?action_kouhyou_detail_004_kani=true&JigyosyoCd=3651780052-00&ServiceCd=160&Type=search", "url2": "https://www.kenshokai.group/" }, "geometry": { "type": "Point", "coordinates": [ 134.324674, 34.0594571 ] } },
{ "type": "Feature", "properties": { "内容": "デイケアセンターみま【通所リハビリテーション】徳島県吉野川市鴨島町上下島４９７", "url": "https://www.kaigokensaku.mhlw.go.jp/36/index.php?action_kouhyou_detail_004_kani=true&JigyosyoCd=36B1710031-00&ServiceCd=160&Type=search", "url2": "http://www/mima-gr.jp/" }, "geometry": { "type": "Point", "coordinates": [ 134.349354299999987, 34.0710949 ] } },
{ "type": "Feature", "properties": { "内容": "さくら診療所通所リハビリテーション【通所リハビリテーション】徳島県吉野川市山川町前川212-6", "url": "https://www.kaigokensaku.mhlw.go.jp/36/index.php?action_kouhyou_detail_004_kani=true&JigyosyoCd=3611713136-00&ServiceCd=160&Type=search", "url2": null }, "geometry": { "type": "Point", "coordinates": [ 134.239450848666934, 34.056832274483234 ] } },
{ "type": "Feature", "properties": { "内容": "鈴木内科通所リハビリテーション【通所リハビリテーション】徳島県吉野川市鴨島町敷地15番地7メディカルホームしきじ", "url": "https://www.kaigokensaku.mhlw.go.jp/36/index.php?action_kouhyou_detail_004_kani=true&JigyosyoCd=3611710389-00&ServiceCd=160&Type=search", "url2": "http://suzukinaika.net/" }, "geometry": { "type": "Point", "coordinates": [ 134.347829199999978, 34.061358 ] } },
{ "type": "Feature", "properties": { "内容": "笠井病院デイケアセンター【通所リハビリテーション】徳島県阿波市阿波町元町１４", "url": "https://www.kaigokensaku.mhlw.go.jp/36/index.php?action_kouhyou_detail_004_kani=true&JigyosyoCd=3611610035-00&ServiceCd=160&Type=search", "url2": "htty://homepage2.nifty.com/dckenn/kasai_hospital" }, "geometry": { "type": "Point", "coordinates": [ 134.238748100000066, 34.0762792 ] } },
{ "type": "Feature", "properties": { "内容": "介護老人保健施設しょうか苑【通所リハビリテーション】徳島県阿波市土成町吉田字原田市ノ三６０番地１", "url": "https://www.kaigokensaku.mhlw.go.jp/36/index.php?action_kouhyou_detail_004_kani=true&JigyosyoCd=3651580361-00&ServiceCd=160&Type=search", "url2": "https://youaijitsu.com" }, "geometry": { "type": "Point", "coordinates": [ 134.346043099999946, 34.1089304 ] } },
{ "type": "Feature", "properties": { "内容": "中山医院【通所リハビリテーション】徳島県阿波市吉野町柿原字ノタ原４２", "url": "https://www.kaigokensaku.mhlw.go.jp/36/index.php?action_kouhyou_detail_004_kani=true&JigyosyoCd=3611612106-00&ServiceCd=160&Type=search", "url2": null }, "geometry": { "type": "Point", "coordinates": [ 134.36369179999997, 34.1055779 ] } },
{ "type": "Feature", "properties": { "内容": "医療法人　芳越会　介護老人保健施設　リブイン・クローバー【通所リハビリテーション】徳島県阿波市市場町市場町筋172番地－1", "url": "https://www.kaigokensaku.mhlw.go.jp/36/index.php?action_kouhyou_detail_004_kani=true&JigyosyoCd=3651680013-00&ServiceCd=160&Type=search", "url2": "http：／／www.houetsu-hospital.jp／" }, "geometry": { "type": "Point", "coordinates": [ 134.2819836, 34.0946739 ] } },
{ "type": "Feature", "properties": { "内容": "岡内科病院【通所リハビリテーション】徳島県美馬市脇町字拝原１４９６番地５", "url": "https://www.kaigokensaku.mhlw.go.jp/36/index.php?action_kouhyou_detail_004_kani=true&JigyosyoCd=3610510053-00&ServiceCd=160&Type=search", "url2": null }, "geometry": { "type": "Point", "coordinates": [ 134.1661527, 34.0666602 ] } },
{ "type": "Feature", "properties": { "内容": "成田病院【通所リハビリテーション】徳島県美馬市脇町字拝原2576番地", "url": "https://www.kaigokensaku.mhlw.go.jp/36/index.php?action_kouhyou_detail_004_kani=true&JigyosyoCd=3610510087-00&ServiceCd=160&Type=search", "url2": "http://www.fujinokai.net" }, "geometry": { "type": "Point", "coordinates": [ 134.175362700000051, 34.0650076 ] } },
{ "type": "Feature", "properties": { "内容": "介護老人保健施設　恵愛荘【通所リハビリテーション】徳島県美馬市美馬町字宗ノ分39-1", "url": "https://www.kaigokensaku.mhlw.go.jp/36/index.php?action_kouhyou_detail_004_kani=true&JigyosyoCd=3651880472-00&ServiceCd=160&Type=search", "url2": "https://keiaikai.crayonsite.info" }, "geometry": { "type": "Point", "coordinates": [ 134.032867500000037, 34.049380700000022 ] } },
{ "type": "Feature", "properties": { "内容": "介護老人保健施設　センターヴィレッジ【通所リハビリテーション】徳島県美馬市脇町字拝原1354番地5", "url": "https://www.kaigokensaku.mhlw.go.jp/36/index.php?action_kouhyou_detail_004_kani=true&JigyosyoCd=3650580016-00&ServiceCd=160&Type=search", "url2": "https:www.kenshokai.group/" }, "geometry": { "type": "Point", "coordinates": [ 134.1656117, 34.0709599 ] } },
{ "type": "Feature", "properties": { "内容": "社会医療法人　芳越会　ホウエツ病院【通所リハビリテーション】徳島県美馬市脇町大字猪尻八幡神社下南130-3", "url": "https://www.kaigokensaku.mhlw.go.jp/36/index.php?action_kouhyou_detail_004_kani=true&JigyosyoCd=3610510061-00&ServiceCd=160&Type=search", "url2": "www.houetsu.com" }, "geometry": { "type": "Point", "coordinates": [ 134.156487199999987, 34.0639938 ] } },
{ "type": "Feature", "properties": { "内容": "社会医療法人　芳越会　林クリニック【通所リハビリテーション】徳島県美馬市脇町大字脇町３４０", "url": "https://www.kaigokensaku.mhlw.go.jp/36/index.php?action_kouhyou_detail_004_kani=true&JigyosyoCd=3610510624-00&ServiceCd=160&Type=search", "url2": "h-ttp://www.houetsu.com/clinic" }, "geometry": { "type": "Point", "coordinates": [ 134.1479597, 34.070161700000035 ] } },
{ "type": "Feature", "properties": { "内容": "老人保健施設健祥会ヘルス【通所リハビリテーション】徳島県美馬市穴吹町三島字舞中島2021番地", "url": "https://www.kaigokensaku.mhlw.go.jp/36/index.php?action_kouhyou_detail_004_kani=true&JigyosyoCd=3651880258-00&ServiceCd=160&Type=search", "url2": "https://www.kenshokai.group/" }, "geometry": { "type": "Point", "coordinates": [ 134.139442, 34.0559837 ] } },
{ "type": "Feature", "properties": { "内容": "サンクリニック【通所リハビリテーション】徳島県美馬市美馬町字南荒川71番地", "url": "https://www.kaigokensaku.mhlw.go.jp/36/index.php?action_kouhyou_detail_004_kani=true&JigyosyoCd=3610510665-00&ServiceCd=160&Type=search", "url2": "shishikai.or.jp" }, "geometry": { "type": "Point", "coordinates": [ 134.0393273, 34.0494879 ] } },
{ "type": "Feature", "properties": { "内容": "北條病院【通所リハビリテーション】徳島県三好市池田町マチ2526-7", "url": "https://www.kaigokensaku.mhlw.go.jp/36/index.php?action_kouhyou_detail_004_kani=true&JigyosyoCd=3610610051-00&ServiceCd=160&Type=search", "url2": "hojyo-hp.com" }, "geometry": { "type": "Point", "coordinates": [ 133.804522099999986, 34.0290157 ] } },
{ "type": "Feature", "properties": { "内容": "医療法人田岡会　老人保健施設すこやか【通所リハビリテーション】徳島県三好市池田町シマ927-2", "url": "https://www.kaigokensaku.mhlw.go.jp/36/index.php?action_kouhyou_detail_004_kani=true&JigyosyoCd=3650680014-00&ServiceCd=160&Type=search", "url2": null }, "geometry": { "type": "Point", "coordinates": [ 133.815873, 34.0284031 ] } },
{ "type": "Feature", "properties": { "内容": "介護老人保健施設ハピネス【通所リハビリテーション】徳島県三好市池田町中西西原209-1", "url": "https://www.kaigokensaku.mhlw.go.jp/36/index.php?action_kouhyou_detail_004_kani=true&JigyosyoCd=3651980124-00&ServiceCd=160&Type=search", "url2": "https://uchida-kai.jp/kaigo-homes/happness/" }, "geometry": { "type": "Point", "coordinates": [ 133.7867579, 34.0090121 ] } },
{ "type": "Feature", "properties": { "内容": "医療法人　三野田中病院【通所リハビリテーション】徳島県三好市三野町芝生１２４２番地６", "url": "https://www.kaigokensaku.mhlw.go.jp/36/index.php?action_kouhyou_detail_004_kani=true&JigyosyoCd=3610610069-00&ServiceCd=160&Type=search", "url2": "http://www.tanakahospital.or.jp/" }, "geometry": { "type": "Point", "coordinates": [ 133.96647669999993, 34.0425132 ] } },
{ "type": "Feature", "properties": { "内容": "健生西部診療所通所リハビリテーション【通所リハビリテーション】徳島県三好市井川町吉岡127-2", "url": "https://www.kaigokensaku.mhlw.go.jp/36/index.php?action_kouhyou_detail_004_kani=true&JigyosyoCd=3610610523-00&ServiceCd=160&Type=search", "url2": null }, "geometry": { "type": "Point", "coordinates": [ 133.864143300000023, 34.0309085 ] } },
{ "type": "Feature", "properties": { "内容": "国民健康保険勝浦病院【通所リハビリテーション】徳島県勝浦郡勝浦町大字棚野字鴻畑１３番地２", "url": "https://www.kaigokensaku.mhlw.go.jp/36/index.php?action_kouhyou_detail_004_kani=true&JigyosyoCd=3611010012-00&ServiceCd=160&Type=search", "url2": "http://www.town.katsuura.lg.jp/hospital/" }, "geometry": { "type": "Point", "coordinates": [ 138.252924, 36.204824 ] } },
{ "type": "Feature", "properties": { "内容": "医療法人石岡整形外科　通所リハビリテーション【通所リハビリテーション】徳島県名西郡石井町高川原字桜間215番地", "url": "https://www.kaigokensaku.mhlw.go.jp/36/index.php?action_kouhyou_detail_004_kani=true&JigyosyoCd=3611213053-00&ServiceCd=160&Type=search", "url2": "http://ishioka-seikei-ishii.or.jp/" }, "geometry": { "type": "Point", "coordinates": [ 134.460921, 34.085002 ] } },
{ "type": "Feature", "properties": { "内容": "健生石井クリニック【通所リハビリテーション】徳島県名西郡石井町高川原字高川原2155番", "url": "https://www.kaigokensaku.mhlw.go.jp/36/index.php?action_kouhyou_detail_004_kani=true&JigyosyoCd=3611213038-00&ServiceCd=160&Type=search", "url2": "http://kensei-ishii.jp" }, "geometry": { "type": "Point", "coordinates": [ 134.446509099999957, 34.0810809 ] } },
{ "type": "Feature", "properties": { "内容": "デイケア　ミハス【通所リハビリテーション】徳島県名西郡石井町石井字石井231-1石井虹の橋クリニック2階", "url": "https://www.kaigokensaku.mhlw.go.jp/36/index.php?action_kouhyou_detail_004_kani=true&JigyosyoCd=3611213061-00&ServiceCd=160&Type=search", "url2": "http://ishii:nijinohashi.net/daycare/" }, "geometry": { "type": "Point", "coordinates": [ 134.437916582139565, 34.067181600569633 ] } },
{ "type": "Feature", "properties": { "内容": "喜久寿苑【通所リハビリテーション】徳島県名西郡石井町高原字桑島561－1", "url": "https://www.kaigokensaku.mhlw.go.jp/36/index.php?action_kouhyou_detail_004_kani=true&JigyosyoCd=3651280020-00&ServiceCd=160&Type=search", "url2": null }, "geometry": { "type": "Point", "coordinates": [ 134.426638700000012, 34.0890827 ] } },
{ "type": "Feature", "properties": { "内容": "通所リハビリテーションかじかの郷【通所リハビリテーション】徳島県名西郡神山町神領西野間２３－１", "url": "https://www.kaigokensaku.mhlw.go.jp/36/index.php?action_kouhyou_detail_004_kani=true&JigyosyoCd=3651280467-00&ServiceCd=160&Type=search", "url2": null }, "geometry": { "type": "Point", "coordinates": [ 134.348097100000018, 33.9667937 ] } },
{ "type": "Feature", "properties": { "内容": "那賀町国民健康保険日野谷診療所【通所リハビリテーション】徳島県那賀郡那賀町大久保字大西3-2", "url": "https://www.kaigokensaku.mhlw.go.jp/36/index.php?action_kouhyou_detail_004_kani=true&JigyosyoCd=3611312574-00&ServiceCd=160&Type=search", "url2": null }, "geometry": { "type": "Point", "coordinates": [ 134.443800799999963, 33.7915458 ] } },
{ "type": "Feature", "properties": { "内容": "介護老人保健施設和楽【通所リハビリテーション】徳島県海部郡牟岐町大字川長字山戸３０番地", "url": "https://www.kaigokensaku.mhlw.go.jp/36/index.php?action_kouhyou_detail_004_kani=true&JigyosyoCd=3651480430-00&ServiceCd=160&Type=search", "url2": "http://www.heartfulcare.jp/" }, "geometry": { "type": "Point", "coordinates": [ 134.423851593254085, 33.674853021280931 ] } },
{ "type": "Feature", "properties": { "内容": "デイケアたんまえ【通所リハビリテーション】徳島県海部郡美波町西河内字丹前102番地2", "url": "https://www.kaigokensaku.mhlw.go.jp/36/index.php?action_kouhyou_detail_004_kani=true&JigyosyoCd=3611410501-00&ServiceCd=160&Type=search", "url2": null }, "geometry": { "type": "Point", "coordinates": [ 134.518070399999942, 33.7331561 ] } },
{ "type": "Feature", "properties": { "内容": "医療法人　折野胃腸科内科【通所リハビリテーション】徳島県海部郡海陽町宍喰浦字松原５８－５", "url": "https://www.kaigokensaku.mhlw.go.jp/36/index.php?action_kouhyou_detail_004_kani=true&JigyosyoCd=3611410485-00&ServiceCd=160&Type=search", "url2": null }, "geometry": { "type": "Point", "coordinates": [ 134.3054649, 33.5677585 ] } },
{ "type": "Feature", "properties": { "内容": "老人保健施設　ジャンボ緑風会【通所リハビリテーション】徳島県海部郡海陽町久保字板取243番310", "url": "https://www.kaigokensaku.mhlw.go.jp/36/index.php?action_kouhyou_detail_004_kani=true&JigyosyoCd=3651480372-00&ServiceCd=160&Type=search", "url2": "https://www.kenshokai.group/" }, "geometry": { "type": "Point", "coordinates": [ 134.306663413491833, 33.576354206502302 ] } },
{ "type": "Feature", "properties": { "内容": "うらた通所リハビリテーション事業所【通所リハビリテーション】徳島県板野郡松茂町広島字南ハリ１３", "url": "https://www.kaigokensaku.mhlw.go.jp/36/index.php?action_kouhyou_detail_004_kani=true&JigyosyoCd=3611510037-00&ServiceCd=160&Type=search", "url2": "uratahp.com" }, "geometry": { "type": "Point", "coordinates": [ 134.577426, 34.1330128 ] } },
{ "type": "Feature", "properties": { "内容": "芳川病院【通所リハビリテーション】徳島県板野郡松茂町中喜来字群恵278番地8", "url": "https://www.kaigokensaku.mhlw.go.jp/36/index.php?action_kouhyou_detail_004_kani=true&JigyosyoCd=3611510235-00&ServiceCd=160&Type=search", "url2": "https://www.yujoukai.jp/tusho.html" }, "geometry": { "type": "Point", "coordinates": [ 134.593218900000011, 34.143720200000011 ] } },
{ "type": "Feature", "properties": { "内容": "介護老人保健施設縁樹【通所リハビリテーション】徳島県板野郡松茂町広島字四番越1番地5", "url": "https://www.kaigokensaku.mhlw.go.jp/36/index.php?action_kouhyou_detail_004_kani=true&JigyosyoCd=3651580171-00&ServiceCd=160&Type=search", "url2": "https://yujoukai.jp/kh_enju.html" }, "geometry": { "type": "Point", "coordinates": [ 134.58395029999997, 34.1371901 ] } },
{ "type": "Feature", "properties": { "内容": "介護老人保健施設　敬愛の家【通所リハビリテーション】徳島県板野郡北島町中村字八丁野22番地の1", "url": "https://www.kaigokensaku.mhlw.go.jp/36/index.php?action_kouhyou_detail_004_kani=true&JigyosyoCd=3651580064-00&ServiceCd=160&Type=search", "url2": "https://syuseikai-group.net/medical" }, "geometry": { "type": "Point", "coordinates": [ 134.537974100000042, 34.1302713 ] } },
{ "type": "Feature", "properties": { "内容": "TAOKA通所リハビリセンター北島【通所リハビリテーション】徳島県板野郡北島町鯛浜字川久保30番地1", "url": "https://www.kaigokensaku.mhlw.go.jp/36/index.php?action_kouhyou_detail_004_kani=true&JigyosyoCd=3611510243-00&ServiceCd=160&Type=search", "url2": "http://www.kitajima-taoka.or.jp/" }, "geometry": { "type": "Point", "coordinates": [ 134.553691894581561, 34.110802178899924 ] } },
{ "type": "Feature", "properties": { "内容": "こうのINRクリニック【通所リハビリテーション】徳島県板野郡藍住町東中富字龍池傍示54-3", "url": "https://www.kaigokensaku.mhlw.go.jp/36/index.php?action_kouhyou_detail_004_kani=true&JigyosyoCd=3611513528-00&ServiceCd=160&Type=search", "url2": "https://kohno-clinic.amebaownd.com" }, "geometry": { "type": "Point", "coordinates": [ 134.47665760000001, 34.1248756 ] } },
{ "type": "Feature", "properties": { "内容": "デイケア　勝瑞苑【通所リハビリテーション】徳島県板野郡藍住町勝瑞字成長62番地", "url": "https://www.kaigokensaku.mhlw.go.jp/36/index.php?action_kouhyou_detail_004_kani=true&JigyosyoCd=3611513445-00&ServiceCd=160&Type=search", "url2": null }, "geometry": { "type": "Point", "coordinates": [ 134.518639900000039, 34.1290101 ] } },
{ "type": "Feature", "properties": { "内容": "デイケアセンターつどい【通所リハビリテーション】徳島県板野郡藍住町奥野長江口70－7", "url": "https://www.kaigokensaku.mhlw.go.jp/36/index.php?action_kouhyou_detail_004_kani=true&JigyosyoCd=3611513403-00&ServiceCd=160&Type=search", "url2": "http://clinic-okumura.com" }, "geometry": { "type": "Point", "coordinates": [ 134.482855299999983, 34.1238818 ] } },
{ "type": "Feature", "properties": { "内容": "デイケア　あいそら【通所リハビリテーション】徳島県板野郡藍住町住吉字千鳥ヶ浜110-5", "url": "https://www.kaigokensaku.mhlw.go.jp/36/index.php?action_kouhyou_detail_004_kani=true&JigyosyoCd=3611513551-00&ServiceCd=160&Type=search", "url2": "https://tamaki-aozora.ne.jp/aizumi/" }, "geometry": { "type": "Point", "coordinates": [ 134.502741519296251, 34.120401962798454 ] } },
{ "type": "Feature", "properties": { "内容": "介護老人保健施設　昴【通所リハビリテーション】徳島県板野郡藍住町矢上字安任137-1介護老人保健施設　昴", "url": "https://www.kaigokensaku.mhlw.go.jp/36/index.php?action_kouhyou_detail_004_kani=true&JigyosyoCd=3651580338-00&ServiceCd=160&Type=search", "url2": "htttp://www.ryoun.com" }, "geometry": { "type": "Point", "coordinates": [ 134.497295, 34.1365255 ] } },
{ "type": "Feature", "properties": { "内容": "こうのINRクリニック通所リハビリテーション事業所【通所リハビリテーション】徳島県板野郡藍住町東中富字龍池傍示54番地3", "url": "https://www.kaigokensaku.mhlw.go.jp/36/index.php?action_kouhyou_detail_004_kani=true&JigyosyoCd=3611513668-00&ServiceCd=160&Type=search", "url2": "https://kohno-clinic.amebaownd.com/" }, "geometry": { "type": "Point", "coordinates": [ 134.47668010000001, 34.1249547 ] } },
{ "type": "Feature", "properties": { "内容": "介護老人保健施設　紅梅苑【通所リハビリテーション】徳島県板野郡板野町大寺字苅辺裏18番地1", "url": "https://www.kaigokensaku.mhlw.go.jp/36/index.php?action_kouhyou_detail_004_kani=true&JigyosyoCd=3651580395-00&ServiceCd=160&Type=search", "url2": null }, "geometry": { "type": "Point", "coordinates": [ 134.455524100000048, 34.1346578 ] } },
{ "type": "Feature", "properties": { "内容": "井上病院【通所リハビリテーション】徳島県板野郡板野町犬伏字柳原２７番地", "url": "https://www.kaigokensaku.mhlw.go.jp/36/index.php?action_kouhyou_detail_004_kani=true&JigyosyoCd=3611510227-00&ServiceCd=160&Type=search", "url2": "http://www.juzenkai-inoue.awk.jp" }, "geometry": { "type": "Point", "coordinates": [ 134.454410199999984, 34.1397406 ] } },
{ "type": "Feature", "properties": { "内容": "老人保健施設健祥会ハート【通所リハビリテーション】板野郡上板町下六條字中西50番地1", "url": "https://www.kaigokensaku.mhlw.go.jp/36/index.php?action_kouhyou_detail_004_kani=true&JigyosyoCd=3651580353-00&ServiceCd=160&Type=search", "url2": "http://www.kenshokai.group" }, "geometry": { "type": "Point", "coordinates": [ 134.433932300000038, 34.1113134 ] } },
{ "type": "Feature", "properties": { "内容": "老人保健施設　健祥会シェーンブルン【通所リハビリテーション】徳島県三好郡東みよし町中庄1369番地1", "url": "https://www.kaigokensaku.mhlw.go.jp/36/index.php?action_kouhyou_detail_004_kani=true&JigyosyoCd=3651980454-00&ServiceCd=160&Type=search", "url2": "http://www.kenshokai.group/" }, "geometry": { "type": "Point", "coordinates": [ 133.962033683836353, 34.034588669731434 ] } }
]
}
