{
"type": "FeatureCollection",
"name": "geo_36_各種学校",
"crs": { "type": "name", "properties": { "name": "urn:ogc:def:crs:EPSG::6668" } },
"features": [
{ "type": "Feature", "properties": { "P29_001": "36201", "P29_002": "H236320100019", "P29_003": "16015", "P29_004": "津田珠算学校", "P29_005": "徳島県徳島市津田西町2-1-38", "P29_006": "4", "P29_007": "0", "P29_008": "00", "P29_009": null }, "geometry": { "type": "Point", "coordinates": [ 134.575164416445489, 34.049387682235512 ] } },
{ "type": "Feature", "properties": { "P29_001": "36201", "P29_002": "H236320100028", "P29_003": "16015", "P29_004": "尾上和裁学園", "P29_005": "徳島県徳島市佐古2番町8-9", "P29_006": "4", "P29_007": "0", "P29_008": "00", "P29_009": null }, "geometry": { "type": "Point", "coordinates": [ 134.538726228671976, 34.078135383739657 ] } },
{ "type": "Feature", "properties": { "P29_001": "36202", "P29_002": "H236320200018", "P29_003": "16015", "P29_004": "南海病院付属准看護学院", "P29_005": "徳島県鳴門市鳴門町土佐泊浦字高砂14-2", "P29_006": "4", "P29_007": "0", "P29_008": "00", "P29_009": null }, "geometry": { "type": "Point", "coordinates": [ 134.624935492379194, 34.189898456685533 ] } },
{ "type": "Feature", "properties": { "P29_001": "36208", "P29_002": "H236320800012", "P29_003": "16015", "P29_004": "三好市医師会准看護学院", "P29_005": "徳島県三好市池田町シマ842-1", "P29_006": "4", "P29_007": "0", "P29_008": "00", "P29_009": null }, "geometry": { "type": "Point", "coordinates": [ 133.816916207506409, 34.028130949668281 ] } }
]
}
